ROWNUM;name;adress;okrug;rayon;form_of_incorporation;submission;tip_uchrezhdeniya;vid_uchrezhdeniya;telephone;web_site;e_mail;X;Y;global_id
1;"Государственное бюджетное образовательное учреждение города Москвы гимназия № 1505 ""Московская городская педагогическая  гимназия-лаборатория""";107061, г. Москва, улица  2-я Пугачевская, дом 6А;Восточный административный округ;район Преображенское;Государственное;Восточное окружное управление образования;Общеобразовательное учреждение;Гимназия;963-76-77;gymg1505.mskobr.ru;gym1505@mail.ru;37,728587;55,795602;86660640
10;Частное учреждение Центр образования «Европейская гимназия»;107014, г. Москва, ул.3-я Сокольническая, дом 3;Восточный административный округ;район Сокольники;Негосударственное;Негосударственное;Общеобразовательное учреждение;Гимназия;269-07-10,268-44-04;;info@eurogym.ru;37,68392;55,786494;86887646
22;Государственное бюджетное образовательное учреждение города Москвы Гимназия №1504;111555, город Москва, улица Сталеваров, дом 10 А;Восточный административный округ;район Ивановское;Государственное;Восточное окружное управление образования;Общеобразовательное учреждение;Гимназия;307-59-30;gymg1504.mskobr.ru;goy1504@mail.ru;37,838039;55,762339;86890310
31;Государственное бюджетное образовательное учреждение города Москвы Гимназия №1516;107589, г. Москва, ул. Хабаровская, д. 4а;Восточный административный округ;район Гольяново;Государственное;Восточное окружное управление образования;Общеобразовательное учреждение;Гимназия;460-43-77;gymv1516.mskobr.ru;info@gogi1516.ru;37,831778;55,816787;86890346
34;Государственное бюджетное образовательное  учреждение города Москвы гимназия  №1290;105043, г. Москва, ул. Первомайская, д.59, строение 1;Восточный административный округ;район Измайлово;Государственное;Восточное окружное управление образования;Общеобразовательное учреждение;Гимназия;165-52-42;gymv1290.mskobr.ru;gym1290@yandex.ru;37,793137;55,793755;86893865
54;Государственное бюджетное образовательное учреждение города Москвы Измайловская гимназия №1508;105043, Первомайская улица, 65;Восточный административный округ;район Измайлово;Государственное;Восточное окружное управление образования;Общеобразовательное учреждение;Гимназия;"(495) 465-58-22; (495) 465-08-43; (495) 465-38-76";gymv1508.mskobr.ru;ooig1508@yandex.ru;37,795689;55,793866;86914886
55;Государственное бюджетное образовательное учреждение города Москвы гимназия № 1512;111538, г. Москва, ул. Косинская, д.24А;Восточный административный округ;район Вешняки;Государственное;Восточное окружное управление образования;Общеобразовательное учреждение;Гимназия;374-77-44;gymv1512.mskobr.ru/;gym 1512@mail.ru;37,830356;55,718465;86914887
56;"Государственное бюджетное образовательное учреждение города Москвы гимназия № 1530 ""Школа Ломоносова""";107014, Москва, ул. Егерская, д. 4;Восточный административный округ;район Сокольники;Государственное;Восточное окружное управление образования;Общеобразовательное учреждение;Гимназия;603-09-62;gymv1530.mskobr.ru;gym1530@yandex.ru;37,683637;55,788006;86914888
57;Государственное бюджетное образовательное учреждение города Москвы гимназия № 1591;111672, Москва, ул.Новокосинская, д. 40 А;Восточный административный округ;район Новокосино;Государственное;Восточное окружное управление образования;Общеобразовательное учреждение;Гимназия;"(495) 702-32-39; (495) 702-32-40; (495) 702-40-01";gymv1591.mskobr.ru;vagsch1591@yandex.ru;37,872467;55,741779;86914889
59;Государственное бюджетное образовательное учреждение города Москвы гимназия №1563;105215,  Москва, ул. 13-я  Парковая,  д. 33;Восточный административный округ;район Северное Измайлово;Государственное;Восточное окружное управление образования;Общеобразовательное учреждение;Гимназия;468-09-44;gym1563.mskobr.ru/;gymn1563@rambler.ru;37,810385;55,807575;86930407
73;Государственное бюджетное образовательное учреждение города Москвы Московская международная гимназия;111123, Москва,  3-я Владимирская улица  дом 5;Восточный административный округ;район Перово;Государственное;Восточное окружное управление образования;Общеобразовательное учреждение;Гимназия;304-37-94;gymmg.mskobr.ru;mmg@goummg.ru;37,786712;55,76233;86930651
77;"Государственное бюджетное образовательное учреждение города Москвы гимназия № 1404 ""Гамма""";107014, Москва,  ул. Большая Оленья,  д. 3;Восточный административный округ;район Сокольники;Государственное;Восточное окружное управление образования;Общеобразовательное учреждение;Гимназия;"(499) 269-02-19; (499) 268-46-80; (499) 269-02-96";cov1404.mskobr.ru;gamma1404@list.ru;37,686971;55,807906;86931061
82;"Государственное бюджетное образовательное учреждение города Москвы гимназия №1748 ""Вертикаль""";105484, г. Москва, Сиреневый бульвар, д. 73, корп. 3;Восточный административный округ;район Северное Измайлово;Государственное;Восточное окружное управление образования;Общеобразовательное учреждение;Гимназия;"(499) 461-75-73; (499) 461-82-07";co1748.mskobr.ru;center_vertikal@mail.ru;37,827347;55,810362;86931112
88;Государственное бюджетное образовательное учреждение города Москвы гимназия № 1926;111672, г. Москва, ул. Салтыковская, д. 5А;Восточный административный округ;район Новокосино;Государственное;Восточное окружное управление образования;Общеобразовательное учреждение;Гимназия;702-75-40;cov1926.mskobr.ru;ds2351@yandex.ru;37,857971;55,732117;86931222
89;"Государственное бюджетное образовательное учреждение города Москвы гимназия №1452 ""Богородская""";107564, г. Москва, ул. 1-я Гражданская, д.96;Восточный административный округ;район Богородское;Государственное;Восточное окружное управление образования;Общеобразовательное учреждение;Гимназия;(495) 964-88-01;co1452.mskobr.ru;co1452@mail.ru;37,709005;55,807256;86931223
99;Государственное бюджетное образовательное учреждение города Москвы Московская международная гимназия;111123, Москва,  3-я Владимирская улица  дом 5;Восточный административный округ;район Перово;Государственное;Восточное окружное управление образования;Общеобразовательное учреждение;Гимназия;304-37-94;gymmg.mskobr.ru;mmg@goummg.ru;37,801074;55,756373;87028628
100;Государственное бюджетное образовательное учреждение города Москвы Московская международная гимназия;111123, Москва,  3-я Владимирская улица  дом 5;Восточный административный округ;район Перово;Государственное;Восточное окружное управление образования;Общеобразовательное учреждение;Гимназия;304-37-94;gymmg.mskobr.ru;mmg@goummg.ru;37,801192;55,756024;87028629
115;"Государственное бюджетное образовательное учреждение города Москвы гимназия №1748 ""Вертикаль""";105484, г. Москва, Сиреневый бульвар, д. 73, корп. 3;Восточный административный округ;район Северное Измайлово;Государственное;Восточное окружное управление образования;Общеобразовательное учреждение;Гимназия;"(499) 461-75-73; (499) 461-82-07";co1748.mskobr.ru;center_vertikal@mail.ru;37,833479;55,802589;87029013
116;"Государственное бюджетное образовательное учреждение города Москвы гимназия №1748 ""Вертикаль""";105484, г. Москва, Сиреневый бульвар, д. 73, корп. 3;Восточный административный округ;район Северное Измайлово;Государственное;Восточное окружное управление образования;Общеобразовательное учреждение;Гимназия;"(499) 461-75-73; (499) 461-82-07";co1748.mskobr.ru;center_vertikal@mail.ru;37,825843;55,799273;87029014
117;"Государственное бюджетное образовательное учреждение города Москвы гимназия №1748 ""Вертикаль""";105484, г. Москва, Сиреневый бульвар, д. 73, корп. 3;Восточный административный округ;район Северное Измайлово;Государственное;Восточное окружное управление образования;Общеобразовательное учреждение;Гимназия;"(499) 461-75-73; (499) 461-82-07";co1748.mskobr.ru;center_vertikal@mail.ru;37,82785;55,804892;87029015
118;Частное учреждение Центр образования «Европейская гимназия»;107014, г. Москва, ул.3-я Сокольническая, дом 3;Восточный административный округ;район Сокольники;Негосударственное;Негосударственное;Общеобразовательное учреждение;Гимназия;269-07-10,268-44-04;;info@eurogym.ru;37,66792;55,791102;87029035
133;"Государственное бюджетное образовательное учреждение города Москвы гимназия №1452 ""Богородская""";107564, г. Москва, ул. 1-я Гражданская, д.96;Восточный административный округ;район Богородское;Государственное;Восточное окружное управление образования;Общеобразовательное учреждение;Гимназия;(495) 964-88-01;co1452.mskobr.ru;co1452@mail.ru;37,708281;55,807815;87029282
138;Государственное бюджетное образовательное учреждение города Москвы Измайловская гимназия №1508;105043, Первомайская улица, 65;Восточный административный округ;район Измайлово;Государственное;Восточное окружное управление образования;Общеобразовательное учреждение;Гимназия;"(495) 465-58-22; (495) 465-08-43; (495) 465-38-76";gymv1508.mskobr.ru;ooig1508@yandex.ru;37,802662;55,792062;87029380
139;"Государственное бюджетное образовательное учреждение города Москвы гимназия № 1530 ""Школа Ломоносова""";107014, Москва, ул. Егерская, д. 4;Восточный административный округ;район Сокольники;Государственное;Восточное окружное управление образования;Общеобразовательное учреждение;Гимназия;603-09-62;gymv1530.mskobr.ru;gym1530@yandex.ru;37,684761;55,793388;87029381
148;"Государственное бюджетное образовательное учреждение города Москвы гимназия № 1404 ""Гамма""";107014, Москва,  ул. Большая Оленья,  д. 3;Восточный административный округ;район Сокольники;Государственное;Восточное окружное управление образования;Общеобразовательное учреждение;Гимназия;"(499) 269-02-19; (499) 268-46-80; (499) 269-02-96";cov1404.mskobr.ru;gamma1404@list.ru;37,685853;55,798076;87029570
149;"Государственное бюджетное образовательное учреждение города Москвы гимназия № 1404 ""Гамма""";107014, Москва,  ул. Большая Оленья,  д. 3;Восточный административный округ;район Сокольники;Государственное;Восточное окружное управление образования;Общеобразовательное учреждение;Гимназия;"(499) 269-02-19; (499) 268-46-80; (499) 269-02-96";cov1404.mskobr.ru;gamma1404@list.ru;37,686195;55,798441;87029571
150;"Государственное бюджетное образовательное учреждение города Москвы гимназия № 1404 ""Гамма""";107014, Москва,  ул. Большая Оленья,  д. 3;Восточный административный округ;район Сокольники;Государственное;Восточное окружное управление образования;Общеобразовательное учреждение;Гимназия;"(499) 269-02-19; (499) 268-46-80; (499) 269-02-96";cov1404.mskobr.ru;gamma1404@list.ru;37,685886;55,798762;87029572
151;"Государственное бюджетное образовательное учреждение города Москвы гимназия № 1404 ""Гамма""";107014, Москва,  ул. Большая Оленья,  д. 3;Восточный административный округ;район Сокольники;Государственное;Восточное окружное управление образования;Общеобразовательное учреждение;Гимназия;"(499) 269-02-19; (499) 268-46-80; (499) 269-02-96";cov1404.mskobr.ru;gamma1404@list.ru;37,685802;55,798502;87029573
152;"Государственное бюджетное образовательное учреждение города Москвы гимназия № 1404 ""Гамма""";107014, Москва,  ул. Большая Оленья,  д. 3;Восточный административный округ;район Сокольники;Государственное;Восточное окружное управление образования;Общеобразовательное учреждение;Гимназия;"(499) 269-02-19; (499) 268-46-80; (499) 269-02-96";cov1404.mskobr.ru;gamma1404@list.ru;37,685243;55,798052;87029574
153;"Государственное бюджетное образовательное учреждение города Москвы гимназия № 1404 ""Гамма""";107014, Москва,  ул. Большая Оленья,  д. 3;Восточный административный округ;район Сокольники;Государственное;Восточное окружное управление образования;Общеобразовательное учреждение;Гимназия;"(499) 269-02-19; (499) 268-46-80; (499) 269-02-96";cov1404.mskobr.ru;gamma1404@list.ru;37,685586;55,797879;87029575
154;"Государственное бюджетное образовательное учреждение города Москвы гимназия № 1404 ""Гамма""";107014, Москва,  ул. Большая Оленья,  д. 3;Восточный административный округ;район Сокольники;Государственное;Восточное окружное управление образования;Общеобразовательное учреждение;Гимназия;"(499) 269-02-19; (499) 268-46-80; (499) 269-02-96";cov1404.mskobr.ru;gamma1404@list.ru;37,688124;55,803762;87029576
155;"Государственное бюджетное образовательное учреждение города Москвы гимназия № 1404 ""Гамма""";107014, Москва,  ул. Большая Оленья,  д. 3;Восточный административный округ;район Сокольники;Государственное;Восточное окружное управление образования;Общеобразовательное учреждение;Гимназия;"(499) 269-02-19; (499) 268-46-80; (499) 269-02-96";cov1404.mskobr.ru;gamma1404@list.ru;37,68471;55,797678;87029577
156;"Государственное бюджетное образовательное учреждение города Москвы гимназия № 1404 ""Гамма""";107014, Москва,  ул. Большая Оленья,  д. 3;Восточный административный округ;район Сокольники;Государственное;Восточное окружное управление образования;Общеобразовательное учреждение;Гимназия;"(499) 269-02-19; (499) 268-46-80; (499) 269-02-96";cov1404.mskobr.ru;gamma1404@list.ru;37,686941;55,798492;87029578
157;"Государственное бюджетное образовательное учреждение города Москвы гимназия № 1404 ""Гамма""";107014, Москва,  ул. Большая Оленья,  д. 3;Восточный административный округ;район Сокольники;Государственное;Восточное окружное управление образования;Общеобразовательное учреждение;Гимназия;"(499) 269-02-19; (499) 268-46-80; (499) 269-02-96";cov1404.mskobr.ru;gamma1404@list.ru;37,686366;55,798842;87029579
158;"Государственное бюджетное образовательное учреждение города Москвы гимназия № 1404 ""Гамма""";107014, Москва,  ул. Большая Оленья,  д. 3;Восточный административный округ;район Сокольники;Государственное;Восточное окружное управление образования;Общеобразовательное учреждение;Гимназия;"(499) 269-02-19; (499) 268-46-80; (499) 269-02-96";cov1404.mskobr.ru;gamma1404@list.ru;37,686659;55,798676;87029580
159;"Государственное бюджетное образовательное учреждение города Москвы гимназия № 1404 ""Гамма""";107014, Москва,  ул. Большая Оленья,  д. 3;Восточный административный округ;район Сокольники;Государственное;Восточное окружное управление образования;Общеобразовательное учреждение;Гимназия;"(499) 269-02-19; (499) 268-46-80; (499) 269-02-96";cov1404.mskobr.ru;gamma1404@list.ru;37,686097;55799;87029581
160;"Государственное бюджетное образовательное учреждение города Москвы гимназия № 1404 ""Гамма""";107014, Москва,  ул. Большая Оленья,  д. 3;Восточный административный округ;район Сокольники;Государственное;Восточное окружное управление образования;Общеобразовательное учреждение;Гимназия;"(499) 269-02-19; (499) 268-46-80; (499) 269-02-96";cov1404.mskobr.ru;gamma1404@list.ru;37,687488;55,798323;87029582
161;"Государственное бюджетное образовательное учреждение города Москвы гимназия № 1404 ""Гамма""";107014, Москва,  ул. Большая Оленья,  д. 3;Восточный административный округ;район Сокольники;Государственное;Восточное окружное управление образования;Общеобразовательное учреждение;Гимназия;"(499) 269-02-19; (499) 268-46-80; (499) 269-02-96";cov1404.mskobr.ru;gamma1404@list.ru;37,685012;55,797859;87029583
162;"Государственное бюджетное образовательное учреждение города Москвы гимназия № 1404 ""Гамма""";107014, Москва,  ул. Большая Оленья,  д. 3;Восточный административный округ;район Сокольники;Государственное;Восточное окружное управление образования;Общеобразовательное учреждение;Гимназия;"(499) 269-02-19; (499) 268-46-80; (499) 269-02-96";cov1404.mskobr.ru;gamma1404@list.ru;37,687265;55,798141;87029584
163;"Государственное бюджетное образовательное учреждение города Москвы гимназия № 1404 ""Гамма""";107014, Москва,  ул. Большая Оленья,  д. 3;Восточный административный округ;район Сокольники;Государственное;Восточное окружное управление образования;Общеобразовательное учреждение;Гимназия;"(499) 269-02-19; (499) 268-46-80; (499) 269-02-96";cov1404.mskobr.ru;gamma1404@list.ru;37,82756;55,715998;87029585
164;"Государственное бюджетное образовательное учреждение города Москвы гимназия № 1404 ""Гамма""";107014, Москва,  ул. Большая Оленья,  д. 3;Восточный административный округ;район Сокольники;Государственное;Восточное окружное управление образования;Общеобразовательное учреждение;Гимназия;"(499) 269-02-19; (499) 268-46-80; (499) 269-02-96";cov1404.mskobr.ru;gamma1404@list.ru;37,825446;55,717098;87029586
165;"Государственное бюджетное образовательное учреждение города Москвы гимназия № 1404 ""Гамма""";107014, Москва,  ул. Большая Оленья,  д. 3;Восточный административный округ;район Сокольники;Государственное;Восточное окружное управление образования;Общеобразовательное учреждение;Гимназия;"(499) 269-02-19; (499) 268-46-80; (499) 269-02-96";cov1404.mskobr.ru;gamma1404@list.ru;37,685506;55,798197;87029587
2;Государственное бюджетное образовательное учреждение города Москвы гимназия № 1541;119415 г. Москва, пр. Вернадского, д. 55;Западный административный округ;район Проспект Вернадского;Государственное;Западное окружное управление образования;Общеобразовательное учреждение;Гимназия;431-46-76;http:/gym1541.mskzapad.ru/;gym1541@mail.ru;37,505496;55,673368;86660719
3;Государственное бюджетное образовательное учреждение города Москвы гимназия № 1542;119620, г. Москва, ул. Авиаторов, дом 8, корпус 2;Западный административный округ;район Солнцево;Государственное;Западное окружное управление образования;Общеобразовательное учреждение;Гимназия;934-87-32;gym1542.mskzapad.ru/;1542@inbox.ru;37,399572;55,646767;86660720
4;Государственное бюджетное образовательное учреждение Московская гимназия на Юго-Западе № 1543;119571 г.Москва, 26 Бакинских комиссаров, д. 3, корпус 5;Западный административный округ;район Тропарёво-Никулино;Государственное;Западное окружное управление образования;Общеобразовательное учреждение;Гимназия;434-26-44;;adm1543@yandex.ru;37,486343;55,65606;86660721
5;Государственное бюджетное образовательное учреждение города Москвы гимназия № 1567;121170 г.Москва, Кутузовский проезд, д.10, стр.1;Западный административный округ;район Дорогомилово;Государственное;Западное окружное управление образования;Общеобразовательное учреждение;Гимназия;(499) 148-15-32;;gimn1567@mail.ru;37,523368;55,741435;86660722
14;Государственное бюджетное образовательное учреждение города Москвы гимназия № 1584;121615 г.Москва, Рублевское шоссе, д. 24, корпус 3;Западный административный округ;район Кунцево;Государственное;Западное окружное управление образования;Общеобразовательное учреждение;Гимназия;"(495) 413-34-67; (495) 413-34-91";ds1334.mskzapad.ru/;school1131@mail.ru;37,430137;55,744966;86887795
15;Государственное бюджетное образовательное учреждение города Москвы гимназия № 1588;121357 г. Москва, ул. Инициативная, д. 1;Западный административный округ;район Фили-Давыдково;Государственное;Западное окружное управление образования;Общеобразовательное учреждение;Гимназия;444-25-71;gym1588.mskzapad.ru;sch803@mail.ru;37,461107;55,716544;86890225
16;Государственное бюджетное образовательное учреждение города Москвы гимназия № 1596;119633 г.Москва, ул. Приречная,д.1;Западный административный округ;район Ново-Переделкино;Государственное;Западное окружное управление образования;Общеобразовательное учреждение;Гимназия;"(495) 733-54-10; (495) 733-54-13; (495) 731-10-01; (495) 733-56-72; (495) 733-86-04";gym1596.mskzapad.ru/;school1016@mail.ru;37,371638;55,641567;86890252
17;Государственное бюджетное образовательное учреждение города Москвы гимназия № 1593;121614 г.Москва, ул. Крылатские холмы, д. 28, корпус 1;Западный административный округ;район Крылатское;Государственное;Западное окружное управление образования;Общеобразовательное учреждение;Гимназия;"(495) 413-85-55; (495) 413-77-75; (495) 415-50-04";gym1593mskzapad.ru;school1128@mail.ru;37,414652;55,764904;86890270
20;Государственное бюджетное образовательное учреждение города Москвы Гимназия № 1306;119192, г. Москва, Мичуринский проспект, д. 15, корп. 2, 3;Западный административный округ;район Раменки;Государственное;Западное окружное управление образования;Общеобразовательное учреждение;Гимназия;932-89-42;gymg1306.mskobr.ru;administration@sch1306.ru;37,509049;55,698245;86890295
121;Государственное бюджетное образовательное учреждение города Москвы Гимназия № 1306;119192, г. Москва, Мичуринский проспект, д. 15, корп. 2, 3;Западный административный округ;район Раменки;Государственное;Западное окружное управление образования;Общеобразовательное учреждение;Гимназия;932-89-42;gymg1306.mskobr.ru;administration@sch1306.ru;37,508133;55,699035;87029147
167;Государственное бюджетное образовательное учреждение города Москвы гимназия № 1584;121615 г.Москва, Рублевское шоссе, д. 24, корпус 3;Западный административный округ;район Кунцево;Государственное;Западное окружное управление образования;Общеобразовательное учреждение;Гимназия;"(495) 413-34-67; (495) 413-34-91";ds1334.mskzapad.ru/;school1131@mail.ru;37,428105;55,739341;87029924
168;Государственное бюджетное образовательное учреждение города Москвы гимназия № 1584;121615 г.Москва, Рублевское шоссе, д. 24, корпус 3;Западный административный округ;район Кунцево;Государственное;Западное окружное управление образования;Общеобразовательное учреждение;Гимназия;"(495) 413-34-67; (495) 413-34-91";ds1334.mskzapad.ru/;school1131@mail.ru;37,428899;55,745363;87029925
75;Государственное бюджетное образовательное учреждение города Москвы гимназия № 1528;124527, г. Москва, Зеленоград, корп. 817;Зеленоградский административный округ;район Старое Крюково;Государственное;Зеленоградское окружное управление образования;Общеобразовательное учреждение;Гимназия;"(499) 710-33-02; (499) 710-47-20";http://gymzg1528.mskobr.ru;s1528@zou.ru;37,182054;55,980081;86931025
134;Государственное бюджетное образовательное учреждение города Москвы гимназия № 1528;124527, г. Москва, Зеленоград, корп. 817;Зеленоградский административный округ;район Старое Крюково;Государственное;Зеленоградское окружное управление образования;Общеобразовательное учреждение;Гимназия;"(499) 710-33-02; (499) 710-47-20";http://gymzg1528.mskobr.ru;s1528@zou.ru;37,190778;55,976398;87029295
135;Государственное бюджетное образовательное учреждение города Москвы гимназия № 1528;124527, г. Москва, Зеленоград, корп. 817;Зеленоградский административный округ;район Старое Крюково;Государственное;Зеленоградское окружное управление образования;Общеобразовательное учреждение;Гимназия;"(499) 710-33-02; (499) 710-47-20";http://gymzg1528.mskobr.ru;s1528@zou.ru;37,178956;55,995564;87029296
65;Государственное бюджетное образовательное учреждение города Москвы гимназия № 201 ордена Трудового Красного Знамени имени Героев Советского Союза Зои и Александра Космодемьянских;125130, г. Москва, улица Зои и Александра Космодемьянских, дом 3;Северный административный округ;Войковский район;Государственное;Северное окружное управление образования;Общеобразовательное учреждение;Гимназия;"(495) 450-95-37; (499) 159-92-65";schsg201.mskobr.ru/;gymnasia201@yandex.ru;37,504292;55,821397;86930475
66;Государственное бюджетное образовательное учреждение города Москвы гимназия № 1570;125040, г. Москва, 5-я улица Ямского поля, д. 28/32;Северный административный округ;район Беговой;Государственное;Северное окружное управление образования;Общеобразовательное учреждение;Гимназия;612-71-81;gyms1570.mskobr.ru;gimnasia1570@yandex.ru;37,57703;55,789295;86930555
67;Государственное бюджетное образовательное учреждение города Москвы гимназия № 1576;125299, г. Москва, ул. Большая Академическая, д.22-А;Северный административный округ;район Коптево;Государственное;Северное окружное управление образования;Общеобразовательное учреждение;Гимназия;450-77-07;http://gyms1576.mskobr.ru;school@ultranet.ru;37,529302;55,822928;86930557
68;Государственное бюджетное образовательное учреждение города Москвы гимназия № 1583;125493, г. Москва, улица Смольная, дом 25;Северный административный округ;Головинский район;Государственное;Северное окружное управление образования;Общеобразовательное учреждение;Гимназия;458-02-57;gym1583s.mskobr.ru;1583gi@gmail.com;37,494518;55,849902;86930558
69;Государственное бюджетное образовательное учреждение города Москвы гимназия № 1590;125581, г. Москва, ул. Фестивальная, д. 16;Северный административный округ;район Ховрино;Государственное;Северное окружное управление образования;Общеобразовательное учреждение;Гимназия;"(495) 454-02-80; (495) 454-31-31";gyms1590.mskobr.ru;gymn1590@mail.ru;37,497294;55,859659;86930559
70;Государственное бюджетное образовательное учреждение города Москвы гимназия № 1592;127247, г. Москва, Бескудниковский проезд, дом 4 Б;Северный административный округ;Бескудниковский район;Государственное;Северное окружное управление образования;Общеобразовательное учреждение;Гимназия;489-73-25;gyms1592.mskobr.ru;1592@inbox.ru;37,555452;55,875192;86930560
18;Государственное бюджетное образовательное учреждение города Москвы гимназия №1539;129626, г. Москва, ул. Староалексеевская, дом 1;Северо-Восточный административный округ;Алексеевский район;Государственное;Северо-Восточное окружное управление образования;Общеобразовательное учреждение;Гимназия;(495) 686-29-80;gum1539sv.mskobr.ru/;gimnazia1539@yandex.ru;37,642074;55,810397;86890293
19;Государственное бюджетное образовательное учреждение города Москвы Гимназия № 1558 имени Росалии де Кастро;129327,  Москва, Чукотский проезд, д. 6;Северо-Восточный административный округ;Бабушкинский район;Государственное;Северо-Восточное окружное управление образования;Общеобразовательное учреждение;Гимназия;471-23-54;gymsv1558.mskobr.ru/;colrosaliacastro@mail.ru;37,65592;55,868529;86890294
23;Государственное бюджетное образовательное учреждение города Москвы гимназия № 1506;127282, г. Москва, ул. Широкая, д.1А;Северо-Восточный административный округ;район Северное Медведково;Государственное;Северо-Восточное окружное управление образования;Общеобразовательное учреждение;Гимназия;"(499) 476-00-89; (499) 476-38-56";gym1506sv.mskobr.ru;sch1506@yandex.ru;37,651042;55,889751;86890312
24;Государственное бюджетное образовательное учреждение города Москвы Гимназия №1518;129085, г. Москва, проспект Мира, д. 87;Северо-Восточный административный округ;Останкинский район;Государственное;Северо-Восточное окружное управление образования;Общеобразовательное учреждение;Гимназия;(495) 687-66-66;gum1518.svao.mskobr.ru;gou1518@mail.ru;37,635144;55,802929;86890313
37;Государственное бюджетное образовательное учреждение города Москвы Государственная столичная гимназия;127543 Белозерская улица, д. 12;Северо-Восточный административный округ;район Бибирево;Государственное;Северо-Восточное окружное управление образования;Общеобразовательное учреждение;Гимназия;"(495) 901-22-18; (499) 745-33-23";gymssv1.mskobr.ru;fertmanv@gmail.com;37,616216;55,895605;86893893
48;Государственное бюджетное  образовательное учреждение города Москвы гимназия № 1554;127490, г. Москва, ул. Пестеля, д.5,9А;Северо-Восточный административный округ;район Отрадное;Государственное;Северо-Восточное окружное управление образования;Общеобразовательное учреждение;Гимназия;(499) 203-17-90;gum1554sv.mskobr.ru;Gymn-1554@yandex.ru;37,606217;55,869329;86907930
49;"Государственное бюджетное образовательное учреждение города Москвы гимназия № 1565 ""Свиблово""";129323, г. Москва, ул. Седова, д. 4, корп. 1;Северо-Восточный административный округ;район Свиблово;Государственное;Северо-Восточное окружное управление образования;Общеобразовательное учреждение;Гимназия;(499) 656-60-81;gum1565sv.mskobr.ru/;edu1565@mail.ru;37,642182;55,852872;86907931
50;Государственное бюджетное образовательное учреждение города Москвы гимназия № 1572;127018, г.Москва, Октябрьский пер., д.11;Северо-Восточный административный округ;район Марьина Роща;Государственное;Северо-Восточное окружное управление образования;Общеобразовательное учреждение;Гимназия;681-67-58;gum1572sv.mskobr.ru/;gimnaz1572@mail.ru;37,610008;55,786661;86907932
51;Государственное бюджетное образовательное учреждение города Москвы гимназия № 1573;127253, г. Москва, ул. Псковская, д.11;Северо-Восточный административный округ;район Лианозово;Государственное;Северо-Восточное окружное управление образования;Общеобразовательное учреждение;Гимназия;(499) 501-13-27;http://gum1573.svao.mskobr.ru/;Gym1573@yandex.ru;37,552777;55,906675;86907933
52;Государственное бюджетное образовательное учреждение города Москвы гимназия № 1577;129337, г. Москва, Ярославское шоссе, дом ( владение) 8, корп. 6;Северо-Восточный административный округ;Ярославский район;Государственное;Северо-Восточное окружное управление образования;Общеобразовательное учреждение;Гимназия;(499) 188-47-47;gym1577sv.mskobr.ru/;gym1577@yandex.ru;37,690459;55,852786;86907934
63;Государственное бюджетное образовательное учреждение города Москвы гимназия № 1503;129626, г.Москва, ул.П.Корчагина, д.18;Северо-Восточный административный округ;Алексеевский район;Государственное;Северо-Восточное окружное управление образования;Общеобразовательное учреждение;Гимназия;(495) 683-77-12;gymsv1503.mskobr.ru;sch_1503@gor.educom.ru;37,658285;55,817286;86930434
64;"Государственное бюджетное образовательное учреждение города Москвы гимназия № 1531 ""Лингвистическая""";129085, г. Москва, ул. Годовикова, д.4, стр.3;Северо-Восточный административный округ;Останкинский район;Государственное;Северо-Восточное окружное управление образования;Общеобразовательное учреждение;Гимназия;(495) 687-01-07;gym1531sv.mskobr.ru;Sch1531edu@yandex.ru;37,631801;55,803952;86930446
90;Государственное бюджетное образовательное учреждение города Москвы Гимназия № 1558 имени Росалии де Кастро;129327,  Москва, Чукотский проезд, д. 6;Северо-Восточный административный округ;Бабушкинский район;Государственное;Северо-Восточное окружное управление образования;Общеобразовательное учреждение;Гимназия;471-23-54;gymsv1558.mskobr.ru/;colrosaliacastro@mail.ru;37,654054;55,868199;87013748
122;Государственное бюджетное образовательное учреждение города Москвы Гимназия №1518;129085, г. Москва, проспект Мира, д. 87;Северо-Восточный административный округ;Останкинский район;Государственное;Северо-Восточное окружное управление образования;Общеобразовательное учреждение;Гимназия;(495) 687-66-66;gum1518.svao.mskobr.ru;gou1518@mail.ru;37,634879;55,803707;87029148
136;Государственное бюджетное  образовательное учреждение города Москвы гимназия № 1554;127490, г. Москва, ул. Пестеля, д.5,9А;Северо-Восточный административный округ;район Отрадное;Государственное;Северо-Восточное окружное управление образования;Общеобразовательное учреждение;Гимназия;(499) 203-17-90;gum1554sv.mskobr.ru;Gymn-1554@yandex.ru;37,611873;55,865627;87029346
137;Государственное бюджетное  образовательное учреждение города Москвы гимназия № 1554;127490, г. Москва, ул. Пестеля, д.5,9А;Северо-Восточный административный округ;район Отрадное;Государственное;Северо-Восточное окружное управление образования;Общеобразовательное учреждение;Гимназия;(499) 203-17-90;gum1554sv.mskobr.ru;Gymn-1554@yandex.ru;37,613411;55,864558;87029347
141;"Государственное бюджетное образовательное учреждение города Москвы гимназия № 1531 ""Лингвистическая""";129085, г. Москва, ул. Годовикова, д.4, стр.3;Северо-Восточный административный округ;Останкинский район;Государственное;Северо-Восточное окружное управление образования;Общеобразовательное учреждение;Гимназия;(495) 687-01-07;gym1531sv.mskobr.ru;Sch1531edu@yandex.ru;37,632215;55,803672;87029441
142;"Государственное бюджетное образовательное учреждение города Москвы гимназия № 1531 ""Лингвистическая""";129085, г. Москва, ул. Годовикова, д.4, стр.3;Северо-Восточный административный округ;Останкинский район;Государственное;Северо-Восточное окружное управление образования;Общеобразовательное учреждение;Гимназия;(495) 687-01-07;gym1531sv.mskobr.ru;Sch1531edu@yandex.ru;37,632907;55,803713;87029442
143;"Государственное бюджетное образовательное учреждение города Москвы гимназия № 1531 ""Лингвистическая""";129085, г. Москва, ул. Годовикова, д.4, стр.3;Северо-Восточный административный округ;Останкинский район;Государственное;Северо-Восточное окружное управление образования;Общеобразовательное учреждение;Гимназия;(495) 687-01-07;gym1531sv.mskobr.ru;Sch1531edu@yandex.ru;37,633271;55,803998;87029443
169;Государственное бюджетное образовательное учреждение города Москвы гимназия № 1503;129626, г.Москва, ул.П.Корчагина, д.18;Северо-Восточный административный округ;Алексеевский район;Государственное;Северо-Восточное окружное управление образования;Общеобразовательное учреждение;Гимназия;(495) 683-77-12;gymsv1503.mskobr.ru;sch_1503@gor.educom.ru;37,662647;55,818178;87029998
40;Государственное бюджетное образовательное учреждение города Москвы гимназия № 1515;123154, г. Москва, ул. Народного Ополчения, д. 27, корп. 2;Северо-Западный административный округ;район Хорошёво-Мнёвники;Государственное;Северо-Западное окружное управление образования;Общеобразовательное учреждение;Гимназия;(499) 197-44-52;gym1515.mskobr.ru;gym1515@szouo.ru;37,477321;55,780555;86904012
41;Государственное бюджетное образовательное учреждение города Москвы гимназия № 1517;123103, г. Москва, ул. Живописная, д. 11, корп. 1;Северо-Западный административный округ;район Хорошёво-Мнёвники;Государственное;Северо-Западное окружное управление образования;Общеобразовательное учреждение;Гимназия;(499) 720-25-67;gymsz1517.mskobr.ru;gym1517@szouo.ru;37,458346;55,779906;86904013
42;Государственное бюджетное образовательное учреждение города Москвы гимназия № 1519;123181, г. Москва, ул. Маршала Катукова, д. 21, корп. 2;Северо-Западный административный округ;район Строгино;Государственное;Северо-Западное окружное управление образования;Общеобразовательное учреждение;Гимназия;"(495) 757-37-15; (495) 757-37-16; (495) 757-37-17; (495) 757-37-18; (495) 757-91-84; (495) 750-99-90";ds1519.mskobr.ru;gym1519@szouo.ru;37,408695;55,811139;86904014
43;Государственное бюджетное образовательное учреждение города Москвы гимназия № 1522;123423, г. Москва, ул. Народного Ополчения, д. 16, корп. 4;Северо-Западный административный округ;район Хорошёво-Мнёвники;Государственное;Северо-Западное окружное управление образования;Общеобразовательное учреждение;Гимназия;"(499) 191-25-94; (499) 191-65-04; (499) 946-24-31; (499) 191-93-89";g1522.mskobr.ru;gym1522@szouo.ru;37,482165;55,772831;86904015
44;Государственное бюджетное образовательное учреждение города Москвы гимназия № 1538;"125464, г. Москва, здание 1:Новотушинский проезд, д. 8, корп. 2;";Северо-Западный административный округ;район Митино;Государственное;Северо-Западное окружное управление образования;Общеобразовательное учреждение;Гимназия;751-14-91;gym1538.mskobr.ru/;gym1538@szouo.ru;37,388657;55,841565;86904016
45;Государственное бюджетное образовательное учреждение города Москвы гимназия № 1544;125222, г. Москва, ул. Пенягинская, д. 14;Северо-Западный административный округ;район Митино;Государственное;Северо-Западное окружное управление образования;Общеобразовательное учреждение;Гимназия;"(495) 752-61-11; (495) 753-19-03; (495) 794-35-11";gymsz1544.mskobr.ru;gym1544@szouo.ru;37,35941;55,836253;86904017
46;Государственное бюджетное образовательное учреждение города Москвы гимназия № 1551;125364, г. Москва, ул. Свободы, д. 42, корп. 2;Северо-Западный административный округ;район Южное Тушино;Государственное;Северо-Западное окружное управление образования;Общеобразовательное учреждение;Гимназия;492-95-75;gym1551.mskobr.ru;gym1551@szouo.ru;37,456187;55,846654;86904018
87;Государственное бюджетное образовательное учреждение города Москвы гимназия №1358;125310, г. Москва, Пятницкое шоссе, д. 45, корп. 2;Северо-Западный административный округ;район Митино;Государственное;Северо-Западное окружное управление образования;Общеобразовательное учреждение;Гимназия;"(495) 751-69-72; (495) 751-69-73";;sch1358@szouo.ru;37,347763;55,857906;86931210
92;Государственное бюджетное образовательное учреждение города Москвы гимназия № 1515;123154, г. Москва, ул. Народного Ополчения, д. 27, корп. 2;Северо-Западный административный округ;район Хорошёво-Мнёвники;Государственное;Северо-Западное окружное управление образования;Общеобразовательное учреждение;Гимназия;(499) 197-44-52;gym1515.mskobr.ru;gym1515@szouo.ru;37,474327;55,778721;87013760
93;Государственное бюджетное образовательное учреждение города Москвы гимназия № 1519;123181, г. Москва, ул. Маршала Катукова, д. 21, корп. 2;Северо-Западный административный округ;район Строгино;Государственное;Северо-Западное окружное управление образования;Общеобразовательное учреждение;Гимназия;"(495) 757-37-15; (495) 757-37-16; (495) 757-37-17; (495) 757-37-18; (495) 757-91-84; (495) 750-99-90";ds1519.mskobr.ru;gym1519@szouo.ru;37,407942;55,80978;87013761
94;Государственное бюджетное образовательное учреждение города Москвы гимназия № 1519;123181, г. Москва, ул. Маршала Катукова, д. 21, корп. 2;Северо-Западный административный округ;район Строгино;Государственное;Северо-Западное окружное управление образования;Общеобразовательное учреждение;Гимназия;"(495) 757-37-15; (495) 757-37-16; (495) 757-37-17; (495) 757-37-18; (495) 757-91-84; (495) 750-99-90";ds1519.mskobr.ru;gym1519@szouo.ru;37,414061;55,808603;87013762
95;Государственное бюджетное образовательное учреждение города Москвы гимназия № 1519;123181, г. Москва, ул. Маршала Катукова, д. 21, корп. 2;Северо-Западный административный округ;район Строгино;Государственное;Северо-Западное окружное управление образования;Общеобразовательное учреждение;Гимназия;"(495) 757-37-15; (495) 757-37-16; (495) 757-37-17; (495) 757-37-18; (495) 757-91-84; (495) 750-99-90";ds1519.mskobr.ru;gym1519@szouo.ru;37,401533;55,80674;87013763
96;Государственное бюджетное образовательное учреждение города Москвы гимназия № 1519;123181, г. Москва, ул. Маршала Катукова, д. 21, корп. 2;Северо-Западный административный округ;район Строгино;Государственное;Северо-Западное окружное управление образования;Общеобразовательное учреждение;Гимназия;"(495) 757-37-15; (495) 757-37-16; (495) 757-37-17; (495) 757-37-18; (495) 757-91-84; (495) 750-99-90";ds1519.mskobr.ru;gym1519@szouo.ru;37,410689;55,809379;87013764
97;Государственное бюджетное образовательное учреждение города Москвы гимназия № 1519;123181, г. Москва, ул. Маршала Катукова, д. 21, корп. 2;Северо-Западный административный округ;район Строгино;Государственное;Северо-Западное окружное управление образования;Общеобразовательное учреждение;Гимназия;"(495) 757-37-15; (495) 757-37-16; (495) 757-37-17; (495) 757-37-18; (495) 757-91-84; (495) 750-99-90";ds1519.mskobr.ru;gym1519@szouo.ru;37,412406;55,807634;87013765
101;Государственное бюджетное образовательное учреждение города Москвы гимназия № 1551;125364, г. Москва, ул. Свободы, д. 42, корп. 2;Северо-Западный административный округ;район Южное Тушино;Государственное;Северо-Западное окружное управление образования;Общеобразовательное учреждение;Гимназия;492-95-75;gym1551.mskobr.ru;gym1551@szouo.ru;37,457523;55,84515;87028738
102;Государственное бюджетное образовательное учреждение города Москвы гимназия № 1551;125364, г. Москва, ул. Свободы, д. 42, корп. 2;Северо-Западный административный округ;район Южное Тушино;Государственное;Северо-Западное окружное управление образования;Общеобразовательное учреждение;Гимназия;492-95-75;gym1551.mskobr.ru;gym1551@szouo.ru;37,456495;55,847785;87028739
103;Государственное бюджетное образовательное учреждение города Москвы гимназия № 1551;125364, г. Москва, ул. Свободы, д. 42, корп. 2;Северо-Западный административный округ;район Южное Тушино;Государственное;Северо-Западное окружное управление образования;Общеобразовательное учреждение;Гимназия;492-95-75;gym1551.mskobr.ru;gym1551@szouo.ru;37,452052;55,848961;87028740
104;Государственное бюджетное образовательное учреждение города Москвы гимназия № 1551;125364, г. Москва, ул. Свободы, д. 42, корп. 2;Северо-Западный административный округ;район Южное Тушино;Государственное;Северо-Западное окружное управление образования;Общеобразовательное учреждение;Гимназия;492-95-75;gym1551.mskobr.ru;gym1551@szouo.ru;37,449794;55,84866;87028741
105;Государственное бюджетное образовательное учреждение города Москвы гимназия № 1551;125364, г. Москва, ул. Свободы, д. 42, корп. 2;Северо-Западный административный округ;район Южное Тушино;Государственное;Северо-Западное окружное управление образования;Общеобразовательное учреждение;Гимназия;492-95-75;gym1551.mskobr.ru;gym1551@szouo.ru;37,450594;55,846009;87028742
106;Государственное бюджетное образовательное учреждение города Москвы гимназия № 1551;125364, г. Москва, ул. Свободы, д. 42, корп. 2;Северо-Западный административный округ;район Южное Тушино;Государственное;Северо-Западное окружное управление образования;Общеобразовательное учреждение;Гимназия;492-95-75;gym1551.mskobr.ru;gym1551@szouo.ru;37,449226;55,845371;87028743
107;Государственное бюджетное образовательное учреждение города Москвы гимназия №1358;125310, г. Москва, Пятницкое шоссе, д. 45, корп. 2;Северо-Западный административный округ;район Митино;Государственное;Северо-Западное окружное управление образования;Общеобразовательное учреждение;Гимназия;"(495) 751-69-72; (495) 751-69-73";;sch1358@szouo.ru;37,35103;55,855794;87028855
108;Государственное бюджетное образовательное учреждение города Москвы гимназия №1358;125310, г. Москва, Пятницкое шоссе, д. 45, корп. 2;Северо-Западный административный округ;район Митино;Государственное;Северо-Западное окружное управление образования;Общеобразовательное учреждение;Гимназия;"(495) 751-69-72; (495) 751-69-73";;sch1358@szouo.ru;37,346736;55,856738;87028856
109;Государственное бюджетное образовательное учреждение города Москвы гимназия №1358;125310, г. Москва, Пятницкое шоссе, д. 45, корп. 2;Северо-Западный административный округ;район Митино;Государственное;Северо-Западное окружное управление образования;Общеобразовательное учреждение;Гимназия;"(495) 751-69-72; (495) 751-69-73";;sch1358@szouo.ru;37,345821;55,854661;87028857
110;Государственное бюджетное образовательное учреждение города Москвы гимназия №1358;125310, г. Москва, Пятницкое шоссе, д. 45, корп. 2;Северо-Западный административный округ;район Митино;Государственное;Северо-Западное окружное управление образования;Общеобразовательное учреждение;Гимназия;"(495) 751-69-72; (495) 751-69-73";;sch1358@szouo.ru;37,344862;55,853953;87028858
111;Государственное бюджетное образовательное учреждение города Москвы гимназия №1358;125310, г. Москва, Пятницкое шоссе, д. 45, корп. 2;Северо-Западный административный округ;район Митино;Государственное;Северо-Западное окружное управление образования;Общеобразовательное учреждение;Гимназия;"(495) 751-69-72; (495) 751-69-73";;sch1358@szouo.ru;37,345754;55,855403;87028859
112;Государственное бюджетное образовательное учреждение города Москвы гимназия №1358;125310, г. Москва, Пятницкое шоссе, д. 45, корп. 2;Северо-Западный административный округ;район Митино;Государственное;Северо-Западное окружное управление образования;Общеобразовательное учреждение;Гимназия;"(495) 751-69-72; (495) 751-69-73";;sch1358@szouo.ru;37,348944;55,855769;87028860
114;Государственное бюджетное образовательное учреждение города Москвы гимназия № 1538;"125464, г. Москва, здание 1:Новотушинский проезд, д. 8, корп. 2;";Северо-Западный административный округ;район Митино;Государственное;Северо-Западное окружное управление образования;Общеобразовательное учреждение;Гимназия;751-14-91;gym1538.mskobr.ru/;gym1538@szouo.ru;37,382309;55,839297;87028933
123;Государственное бюджетное образовательное учреждение города Москвы гимназия № 1517;123103, г. Москва, ул. Живописная, д. 11, корп. 1;Северо-Западный административный округ;район Хорошёво-Мнёвники;Государственное;Северо-Западное окружное управление образования;Общеобразовательное учреждение;Гимназия;(499) 720-25-67;gymsz1517.mskobr.ru;gym1517@szouo.ru;37,451556;55,783956;87029162
124;Государственное бюджетное образовательное учреждение города Москвы гимназия № 1517;123103, г. Москва, ул. Живописная, д. 11, корп. 1;Северо-Западный административный округ;район Хорошёво-Мнёвники;Государственное;Северо-Западное окружное управление образования;Общеобразовательное учреждение;Гимназия;(499) 720-25-67;gymsz1517.mskobr.ru;gym1517@szouo.ru;37,453195;55,785184;87029163
125;Государственное бюджетное образовательное учреждение города Москвы гимназия № 1517;123103, г. Москва, ул. Живописная, д. 11, корп. 1;Северо-Западный административный округ;район Хорошёво-Мнёвники;Государственное;Северо-Западное окружное управление образования;Общеобразовательное учреждение;Гимназия;(499) 720-25-67;gymsz1517.mskobr.ru;gym1517@szouo.ru;37,457623;55,785694;87029164
126;Государственное бюджетное образовательное учреждение города Москвы гимназия № 1517;123103, г. Москва, ул. Живописная, д. 11, корп. 1;Северо-Западный административный округ;район Хорошёво-Мнёвники;Государственное;Северо-Западное окружное управление образования;Общеобразовательное учреждение;Гимназия;(499) 720-25-67;gymsz1517.mskobr.ru;gym1517@szouo.ru;37,463004;55,77515;87029165
127;Государственное бюджетное образовательное учреждение города Москвы гимназия № 1517;123103, г. Москва, ул. Живописная, д. 11, корп. 1;Северо-Западный административный округ;район Хорошёво-Мнёвники;Государственное;Северо-Западное окружное управление образования;Общеобразовательное учреждение;Гимназия;(499) 720-25-67;gymsz1517.mskobr.ru;gym1517@szouo.ru;37,451917;55,786387;87029166
128;Государственное бюджетное образовательное учреждение города Москвы гимназия № 1517;123103, г. Москва, ул. Живописная, д. 11, корп. 1;Северо-Западный административный округ;район Хорошёво-Мнёвники;Государственное;Северо-Западное окружное управление образования;Общеобразовательное учреждение;Гимназия;(499) 720-25-67;gymsz1517.mskobr.ru;gym1517@szouo.ru;37,459303;55,783048;87029167
129;Государственное бюджетное образовательное учреждение города Москвы гимназия № 1517;123103, г. Москва, ул. Живописная, д. 11, корп. 1;Северо-Западный административный округ;район Хорошёво-Мнёвники;Государственное;Северо-Западное окружное управление образования;Общеобразовательное учреждение;Гимназия;(499) 720-25-67;gymsz1517.mskobr.ru;gym1517@szouo.ru;37,457267;55,780484;87029168
130;Государственное бюджетное образовательное учреждение города Москвы гимназия № 1517;123103, г. Москва, ул. Живописная, д. 11, корп. 1;Северо-Западный административный округ;район Хорошёво-Мнёвники;Государственное;Северо-Западное окружное управление образования;Общеобразовательное учреждение;Гимназия;(499) 720-25-67;gymsz1517.mskobr.ru;gym1517@szouo.ru;37,451711;55,785034;87029169
6;Государственное бюджетное образовательное учреждение города Москвы Гимназия № 1529 имени А.С.Грибоедова;119034 г.Москва, 2-ой Обыденский пер, д.9;Центральный административный округ;район Хамовники;Государственное;Центральное окружное управление образования;Общеобразовательное учреждение;Гимназия;(499) 766-98-42;gymc1529.mskobr.ru;info@sch1529.ru;37,603496;55,741492;86887488
8;Негосударственное образовательное учреждение Православная Свято-Петровская школа;;Центральный административный округ;Таганский район;Негосударственное;Негосударственное;Общеобразовательное учреждение;Гимназия;(495) 916-34-94;noupspsch.mskobr.ru;info@tgym.ru;37,650765;55,751058;86887590
12;"Негосударственное образовательное учреждение ""Классическая гимназия при Греко-латинском кабинете Ю.А. Шичалина""";;Центральный административный округ;Мещанский район;Негосударственное;Негосударственное;Общеобразовательное учреждение;Гимназия;(495) 680-92-41;noukggk.mskobr.ru;info@mgl.ru;37,640304;55,783894;86887783
21;Государственное бюджетное образовательное учреждение города Москвы Гимназия № 1540;103055 г. Москва, Новослободская ул., д.57, стр.1;Центральный административный округ;Тверской район;Государственное;Центральное окружное управление образования;Общеобразовательное учреждение;Гимназия;(499) 978-35-84;gymc1540.mskobr.ru;school@msk.ort.ru;37,592162;55,786896;86890296
60;Государственное бюджетное образовательное учреждение города Москвы гимназия № 1521;119034, г. Москва, ул. Пречистенка, д. 12/2, стр. 8;Центральный административный округ;район Хамовники;Государственное;Центральное окружное управление образования;Общеобразовательное учреждение;Гимназия;(499) 766-93-31;gymc1521.mskobr.ru;direktor1768@mail.ru;37,580536;55,741919;86930429
61;Государственное бюджетное образовательное учреждение города Москвы Гимназия № 1520 имени Капцовых;125009 г.Москва, Леонтьевский пер., д.19/2, стр.1;Центральный административный округ;Пресненский район;Государственное;Центральное окружное управление образования;Общеобразовательное учреждение;Гимназия;"(495) 629-60-71; (495) 629-08-78; (495) 629-01-18; (495) 629-06-98; (495) 629-42-31; (495) 629-50-22; (495) 629-38-77";gymc1520.mskobr.ru;1520gym@bk.ru;37,604886;55,760892;86930432
62;"Государственное бюджетное образовательное учреждение города Москвы гимназия № 1513 ""Московская городская лингвистическая гимназия""";121099 г. Москва, Новинский б-р, д.3, стр.2;Центральный административный округ;район Арбат;Государственное;Центральное окружное управление образования;Общеобразовательное учреждение;Гимназия;(499) 254-08-29;gymc1513.mskobr.ru;bubman13@yandex.ru;37,580993;55,751274;86930433
85;"Негосударственное образовательное учреждение Гуманитарная гимназия ""Альтаир""";;Центральный административный округ;Пресненский район;Негосударственное;Негосударственное;Общеобразовательное учреждение;Гимназия;202-76-39;;all-ng@yandex.ru;37,61441;55,870966;86931187
98;Государственное бюджетное образовательное учреждение города Москвы гимназия № 1521;119034, г. Москва, ул. Пречистенка, д. 12/2, стр. 8;Центральный административный округ;район Хамовники;Государственное;Центральное окружное управление образования;Общеобразовательное учреждение;Гимназия;(499) 766-93-31;gymc1521.mskobr.ru;direktor1768@mail.ru;37,597756;55,744062;87028625
25;Государственное бюджетное образовательное учреждение города Москвы гимназия № 1595;140008, город Москва, 2-я Вольская улица, дом 7, корпус 2;Юго-Восточный административный округ;район Некрасовка;Государственное;Юго-Восточное окружное управление образования;Общеобразовательное учреждение;Гимназия;"(499) 211-26-10; (499) 211-26-12; (499) 211-26-15";gymuv1595.mskobr.ru;mail@gbou1595.ru;37,92317;55,688164;86890325
32;Государственное бюджетное образовательное учреждение города Москвы гимназия № 1599;109457, г. Москва, ул. Зеленодольская, д. 32, корп. 6;Юго-Восточный административный округ;район Кузьминки;Государственное;Юго-Восточное окружное управление образования;Общеобразовательное учреждение;Гимназия;(499) 172-06-05;gymuv1599.mskobr.ru;info@gym1599.ru;37,766758;55,711657;86890363
33;Государственное бюджетное образовательное учреждение города Москвы гимназия № 1597;109444, г. Москва, ул. Ташкентская, д. 6;Юго-Восточный административный округ;район Выхино-Жулебино;Государственное;Юго-Восточное окружное управление образования;Общеобразовательное учреждение;Гимназия;376-43-59;gymuv1597.mskobr.ru;gim1597@mail.ru;37,816312;55,709001;86890364
38;Государственное бюджетное образовательное учреждение города Москвы гимназия № 1562 имени Артема Боровика;109341, г.Москва, ул. Братиславская, дом 4;Юго-Восточный административный округ;район Марьино;Государственное;Юго-Восточное окружное управление образования;Общеобразовательное учреждение;Гимназия;349-00-11;gymuv1562.mskobr.ru;gimn1562@uvuo.ru;37,750711;55,662993;86899722
39;Государственное бюджетное образовательное учреждение города Москвы гимназия № 1566;109652, г. Москва, Мячковский бульвар, дом 14, к. 3;Юго-Восточный административный округ;район Марьино;Государственное;Юго-Восточное окружное управление образования;Общеобразовательное учреждение;Гимназия;(499) 784-88-69;gymuv1566.mskobr.ru/;gymnasium_1566@mail.ru;37,754603;55,65117;86899724
47;Государственное бюджетное образовательное учреждение города Москвы гимназия № 1274 имени В.В.Маяковского;115088, г. Москва, ул. 1-я Дубровская, д. 16;Юго-Восточный административный округ;Южнопортовый район;Государственное;Юго-Восточное окружное управление образования;Общеобразовательное учреждение;Гимназия;"(495) 674-20-47; (495) 674-20-40";gymg1274.mskobr.ru;1274@gymnasium1274.msk.ru;37,67135;55,723389;86904170
120;Государственное бюджетное образовательное учреждение города Москвы гимназия № 1562 имени Артема Боровика;109341, г.Москва, ул. Братиславская, дом 4;Юго-Восточный административный округ;район Марьино;Государственное;Юго-Восточное окружное управление образования;Общеобразовательное учреждение;Гимназия;349-00-11;gymuv1562.mskobr.ru;gimn1562@uvuo.ru;37,751241;55,665443;87029074
140;Государственное бюджетное образовательное учреждение города Москвы гимназия № 1597;109444, г. Москва, ул. Ташкентская, д. 6;Юго-Восточный административный округ;район Выхино-Жулебино;Государственное;Юго-Восточное окружное управление образования;Общеобразовательное учреждение;Гимназия;376-43-59;gymuv1597.mskobr.ru;gim1597@mail.ru;37,823299;55,695092;87029405
35;Государственное бюджетное образовательное учреждение города Москвы гимназия № 1536;119261, г.Москва, Ленинский проспект, дом 83 А;Юго-Западный административный округ;Ломоносовский район;Государственное;Юго-Западное окружное управление образования;Общеобразовательное учреждение;Гимназия;134-34-12;;gimn1536@mosuzedu.ru;37,539295;55,680074;86893886
53;Государственное бюджетное образовательное учреждение города Москвы Гимназия № 1786;117041, г.Москва, ул. Адмирала Лазарева, д. 77;Юго-Западный административный округ;район Южное Бутово;Государственное;Юго-Западное окружное управление образования;Общеобразовательное учреждение;Гимназия;(499) 793-77-09;http://gymuz1786.mskobr.ru/;potapovo1786@mail.ru;37,486776;55,538661;86911350
58;Государственное бюджетное образовательное учреждение города Москвы гимназия № 625;117449, г. Москва, ул. Шверника, д. 17, корп. 2;Юго-Западный административный округ;Академический район;Государственное;Юго-Западное окружное управление образования;Общеобразовательное учреждение;Гимназия;126-45-06;gymg625.mskobr.ru;gimnaziya_625@mail.ru;37,593372;55,692118;86914930
72;Государственное бюджетное образовательное учреждение города Москвы гимназия № 45 имени Л.И.Мильграма;117036, г. Москва, ул. Гримау, д.8;Юго-Западный административный округ;Академический район;Государственное;Юго-Западное окружное управление образования;Общеобразовательное учреждение;Гимназия;779-77-69;;po@ms45.edu.ru;37,58267;55,688575;86930649
78;Государственное бюджетное образовательное учреждение города Москвы гимназия № 1507;117321,  г. Москва, ул. Профсоюзная, дом 132, корп.9;Юго-Западный административный округ;район Тёплый Стан;Государственное;Юго-Западное окружное управление образования;Общеобразовательное учреждение;Гимназия;420-70-44;http://www.gumuz1507.mskobr.ru;gym1507@mosuzedu.ru;37,507002;55,630804;86931067
79;Государственное бюджетное образовательное учреждение города Москвы гимназия № 1514;119311, г.Москва, ул.Крупской, д.12;Юго-Западный административный округ;Ломоносовский район;Государственное;Юго-Западное окружное управление образования;Общеобразовательное учреждение;Гимназия;131-80-38;http://gumuz1514.mskobr.ru/;gum52@yandex.ru;37,526833;55,685077;86931069
80;Государственное бюджетное образовательное учреждение города Москвы гимназия № 1532;117465, г. Москва, ул. Теплый Стан, дом 13, корпус 3;Юго-Западный административный округ;район Тёплый Стан;Государственное;Юго-Западное окружное управление образования;Общеобразовательное учреждение;Гимназия;338-76-55;;;37,491549;55,622449;86931070
81;Государственное бюджетное образовательное учреждение города Москвы гимназия № 1534;117036, г.Москва, ул.Кедрова, д.11;Юго-Западный административный округ;Академический район;Государственное;Юго-Западное окружное управление образования;Общеобразовательное учреждение;Гимназия;125-59-82;http://gumuz1534.mskobr.ru/;gym1534@mail.ru;37,574192;55,684899;86931071
86;"Негосударственное образовательное учреждение средняя общеобразовательная школа Гимназия ""УТРО""";;Юго-Западный административный округ;район Ясенево;Негосударственное;Негосударственное;Общеобразовательное учреждение;Гимназия;(495) 423-36-55,421-90-00;;ankudryakova@mail.ru;37,614486;55,870823;86931193
144;Государственное бюджетное образовательное учреждение города Москвы гимназия № 45 имени Л.И.Мильграма;117036, г. Москва, ул. Гримау, д.8;Юго-Западный административный округ;Академический район;Государственное;Юго-Западное окружное управление образования;Общеобразовательное учреждение;Гимназия;779-77-69;;po@ms45.edu.ru;37,579678;55,691641;87029455
145;Государственное бюджетное образовательное учреждение города Москвы гимназия № 45 имени Л.И.Мильграма;117036, г. Москва, ул. Гримау, д.8;Юго-Западный административный округ;Академический район;Государственное;Юго-Западное окружное управление образования;Общеобразовательное учреждение;Гимназия;779-77-69;;po@ms45.edu.ru;37,579726;55691;87029456
166;Государственное бюджетное образовательное учреждение города Москвы Гимназия № 1786;117041, г.Москва, ул. Адмирала Лазарева, д. 77;Юго-Западный административный округ;район Южное Бутово;Государственное;Юго-Западное окружное управление образования;Общеобразовательное учреждение;Гимназия;(499) 793-77-09;http://gymuz1786.mskobr.ru/;potapovo1786@mail.ru;37,495755;55,534522;87029640
7;Государственное бюджетное образовательное учреждение города Москвы гимназия № 1552;115580 г. Москва, ул. М.Джалиля, д. 25;Южный административный округ;район Зябликово;Государственное;Южное окружное управление образования;Общеобразовательное учреждение;Гимназия;396-32-19;gymu1552.mskobr.ru;sch1552@sinergi.ru;37,746598;55,619719;86887559
9;"Негосударственное образовательное учреждение Гимназия ""Эллада""";115409, Москва, ул. Кошкина, д. 6;Южный административный округ;район Москворечье-Сабурово;Негосударственное;Негосударственное;Общеобразовательное учреждение;Гимназия;(499) 324-83-28,(499) 324-83-29;nouellada.mskobr.ru;info@ellada.ru;37,671671;55,643193;86887622
11;Государственное бюджетное образовательное учреждение города Москвы гимназия № 1587;115408 г. Москва, ул. Братеевская, д. 18;Южный административный округ;район Братеево;Государственное;Южное окружное управление образования;Общеобразовательное учреждение;Гимназия;341-00-07;gymu1587.mskobr.ru;sch1587@sinergi.ru;37,76794;55,635519;86887776
26;Государственное бюджетное образовательное учреждение города Москвы гимназия № 1582;117587 г. Москва,ул. Кировоградская,д.18,к.4;Южный административный округ;район Чертаново Центральное;Государственное;Южное окружное управление образования;Общеобразовательное учреждение;Гимназия;311-82-72;gymu1582.mskobr.ru;sch1582@sinergi.ru;37,601139;55,617914;86890330
27;Государственное бюджетное образовательное учреждение города Москвы Гимназия № 1579;115409 г. Москва, Пролетарский пр-кт, д.7 к.3;Южный административный округ;район Москворечье-Сабурово;Государственное;Южное окружное управление образования;Общеобразовательное учреждение;Гимназия;324-78-51;gymu1579.mskobr.ru;sch1579@sinergi.ru;37,659254;55,646582;86890331
28;"Государственное бюджетное образовательное учреждение города Москвы гимназия № 1569 ""Созвездие""";115573 г. Москва, ул. Мусы Джалиля, д.36,к.2;Южный административный округ;район Зябликово;Государственное;Южное окружное управление образования;Общеобразовательное учреждение;Гимназия;(495) 396-43-50;gymu1569.mskobr.ru;sch1569@sinergi.ru;37,738816;55,617254;86890332
29;Государственное бюджетное образовательное учреждение города Москвы Гимназия № 1526;117535 г. Москва, ул. Дорожная д. 20А;Южный административный округ;район Чертаново Южное;Государственное;Южное окружное управление образования;Общеобразовательное учреждение;Гимназия;382-04-65;gymu1526.mskobr.ru;sch1526@sinergi.ru;37,620987;55,602584;86890334
30;Государственное бюджетное образовательное учреждение города Москвы Гимназия № 1527;115470 г. Москва, проспект Андропова,д.17,к.5;Южный административный округ;район Нагатинский Затон;Государственное;Южное окружное управление образования;Общеобразовательное учреждение;Гимназия;"(499) 618-70-05; (499) 618-80-96; (499) 725-16-42; (499) 618-70-40; (499) 618-70-30; (499) 618-70-51";gym1527u.mskobr.ru;sch1527@sinergi.ru;37,668219;55,681931;86890335
36;Государственное бюджетное образовательное учреждение города Москвы Гимназия № 1257;115093 г. Москва, ул. Павловская, дом 8-а, 115093, г. Москва, ул. Павловская д.8А корпус 1;Южный административный округ;Даниловский район;Государственное;Южное окружное управление образования;Общеобразовательное учреждение;Гимназия;952-63-70;gymu1257.mskobr.ru;dou1234@sinergi.ru;37,626721;55,714332;86893887
71;"Государственное бюджетное образовательное учреждение города Москвы гимназия № 1636 ""Ника""";115583 г. Москва, ул. Воронежская, д.7,к. 2;Южный административный округ;район Орехово-Борисово Южное;Государственное;Южное окружное управление образования;Общеобразовательное учреждение;Гимназия;399-23-18;gymu1636.mskobr.ru;sch1636@sinergi.ru;37,728366;55,610787;86930607
76;Государственное бюджетное образовательное учреждение города Москвы гимназия №1272;115280, г. Москва, 1-й Кожуховский проезд, д.17;Южный административный округ;Даниловский район;Государственное;Южное окружное управление образования;Общеобразовательное учреждение;Гимназия;710-36-43;cou1272.mskobr.ru;sch1272@sinergi.ru;37,663861;55,708116;86931036
91;Государственное бюджетное образовательное учреждение города Москвы гимназия № 1582;117587 г. Москва,ул. Кировоградская,д.18,к.4;Южный административный округ;район Чертаново Центральное;Государственное;Южное окружное управление образования;Общеобразовательное учреждение;Гимназия;311-82-72;gymu1582.mskobr.ru;sch1582@sinergi.ru;37,597088;55,619924;87013749
113;Государственное бюджетное образовательное учреждение города Москвы Гимназия № 1527;115470 г. Москва, проспект Андропова,д.17,к.5;Южный административный округ;район Нагатинский Затон;Государственное;Южное окружное управление образования;Общеобразовательное учреждение;Гимназия;"(499) 618-70-05; (499) 618-80-96; (499) 725-16-42; (499) 618-70-40; (499) 618-70-30; (499) 618-70-51";gym1527u.mskobr.ru;sch1527@sinergi.ru;37,668217;55,681802;87028909
119;"Государственное бюджетное образовательное учреждение города Москвы гимназия № 1569 ""Созвездие""";115573 г. Москва, ул. Мусы Джалиля, д.36,к.2;Южный административный округ;район Зябликово;Государственное;Южное окружное управление образования;Общеобразовательное учреждение;Гимназия;(495) 396-43-50;gymu1569.mskobr.ru;sch1569@sinergi.ru;37,747851;55,623705;87029052
131;Государственное бюджетное образовательное учреждение города Москвы гимназия №1272;115280, г. Москва, 1-й Кожуховский проезд, д.17;Южный административный округ;Даниловский район;Государственное;Южное окружное управление образования;Общеобразовательное учреждение;Гимназия;710-36-43;cou1272.mskobr.ru;sch1272@sinergi.ru;37,662884;55,707598;87029233
132;Государственное бюджетное образовательное учреждение города Москвы гимназия №1272;115280, г. Москва, 1-й Кожуховский проезд, д.17;Южный административный округ;Даниловский район;Государственное;Южное окружное управление образования;Общеобразовательное учреждение;Гимназия;710-36-43;cou1272.mskobr.ru;sch1272@sinergi.ru;37,662222;55,70854;87029234
146;Государственное бюджетное образовательное учреждение города Москвы Гимназия № 1257;115093 г. Москва, ул. Павловская, дом 8-а, 115093, г. Москва, ул. Павловская д.8А корпус 1;Южный административный округ;Даниловский район;Государственное;Южное окружное управление образования;Общеобразовательное учреждение;Гимназия;952-63-70;gymu1257.mskobr.ru;dou1234@sinergi.ru;37,62569;55,714479;87029498
147;Государственное бюджетное образовательное учреждение города Москвы Гимназия № 1257;115093 г. Москва, ул. Павловская, дом 8-а, 115093, г. Москва, ул. Павловская д.8А корпус 1;Южный административный округ;Даниловский район;Государственное;Южное окружное управление образования;Общеобразовательное учреждение;Гимназия;952-63-70;gymu1257.mskobr.ru;dou1234@sinergi.ru;37,629083;55,717536;87029499
13;"Негосударственное образовательное учреждение гимназия ""Первая Московская гимназия""";;;;Негосударственное;Негосударственное;Общеобразовательное учреждение;Гимназия;;;;37,600396;55,723321;86887793
74;Государственное бюджетное образовательное учреждение города Москвы гимназия № 1788;105318, Москва Город, Семеновская Площадь, 4;;;Государственное;Троицкое и новомосковское окружное управление образования;Общеобразовательное учреждение;Гимназия;(495)436-25-57;gym1788tn.mskobr.ru;;37,721068;55,781355;86930989
83;"Муниципальное автономное общеобразовательное учреждение ""Гимназия г. Троицка""";142190, Москва Город, Троицк Город, Октябрьский Проспект, 6;;;Государственное;Троицкое и новомосковское окружное управление образования;Общеобразовательное учреждение;Гимназия;(4967)51-23-89,(4967) 51-23-89;;;37,375658;55,519175;86931137
84;"Муниципальное автономное общеобразовательное учреждение ""Гимназия имени Н.В. Пушкова""";142190, Москва Город, Троицк Город, Школьная Улица, 10;;;Государственное;Троицкое и новомосковское окружное управление образования;Общеобразовательное учреждение;Гимназия;(495)851-03-11,(495) 851-03-11;http://gympushkova.mskobr.ru;;37,371758;55,517403;86931138
