ROWNUM;name;adress;okrug;rayon;form_of_incorporation;submission;tip_uchrezhdeniya;vid_uchrezhdeniya;telephone;web_site;e_mail;X;Y;global_id
1;"Государственное бюджетное образовательное учреждение города Москвы средняя общеобразовательная школа с углубленным изучением отдельных предметов № 1690 ""Преображенская школа""";107061, г. Москва,  2-я Пугачевская улица, дом 10;Восточный административный округ;район Преображенское;Государственное;Восточное окружное управление образования;Общеобразовательное учреждение;Средняя общеобразовательная школа с углубленным изучением отдельных предметов;161-13-40;sch1690.mskobr.ru;preobrazh-1690@yandex.ru;37,725353;55,79245;86660642
2;Государственное бюджетное образовательное учреждение города Москвы средняя общеобразовательная школа с углубленным изучением английского языка № 1238;119634 г.Москва, ул. Чоботовская, дом 19;Западный административный округ;район Ново-Переделкино;Государственное;Западное окружное управление образования;Общеобразовательное учреждение;Средняя общеобразовательная школа с углубленным изучением отдельных предметов;731-11-82;schu1238.mskzapad.ru;school1238@mail.ru;37,345594;55,645191;86660711
3;Государственное бюджетное образовательное учреждение города Москвы средняя общеобразовательная школа с углубленным изучением английского языка № 1214;119330  г.Москва, ул. Мосфильмовская, д.21;Западный административный округ;район Раменки;Государственное;Западное окружное управление образования;Общеобразовательное учреждение;Средняя общеобразовательная школа с углубленным изучением отдельных предметов;(499) 143-03-06;schu1214.mskzapad.ru/;sch1214@yandex.ru;37,514593;55,714203;86660712
4;Государственное бюджетное образовательное учреждение города Москвы средняя общеобразовательная школа с углубленным изучением французского языка № 1248;121352 г.Москва, ул. Давыдковская, д. 2, корпус 6;Западный административный округ;район Фили-Давыдково;Государственное;Западное окружное управление образования;Общеобразовательное учреждение;Средняя общеобразовательная школа с углубленным изучением отдельных предметов;445-25-50;dskv1148.mskzapad.ru;sch1248@mail.ru;37,473692;55,725532;86660713
5;Государственное бюджетное образовательное учреждение города Москвы средняя общеобразовательная школа с углубленным изучением иностранного языка № 1293;121552 г.Москва, ул. Оршанская, д. 10, корп.1;Западный административный округ;район Кунцево;Государственное;Западное окружное управление образования;Общеобразовательное учреждение;Средняя общеобразовательная школа с углубленным изучением отдельных предметов;140-34-89;schu1293.mskzapad.ru/;school1293@mail.ru;37,410482;55,74289;86660714
6;Государственное бюджетное образовательное учреждение города Москвы средняя общеобразовательная школа с углубленным изучением информатики и английского языка № 1307;119602 г.Москва, ул. Академика Анохина, д. 48;Западный административный округ;район Тропарёво-Никулино;Государственное;Западное окружное управление образования;Общеобразовательное учреждение;Средняя общеобразовательная школа с углубленным изучением отдельных предметов;(495) 438-67-10;schu1307.mskzapad.ru;sch1307@mail.ru;37,469634;55,653299;86660715
7;Государственное бюджетное образовательное учреждение города Москвы средняя общеобразовательная школа с углубленным изучением английского и немецкого языка № 1308;119602 г.Москва, ул.Академика Анохина, дом 2, корпус 5;Западный административный округ;район Тропарёво-Никулино;Государственное;Западное окружное управление образования;Общеобразовательное учреждение;Средняя общеобразовательная школа с углубленным изучением отдельных предметов;430-63-03;schu1308.mskzapad.ru;school1308@ya.ru;37,473321;55,673453;86660716
8;Государственное бюджетное образовательное учреждение города Москвы средняя общеобразовательная школа с углубленным изучением отдельных предметов № 1973;119454 г.Москва, ул. Лобачевского, д. 92;Западный административный округ;район Проспект Вернадского;Государственное;Западное окружное управление образования;Общеобразовательное учреждение;Средняя общеобразовательная школа с углубленным изучением отдельных предметов;932-87-09;1973.mskzapad.ru;sch_1973@list.ru;37,484519;55,680675;86660725
9;Государственное бюджетное образовательное учреждение города Москвы средняя общеобразовательная школа с углубленным изучением иностранных языков № 1220;129075, г. Москва, Аргуновская ул., д. 12, корп. 2, стр. 1, 2, 3;Северо-Восточный административный округ;Останкинский район;Государственное;Северо-Восточное окружное управление образования;Общеобразовательное учреждение;Средняя общеобразовательная школа с углубленным изучением отдельных предметов;(495) 683-09-08;schu1220.svao.mskobr.ru;Sch1220@yandex.ru;37,621487;55,81736;86887472
10;"Автономная некоммерческая организация средняя общеобразовательная школа с углубленным изучением языков ""Международная общеобразовательная школа ""Интеграция XXI век""";123592, г. Москва,  ул. Маршала Катукова, д.16, к.3;Северо-Западный административный округ;район Строгино;Негосударственное;Негосударственное;Общеобразовательное учреждение;Средняя общеобразовательная школа с углубленным изучением отдельных предметов;(499) 194-72-90,(495) 750-31-02;nouintegracija21.mskobr.ru;Teacher_ostrov@mail.ru;37,403453;55,806745;86887480
11;Государственное бюджетное образовательное учреждение города Москвы средняя общеобразовательная школа с углубленным изучением иностранного (английского) языка № 1207;115582 г. Москва, ул. Домодедовская, д. 24, корп. 7;Южный административный округ;район Орехово-Борисово Южное;Государственное;Южное окружное управление образования;Общеобразовательное учреждение;Средняя общеобразовательная школа с углубленным изучением отдельных предметов;391-59-10;schu575.mskobr.ru;sch1207@sinergi.ru;37,713202;55,601045;86887555
12;Государственное бюджетное образовательное учреждение города Москвы средняя общеобразовательная школа с углубленным изучением иностранных языков № 1242;117546, г. Москва, Востряковский проезд, д.3А;Южный административный округ;район Бирюлёво Западное;Государственное;Южное окружное управление образования;Общеобразовательное учреждение;Средняя общеобразовательная школа с углубленным изучением отдельных предметов;(495) 383-97-81;schuu1242.mskobr.ru;sch1242@sinergi.ru;37,643253;55,58349;86887556
13;Государственное бюджетное образовательное учреждение города Москвы средняя общеобразовательная школа с углубленным изучением иностранного языка № 1263;119071 г. Москва, Ленинский пр., д.18 А;Южный административный округ;Донской район;Государственное;Южное окружное управление образования;Общеобразовательное учреждение;Средняя общеобразовательная школа с углубленным изучением отдельных предметов;"(495) 952-11-30; (495) 954-47-04; (495) 954-49-07; (495) 952-27-00";schuu1263.mskobr.ru;sch1263@sinergi.ru;37,593168;55,718051;86887557
14;"Негосударственное образовательное учреждение ""Православная школа искусств""";;Центральный административный округ;Мещанский район;Негосударственное;Негосударственное;Общеобразовательное учреждение;Средняя общеобразовательная школа с углубленным изучением отдельных предметов;(495) 681-95-71;nouoschart.mskobr.ru;pshi@list.ru;37,633311;55,782214;86887592
15;"Негосударственное некоммерческое образовательное учреждение Православная классическая гимназия во имя иконы Божей Матери ""Знамение"" в Ховрине";125581, г. Москва, ул. Ляпидевского, 10а;Северный административный округ;район Ховрино;Негосударственное;Негосударственное;Общеобразовательное учреждение;Средняя общеобразовательная школа с углубленным изучением отдельных предметов;(495) 456-41-87,(499) 747-97-14;nouznamenie.mskobr.ru;znamgimn@mail.ru;37,499652;55,857611;86887602
16;"Негосударственное образовательное учреждение Некоммерческая (частная) общеобразовательная Славяно-англо-американская школа ""Марина""";;Юго-Западный административный округ;Ломоносовский район;Негосударственное;Негосударственное;Общеобразовательное учреждение;Средняя общеобразовательная школа с углубленным изучением отдельных предметов;(499) 134-15-47,(499) 134-50-35;;saasmar@mail.ru;37,541583;55,682106;86887637
17;Негосударственное общеобразовательное учреждение средняя общеобразовательная школа с углубленным изучением иностранного языка (английского) “Промо-М”;;Юго-Западный административный округ;район Тёплый Стан;Негосударственное;Негосударственное;Общеобразовательное учреждение;Средняя общеобразовательная школа с углубленным изучением отдельных предметов;(495) 438-38-11;noupromom.mskobr.ru;info@promo-m.ru;37,47347;55,644061;86887641
18;"Автономная некоммерческая образовательная организация ""Негосударственная общеобразовательная школа ""Ясенево""";;Юго-Западный административный округ;район Ясенево;Негосударственное;Негосударственное;Общеобразовательное учреждение;Средняя общеобразовательная школа с углубленным изучением отдельных предметов;421-85-77;nouschjasenevo.mskobr.ru;School-yasenevo@bk.ru;37,53778;55,594804;86887643
19;Государственное бюджетное образовательное учреждение города Москвы средняя общеобразовательная школа с углубленным изучением иностранного языка и информационных технологий № 1347;119618 г.Москва, ул. Главмосстроя, д.28;Западный административный округ;район Солнцево;Государственное;Западное окружное управление образования;Общеобразовательное учреждение;Средняя общеобразовательная школа с углубленным изучением отдельных предметов;(499) 727-74-14;schu1347.mskzapad.ru/;school1347@mail.ru;37,406457;55,657728;86887732
20;Государственное бюджетное образовательное учреждение города Москвы средняя общеобразовательная школа с углубленным изучением английского языка № 1371;121614 г.Москва, ул. Крылатские холмы, д. 45, к.2;Западный административный округ;район Крылатское;Государственное;Западное окружное управление образования;Общеобразовательное учреждение;Средняя общеобразовательная школа с углубленным изучением отдельных предметов;413-25-74;schu1371.mskzapad.ru;sch1371@bk.ru;37,41366;55,762398;86887759
21;Государственное бюджетное образовательное учреждение города Москвы Центр образования № 1364;119619 г.Москва, ул. Производственная, д. 3, корп. 2;Западный административный округ;район Солнцево;Государственное;Западное окружное управление образования;Общеобразовательное учреждение;Средняя общеобразовательная школа с углубленным изучением отдельных предметов;(499) 792-43-30;schu1364.mskzapad.ru/;sch1364@rambler.ru;37,383668;55,64996;86887766
22;Государственное бюджетное образовательное учреждение города Москвы средняя общеобразовательная школа с углубленным изучением естественных наук № 1376;119634 г. Москва, улица Лукинская , дом № 12, корпус 1.;Западный административный округ;район Ново-Переделкино;Государственное;Западное окружное управление образования;Общеобразовательное учреждение;Средняя общеобразовательная школа с углубленным изучением отдельных предметов;(499) 737-08-89;http://sch1376z.mskobr.ru/;sch1376@mail.ru;37,341141;55,648703;86887796
23;Государственное бюджетное образовательное учреждение города Москвы средняя общеобразовательная школа с углубленным изучением английского языка № 1375;115533 г. Москва, Нагатинская наб., д.24;Южный административный округ;район Нагатино-Садовники;Государственное;Южное окружное управление образования;Общеобразовательное учреждение;Средняя общеобразовательная школа с углубленным изучением отдельных предметов;(499) 618-99-10;schuu1375.mskobr.ru;sch1375@sinergi.ru;37,658571;55,678424;86890233
24;Государственное бюджетное образовательное учреждение города Москвы средняя общеобразовательная школа с углубленным изучением предметов естественнонаучного цикла № 1388;127006 г.Москва, Долгоруковская ул., д.6, стр.2;Центральный административный округ;Тверской район;Государственное;Центральное окружное управление образования;Общеобразовательное учреждение;Средняя общеобразовательная школа с углубленным изучением отдельных предметов;"(499) 978-42-44; (499) 978-27-67; (499) 978-96-28";schuc1388.mskobr.ru;sch1388@mail.ru;37,604829;55,775994;86890262
25;Государственное бюджетное образовательное учреждение города Москвы средняя общеобразовательная школа с углубленным изучением математики № 1384 имени А.А. Леманского;125252 Г. Москва, ул. Новопесчаная, д. 15;Северный административный округ;район Сокол;Государственное;Северное окружное управление образования;Общеобразовательное учреждение;Средняя общеобразовательная школа с углубленным изучением отдельных предметов;157-23-11;schs1384.mskobr.ru/;sch-144@mail.ru;37,515422;55,798277;86890365
26;Государственное бюджетное образовательное учреждение города Москвы средняя общеобразовательная школа с углубленным изучением изобразительного искусства № 1188;129346, г.Москва, ул. 1-я Напрудная, д.13;Северо-Восточный административный округ;Лосиноостровский район;Государственное;Северо-Восточное окружное управление образования;Общеобразовательное учреждение;Средняя общеобразовательная школа с углубленным изучением отдельных предметов;"(495) 475-89-46; (495) 475-64-08; (499) 760-49-34";schu1188sv.mskobr.ru/;school1188@gmail.com;37,691032;55,879917;86890383
27;Государственное бюджетное образовательное учреждение города Москвы средняя общеобразовательная школа с углубленным изучением испанского языка № 110 имени Мигеля Эрнандеса;121069 г. Москва, Столовый пер., д.10/2, стр.1;Центральный административный округ;Пресненский район;Государственное;Центральное окружное управление образования;Общеобразовательное учреждение;Средняя общеобразовательная школа с углубленным изучением отдельных предметов;(495) 690-30-97;schuc110.mskobr.ru;sch110@bk.ru;37,594703;55,756806;86893820
28;Государственное бюджетное образовательное учреждение города Москвы средняя общеобразовательная школа с углубленным изучением иностранного (английского) языка № 1297;129110 г. Москва, Глинистый пер., д. 7, стр.1;Центральный административный округ;Мещанский район;Государственное;Центральное окружное управление образования;Общеобразовательное учреждение;Средняя общеобразовательная школа с углубленным изучением отдельных предметов;631-21-14;schuc1297.mskobr.ru;1297school@mail.ru;37,638777;55,78924;86893821
29;Государственное бюджетное образовательное учреждение города Москвы средняя общеобразовательная школа с углублённым изучением экономики № 506;115432, г. Москва, ул. Трофимова, дом 13 а;Юго-Восточный административный округ;Южнопортовый район;Государственное;Юго-Восточное окружное управление образования;Общеобразовательное учреждение;Средняя общеобразовательная школа с углубленным изучением отдельных предметов;(495) 679-05-18;schuvu506.mskobr.ru;sch0506@yandex.ru;37,670281;55,704151;86896788
30;Государственное бюджетное образовательное учреждение города Москвы средняя общеобразовательная школа с углубленным изучением математики и информатики № 7;119331, г. Москва, улица Крупской, дом 17;Юго-Западный административный округ;Ломоносовский район;Государственное;Юго-Западное окружное управление образования;Общеобразовательное учреждение;Средняя общеобразовательная школа с углубленным изучением отдельных предметов;138-38-09;http://schuzu7.mskobr.ru/;school_7@inbox.ru;37,526938;55,682956;86899628
31;Государственное бюджетное образовательное учреждение города Москвы средняя общеобразовательная школа с углубленным изучением английского языка № 1208;109443, г. Москва, ул. Зеленодольская, дом 33, корпус 3;Юго-Восточный административный округ;район Кузьминки;Государственное;Юго-Восточное окружное управление образования;Общеобразовательное учреждение;Средняя общеобразовательная школа с углубленным изучением отдельных предметов;(499) 172-78-49;schuvu1208.mskobr.ru;1208@inbox.ru;37,771195;55,707763;86899646
32;Государственное бюджетное образовательное учреждение города Москвы средняя общеобразовательная школа с углубленным изучением немецкого языка №1222;109052, г. Москва, ул. Нижегородская, дом 64;Юго-Восточный административный округ;Нижегородский район;Государственное;Юго-Восточное окружное управление образования;Общеобразовательное учреждение;Средняя общеобразовательная школа с углубленным изучением отдельных предметов;678-03-03;schuvu1222.mskobr.ru;schuvu1222.mskobr@yandex.ru;37,706352;55,732845;86899683
33;Государственное бюджетное образовательное учреждение города Москвы средняя общеобразовательная школа с углубленным изучением английского языка № 1226;111116, г. Москва, ул. Красноказарменная, д. 21;Юго-Восточный административный округ;район Лефортово;Государственное;Юго-Восточное окружное управление образования;Общеобразовательное учреждение;Средняя общеобразовательная школа с углубленным изучением отдельных предметов;(495) 362-56-80;schuvu1226.mskobr.ru;school1226@mail.ru;37,711249;55,754008;86899684
34;Государственное бюджетное образовательное учреждение города Москвы средняя общеобразовательная школа с углубленным изучением английского языка № 1228;111024, г. Москва, Авиамоторная ул, д.42;Юго-Восточный административный округ;район Лефортово;Государственное;Юго-Восточное окружное управление образования;Общеобразовательное учреждение;Средняя общеобразовательная школа с углубленным изучением отдельных предметов;(495) 673-10-64;schuvu1228.mskobr.ru;1228@uvuo.ru;37,720225;55,740683;86899685
35;Государственное бюджетное образовательное учреждение города Москвы средняя общеобразовательная школа с углубленным изучением английского языка № 1229;111033, г.Москва, Верхний Золоторожский переулок, д. 2;Юго-Восточный административный округ;район Лефортово;Государственное;Юго-Восточное окружное управление образования;Общеобразовательное учреждение;Средняя общеобразовательная школа с углубленным изучением отдельных предметов;362-46-00;schuvu1229.mskobr.ru;mail@1229.ru;37,679366;55,750401;86899686
36;Государственное бюджетное образовательное учреждение города Москвы средняя общеобразовательная школа с углубленным изучением английского языка № 1256;109338, город Москва, улица Полбина, дом 38;Юго-Восточный административный округ;район Печатники;Государственное;Юго-Восточное окружное управление образования;Общеобразовательное учреждение;Средняя общеобразовательная школа с углубленным изучением отдельных предметов;353-71-90;schuvu1256.mskobr.ru;sch1256@mail.ru;37,727652;55,68184;86899693
37;Государственное бюджетное образовательное учреждение города Москвы средняя общеобразовательная школа с углубленным изучением английского языка № 1319;109469, г. Москва, Мячковский бульвар, дом 21;Юго-Восточный административный округ;район Марьино;Государственное;Юго-Восточное окружное управление образования;Общеобразовательное учреждение;Средняя общеобразовательная школа с углубленным изучением отдельных предметов;(495) 658-61-35;schuvu1319.mskobr.ru;sch1319lingua@mail.ru;37,760031;55,652285;86899694
38;Государственное бюджетное образовательное учреждение города Москвы средняя общеобразовательная школа с углубленным изучением биологии и химии № 1344;109472, г. Москва, ул. Чугунные ворота, дом 11;Юго-Восточный административный округ;район Выхино-Жулебино;Государственное;Юго-Восточное окружное управление образования;Общеобразовательное учреждение;Средняя общеобразовательная школа с углубленным изучением отдельных предметов;376-45-35;schuvu1344.mskobr.ru;mail@schuvu1344.ru;37,795921;55,696943;86899696
39;Государственное бюджетное образовательное учреждение города Москвы средняя общеобразовательная школа с углубленным изучением математики № 1350;109444, г. Москва, Ташкентский пер., д. 7, корп. 3;Юго-Восточный административный округ;район Выхино-Жулебино;Государственное;Юго-Восточное окружное управление образования;Общеобразовательное учреждение;Средняя общеобразовательная школа с углубленным изучением отдельных предметов;"(495) 372-05-22; (495) 376-59-11";schuvu1350.mskobr.ru;sch1350@mail.ru;37,823443;55,706682;86899697
40;Государственное бюджетное образовательное учреждение города Москвы средняя общеобразовательная школа с углубленным изучением английского языка № 1357;109451, г. Москва, Перервинский бульвар, дом 10, к. 2;Юго-Восточный административный округ;район Марьино;Государственное;Юго-Восточное окружное управление образования;Общеобразовательное учреждение;Средняя общеобразовательная школа с углубленным изучением отдельных предметов;346-26-10;schuvu1357.mskobr.ru;school1357@mail.ru;37,76347;55,659817;86899698
41;Государственное бюджетное образовательное учреждение города Москвы средняя общеобразовательная школа с углубленным изучением английского языка № 1359;109145, г. Москва, Пронская ул., д. 4, кор. 1;Юго-Восточный административный округ;район Выхино-Жулебино;Государственное;Юго-Восточное окружное управление образования;Общеобразовательное учреждение;Средняя общеобразовательная школа с углубленным изучением отдельных предметов;"(495) 705-53-32; (495) 705-57-00; (495) 705-40-60";schuvu1359.mskobr.ru;sch1359@mail.ru;37,84501;55,701608;86899699
42;Государственное бюджетное образовательное учреждение города Москвы средняя общеобразовательная школа с углубленным изучением отдельных предметов № 1363;109542, г.Москва, Рязанский проспект, д. 82, корп. 4;Юго-Восточный административный округ;район Выхино-Жулебино;Государственное;Юго-Восточное окружное управление образования;Общеобразовательное учреждение;Средняя общеобразовательная школа с углубленным изучением отдельных предметов;376-61-44;schu1363uv.mskobr.ru;sch1363@mail.ru;37,823781;55,707824;86899700
43;Государственное бюджетное образовательное учреждение города Москвы средняя общеобразовательная школа с углубленным изучением отдельных предметов № 1366;111674, город Москва, ул. Вольская 1-я, д.22, корп 2;Юго-Восточный административный округ;район Некрасовка;Государственное;Юго-Восточное окружное управление образования;Общеобразовательное учреждение;Средняя общеобразовательная школа с углубленным изучением отдельных предметов;"(499) 211-25-34; (499) 211-25-31; (499) 211-25-32; (499) 211-25-30";schuvu1366.mskobr.ru;info@school1366.ru;37,926376;55,682485;86899701
44;Государственное бюджетное образовательное учреждение города Москвы средняя общеобразовательная школа с углубленным изучением предметов социального профиля № 1386;109125, г. Москва, Васильцовский переулок, д. 1;Юго-Восточный административный округ;Рязанский район;Государственное;Юго-Восточное окружное управление образования;Общеобразовательное учреждение;Средняя общеобразовательная школа с углубленным изучением отдельных предметов;(499) 796-22-60;schuvu1386.mskobr.ru;w1386@mail.ru;37,745737;55,718233;86899702
45;Государственное бюджетное образовательное учреждение города Москвы средняя общеобразовательная школа с углубленным изучением отдельных предметов № 1367;109125, Москва, ул. Васильцовский стан, д 6.;Юго-Восточный административный округ;Рязанский район;Государственное;Юго-Восточное окружное управление образования;Общеобразовательное учреждение;Средняя общеобразовательная школа с углубленным изучением отдельных предметов;(499) 503-85-37;schuv488.mskobr.ru;1367@bk.ru;37,742441;55,712092;86899704
46;Государственное бюджетное образовательное учреждение города Москвы средняя общеобразовательная школа с углубленным изучением иностранных языков № 1205;117335, г. Москва, улица Архитектора Власова, дом 19а;Юго-Западный административный округ;район Черёмушки;Государственное;Юго-Западное окружное управление образования;Общеобразовательное учреждение;Средняя общеобразовательная школа с углубленным изучением отдельных предметов;(499) 128-18-33;http://schuuz1205.mskobr.ru;info1205@yandex.ru;37,554385;55,676918;86899785
47;Государственное бюджетное образовательное учреждение города Москвы средняя общеобразовательная школа с углубленным изучением английского языка № 1206;117593, г. Москва, Литовский бульвар  дом 3, корпус 3;Юго-Западный административный округ;район Ясенево;Государственное;Юго-Западное окружное управление образования;Общеобразовательное учреждение;Средняя общеобразовательная школа с углубленным изучением отдельных предметов;426-64-22;;sch1206@mail.ru;37,548607;55,612259;86899786
48;Государственное бюджетное образовательное учреждение города Москвы средняя общеобразовательная школа с углубленным изучением английского языка № 1260;119333, г. Москва, ул. Фотиевой, дом 14, корп. 3;Юго-Западный административный округ;Гагаринский район;Государственное;Юго-Западное окружное управление образования;Общеобразовательное учреждение;Средняя общеобразовательная школа с углубленным изучением отдельных предметов;137-57-81;;;37,55715;55,699821;86899787
49;Государственное бюджетное образовательное учреждение города Москвы средняя общеобразовательная школа с углубленным изучением английского языка № 1264;119313, г.Москва, Ленинский проспект, д. 93 а, 93 б, 91 А;Юго-Западный административный округ;Ломоносовский район;Государственное;Юго-Западное окружное управление образования;Общеобразовательное учреждение;Средняя общеобразовательная школа с углубленным изучением отдельных предметов;132-37-77;schuuz1264.mskobr.ru;infschool1264@mail.ru;37,528928;55,674799;86899788
50;Государственное бюджетное образовательное учреждение города Москвы средняя общеобразовательная школа с углубленным изучением французского языка № 1265;119333, г. Москва, ул. Фотиевой, 14, корп. 1;Юго-Западный административный округ;Гагаринский район;Государственное;Юго-Западное окружное управление образования;Общеобразовательное учреждение;Средняя общеобразовательная школа с углубленным изучением отдельных предметов;137-68-64;http://schuuz1265.mskobr.ru;sch1265@mosuzedu.ru;37,558288;55,699086;86899789
51;Государственное бюджетное образовательное учреждение города Москвы средняя общеобразовательная школа с углубленным изучением английского языка № 1266;119334, г. Москва, Ленинский проспект, дом 43А;Юго-Западный административный округ;Гагаринский район;Государственное;Юго-Западное окружное управление образования;Общеобразовательное учреждение;Средняя общеобразовательная школа с углубленным изучением отдельных предметов;135-32-90;http://schuuz1266.mskobr.ru;s1266@rambler.ru;37,576129;55,704525;86899790
52;Государственное бюджетное образовательное учреждение города Москвы средняя общеобразовательная школа с углубленным изучением французского языка № 1267;117465, г.Москва, ул. Теплый Стан, дом 13, корп. 4;Юго-Западный административный округ;район Тёплый Стан;Государственное;Юго-Западное окружное управление образования;Общеобразовательное учреждение;Средняя общеобразовательная школа с углубленным изучением отдельных предметов;337-68-11;schuuz1267.mskobr.ru;1267@inbox.ru, 1267@1267.ru;37,492426;55,620294;86899791
53;Государственное бюджетное образовательное учреждение города Москвы средняя общеобразовательная школа с углубленным изучением английского языка № 1273;117647, г.Москва, улица Академика Капицы, д.12;Юго-Западный административный округ;район Коньково;Государственное;Юго-Западное окружное управление образования;Общеобразовательное учреждение;Средняя общеобразовательная школа с углубленным изучением отдельных предметов;420-15-00;http://schuuz1273.mskobr.ru/;sch1273@yandex.ru;37,522547;55,629243;86899792
54;Государственное бюджетное образовательное учреждение города Москвы средняя общеобразовательная школа с углубленным изучением английского языка № 1279;117149, г.Москва, улица Азовская, дом 2, корпус 2;Юго-Западный административный округ;район Зюзино;Государственное;Юго-Западное окружное управление образования;Общеобразовательное учреждение;Средняя общеобразовательная школа с углубленным изучением отдельных предметов;(499) 619-39-43;http://schuuz1279.mskobr.ru/;s1279@yandex.ru;37,6039;55,66336;86899793
55;Государственное бюджетное образовательное учреждение города Москвы средняя общеобразовательная школа с углубленным изучением английского языка № 1280;117218, г. Москва, Кржижановского ул., д. 30;Юго-Западный административный округ;Академический район;Государственное;Юго-Западное окружное управление образования;Общеобразовательное учреждение;Средняя общеобразовательная школа с углубленным изучением отдельных предметов;129-78-55;http://schuuz1280uz.mskobr.ru;sch1280@yandex.ru;37,579021;55,675237;86899794
56;"Государственное бюджетное образовательное учреждение города Москвы средняя общеобразовательная школа с углубленным изучением предметов области знаний ""Искусство"" № 1332";117628, г.Москва, бульвар Дмитрия Донского, дом 6, корпус 1;Юго-Западный административный округ;район Северное Бутово;Государственное;Юго-Западное окружное управление образования;Общеобразовательное учреждение;Средняя общеобразовательная школа с углубленным изучением отдельных предметов;714-97-81;http://schuuz1332.mskobr.ru/;Shkola1332@bk.ru;37,572625;55,569153;86899796
57;Государственное бюджетное образовательное учреждение города Москвы средняя общеобразовательная школа с углубленным изучением английского языка № 1354;117624, г. Москва, улица Изюмская, дом 38, корпус 1;Юго-Западный административный округ;район Южное Бутово;Государственное;Юго-Западное окружное управление образования;Общеобразовательное учреждение;Средняя общеобразовательная школа с углубленным изучением отдельных предметов;716-45-45;;;37,563853;55,54812;86899797
58;Государственное бюджетное образовательное учреждение города Москвы средняя общеобразовательная школа с углубленным изучением экономики и информатики № 1355;117623, г.Москва, ул. Джанкойская, д.7;Юго-Западный административный округ;район Южное Бутово;Государственное;Юго-Западное окружное управление образования;Общеобразовательное учреждение;Средняя общеобразовательная школа с углубленным изучением отдельных предметов;712-59-63;http://schu1355uz.mskobr.ru;school1355@yandex.ru;37,577805;55,540526;86899798
59;Государственное бюджетное образовательное учреждение города Москвы средняя общеобразовательная школа с углубленным изучением английского языка № 1356;117216, г.Москва, ул.Грина, д.18 б;Юго-Западный административный округ;район Северное Бутово;Государственное;Юго-Западное окружное управление образования;Общеобразовательное учреждение;Средняя общеобразовательная школа с углубленным изучением отдельных предметов;711-50-81;;lingvoschool1356@yandex.ru;37,581358;55,56718;86899799
60;Государственное бюджетное образовательное учреждение города Москвы средняя общеобразовательная школа с углубленным изучением английского языка № 1361;117393, г. Москва, улица Академика Пилюгина, дом 14А;Юго-Западный административный округ;Ломоносовский район;Государственное;Юго-Западное окружное управление образования;Общеобразовательное учреждение;Средняя общеобразовательная школа с углубленным изучением отдельных предметов;134-45-17;http://shuuz1361.mskobr.ru/;gou1361@mosuzedu.ru;37,537099;55,674664;86899800
61;Государственное бюджетное образовательное учреждение города Москвы средняя общеобразовательная школа с углубленным изучением информационных технологий № 1368;117041, г. Москва, улица Академика Понтрягина, дом 17, корпус 1;Юго-Западный административный округ;район Южное Бутово;Государственное;Юго-Западное окружное управление образования;Общеобразовательное учреждение;Средняя общеобразовательная школа с углубленным изучением отдельных предметов;715-11-63;http://schuuz1368.mskobr.ru;sch1368@mosuzedu.ru;37,502768;55,533552;86899801
62;"Государственное бюджетное образовательное учреждение города Москвы средняя общеобразовательная школа с углубленным изучением области знаний ""Искусство"" № 1372";117042, г. Москва, Чечёрский проезд, дом 80;Юго-Западный административный округ;район Южное Бутово;Государственное;Юго-Западное окружное управление образования;Общеобразовательное учреждение;Средняя общеобразовательная школа с углубленным изучением отдельных предметов;715-27-18;;sch1372@mosuzedu.ru;37,52255;55,531981;86904002
63;"Государственное бюджетное образовательное учреждение города Москвы средняя общеобразовательная школа с углубленным изучением области знаний ""Технология"" № 1379";117335, г. Москва, улица Гарибальди, дом 19, корпус 1;Юго-Западный административный округ;район Черёмушки;Государственное;Юго-Западное окружное управление образования;Общеобразовательное учреждение;Средняя общеобразовательная школа с углубленным изучением отдельных предметов;128-67-77;http://schuuz1379.mskobr.ru/;muk20@mail.ru;37,551041;55,6738;86904003
64;Государственное бюджетное образовательное учреждение города Москвы средняя общеобразовательная школа с углубленным изучением немецкого языка № 1385;117209, г. Москва, улица Перекопская, дом 21;Юго-Западный административный округ;район Черёмушки;Государственное;Юго-Западное окружное управление образования;Общеобразовательное учреждение;Средняя общеобразовательная школа с углубленным изучением отдельных предметов;331-80-11;http://http://schuuz1385.mskobr.ru/;info1385@rambler.ru;37,569371;55,660122;86904004
65;"Государственное бюджетное образовательное учреждение города Москвы средняя общеобразовательная школа с углубленным изучением предметов художественно-эстетического цикла № 1405 ""Вдохновение""";117647, г.Москва, улица Академика Капицы, д.16;Юго-Западный административный округ;район Коньково;Государственное;Юго-Западное окружное управление образования;Общеобразовательное учреждение;Средняя общеобразовательная школа с углубленным изучением отдельных предметов;420-45-33;http://schuuz1405.mskobr.ru;sch1405@mail.ru;37,524093;55,627354;86904005
66;Государственное бюджетное образовательное учреждение города Москвы средняя общеобразовательная школа с углубленным изучением физики и математики № 2007;117042, г. Москва, ул. Горчакова, д. 9, корп. 1;Юго-Западный административный округ;район Южное Бутово;Государственное;Юго-Западное окружное управление образования;Общеобразовательное учреждение;Средняя общеобразовательная школа с углубленным изучением отдельных предметов;716-29-35;schuuz2007.mskobr.ru;avbush@rambler.ru;37,532769;55,544728;86904042
67;Государственное бюджетное образовательное учреждение города Москвы средняя общеобразовательная школа с углубленным изучением  английского языка № 19 имени В.Г.Белинского;115035 г. Москва, 1-ый Кадашевский пер., д.3, стр.1;Центральный административный округ;район Якиманка;Государственное;Центральное окружное управление образования;Общеобразовательное учреждение;Средняя общеобразовательная школа с углубленным изучением отдельных предметов;951-32-06;schuc19.mskobr.ru;schooln19@mail.ru;37,621435;55,74425;86904051
68;"Государственное бюджетное образовательное учреждение города Москвы средняя общеобразовательная школа с углубленным изучением области знаний ""Искусство"" № 122";103104 г. Москва, М.Палашевский пер., д.3;Центральный административный округ;Тверской район;Государственное;Центральное окружное управление образования;Общеобразовательное учреждение;Средняя общеобразовательная школа с углубленным изучением отдельных предметов;203-64-90;schuc122.mskobr.ru;122sch@mail.ru;37,601214;55,765313;86904059
69;Государственное бюджетное образовательное учреждение города Москвы средняя общеобразовательная школа с углубленным изучением предметов художественно-эстетического цикла средствами театрального искусства № 123;125009 г.Москва, Хлыновский туп., д.3, стр.5;Центральный административный округ;Пресненский район;Государственное;Центральное окружное управление образования;Общеобразовательное учреждение;Средняя общеобразовательная школа с углубленным изучением отдельных предметов;(499) 690-20-12;schuc123.mskobr.ru;123sch@couo.ru;37,602459;55,758018;86904060
70;Государственное бюджетное образовательное учреждение города Москвы средняя общеобразовательная школа с углублённым изучением экономики № 188;127473 г.Москва, 3-ий Самотёчный пер., д.14;Центральный административный округ;Тверской район;Государственное;Центральное окружное управление образования;Общеобразовательное учреждение;Средняя общеобразовательная школа с углубленным изучением отдельных предметов;688-22-54;schuc188.mskobr.ru;188sch@mail.ru;37,614116;55,779773;86904065
71;Государственное бюджетное образовательное учреждение города Москвы средняя общеобразовательная школа с углубленным изучением восточных языков № 2042 имени Лазаревых;117303, г.Москва, ул. Одесская, дом 16, корп. 2;Юго-Западный административный округ;район Зюзино;Государственное;Юго-Западное окружное управление образования;Общеобразовательное учреждение;Средняя общеобразовательная школа с углубленным изучением отдельных предметов;(499) 723-10-09;;school-2042@yandex.ru;37,588553;55,656578;86904076
72;Государственное бюджетное образовательное учреждение города Москвы средняя общеобразовательная школа с углубленным изучением музыки и хореографии № 1113;125009 г. Москва, Дегтярный пер., д.7.;Центральный административный округ;Тверской район;Государственное;Центральное окружное управление образования;Общеобразовательное учреждение;Средняя общеобразовательная школа с углубленным изучением отдельных предметов;(495) 699-57-22;schuc1113.mskobr.ru;1113sch@couo.ru;37,602111;55,768574;86904090
73;Государственное бюджетное образовательное учреждение города Москвы средняя общеобразовательная школа с углубленным изучением английского языка № 1204;105082 г. Москва, Рубцов пер., д.10/14., стр.1;Центральный административный округ;Басманный район;Государственное;Центральное окружное управление образования;Общеобразовательное учреждение;Средняя общеобразовательная школа с углубленным изучением отдельных предметов;(499) 261-60-85;;sch1204@mail.ru;37,690961;55,772539;86904091
74;Государственное бюджетное образовательное учреждение города Москвы средняя общеобразовательная школа с углубленным изучением иностранного языка № 1215 имени Ромена Роллана;129110 г.Москва, Больничный пер., д.4;Центральный административный округ;Мещанский район;Государственное;Центральное окружное управление образования;Общеобразовательное учреждение;Средняя общеобразовательная школа с углубленным изучением отдельных предметов;(495) 681-08-50;schuc1215.mskobr.ru/;1215sch@couo.ru;37,632067;55,785597;86904092
75;Государственное бюджетное образовательное учреждение города Москвы средняя общеобразовательная школа с углубленным изучением французского языка № 1216;109147 г.Москва, Брошевский пер., д.21;Центральный административный округ;Таганский район;Государственное;Центральное окружное управление образования;Общеобразовательное учреждение;Средняя общеобразовательная школа с углубленным изучением отдельных предметов;(495) 670-06-27;schuc1216.mskobr.ru;sch1216-moscow@yandex.ru;37,67257;55,735097;86904093
76;Государственное бюджетное образовательное учреждение города Москвы средняя общеобразовательная школа с углубленным изучением французского языка № 1225;105062 г.Москва, Лялин пер., д.12;Центральный административный округ;Басманный район;Государственное;Центральное окружное управление образования;Общеобразовательное учреждение;Средняя общеобразовательная школа с углубленным изучением отдельных предметов;(495) 916-20-66;schuc1225.mskobr.ru/;1225sch@mail.ru;37,651526;55,758956;86904094
77;Государственное бюджетное образовательное учреждение города Москвы средняя общеобразовательная школа с углубленным изучением английского языка № 1227;109028 г. Москва, Б.Трёхсвятительский пер., д.4;Центральный административный округ;Басманный район;Государственное;Центральное окружное управление образования;Общеобразовательное учреждение;Средняя общеобразовательная школа с углубленным изучением отдельных предметов;"(495) 917-72-81; (495) 917-48-42";schuc1227.mskobr.ru;school1227@list.ru;37,646009;55,754994;86904095
78;Государственное бюджетное образовательное учреждение города Москвы средняя общеобразовательная школа с углубленным изучением иностранного языка № 1231 имени В.Д.Поленова;119002 г.Москва, Спасопесковский пер., д.6, стр.7;Центральный административный округ;район Арбат;Государственное;Центральное окружное управление образования;Общеобразовательное учреждение;Средняя общеобразовательная школа с углубленным изучением отдельных предметов;241-43-84;schuc1231.mskobr.ru;2277ds@mail.ru;37,576714;55,749184;86904096
79;Государственное бюджетное образовательное учреждение города Москвы средняя общеобразовательная школа с углубленным изучением английского языка № 1234;121069 г.Москва, ул. Большая Молчановка, д.26-28;Центральный административный округ;район Арбат;Государственное;Центральное окружное управление образования;Общеобразовательное учреждение;Средняя общеобразовательная школа с углубленным изучением отдельных предметов;691-64-41;schuc1234.mskobr.ru;sch1234@mail.ru;37,585262;55,756227;86904097
80;Государственное бюджетное образовательное учреждение города Москвы средняя общеобразовательная школа с углубленным изучением иностранного (английского)языка № 1241;123022 г.Москва, Б.Трехгорный пер., д.3;Центральный административный округ;Пресненский район;Государственное;Центральное окружное управление образования;Общеобразовательное учреждение;Средняя общеобразовательная школа с углубленным изучением отдельных предметов;252-37-88;schuc1241.mskobr.ru;Sch1241@rambler.ru;37,563665;55,760121;86904100
81;Государственное бюджетное образовательное учреждение города Москвы средняя общеобразовательная школа с углубленным изучением иностранного языка № 1243;125009 г. Москва, М.Кисловский пер., д.12/8;Центральный административный округ;Пресненский район;Государственное;Центральное окружное управление образования;Общеобразовательное учреждение;Средняя общеобразовательная школа с углубленным изучением отдельных предметов;"(495) 690-36-03; (495) 690-59-28; (495) 690-36-73; (495) 690-47-04; (495) 690-04-35; (495) 690-44-48";schu1243c.mskobr.ru;1243sch@mail.ru;37,602973;55,756467;86904101
82;Государственное бюджетное образовательное учреждение города Москвы средняя общеобразовательная школа с углубленным изучением иностранного языка № 1253;119021 г.Москва, Зубовский бульвар, д.5, стр.1;Центральный административный округ;район Хамовники;Государственное;Центральное окружное управление образования;Общеобразовательное учреждение;Средняя общеобразовательная школа с углубленным изучением отдельных предметов;246-61-18;schuc1253.mskobr.ru/;sch.1253@yandex.ru;37,592317;55,734733;86904102
83;Государственное бюджетное образовательное учреждение города Москвы средняя общеобразовательная школа с углубленным изучением английского языка № 1262 имени А.Н. Островского;119049 г. Москва, ул. Житная, д.6;Центральный административный округ;район Якиманка;Государственное;Центральное окружное управление образования;Общеобразовательное учреждение;Средняя общеобразовательная школа с углубленным изучением отдельных предметов;238-10-90;schuc1262.mskobr.ru;school1262@list.ru;37,620545;55,73053;86904103
84;Государственное бюджетное образовательное учреждение города Москвы средняя общеобразовательная школа с углубленным изучением английского языка № 1270;109004 г.Москва, Товарищеский пер., д.21;Центральный административный округ;Таганский район;Государственное;Центральное окружное управление образования;Общеобразовательное учреждение;Средняя общеобразовательная школа с углубленным изучением отдельных предметов;"(495) 912-99-16; (495) 911-87-37; (495) 912-90-24; (495) 911-09-74";sch1270c.mskobr.ru;1270sch@mail.ru;37,664809;55,743927;86904104
85;Государственное бюджетное образовательное учреждение города Москвы средняя общеобразовательная школа с углубленным изучением немецкого языка № 1271;115172 г.Москва, 5-ый Котельнический пер., д.8,стр.1;Центральный административный округ;Таганский район;Государственное;Центральное окружное управление образования;Общеобразовательное учреждение;Средняя общеобразовательная школа с углубленным изучением отдельных предметов;915-64-61;schuc1271.mskobr.ru;sosh1271@mail.ru;37,648903;55,742192;86904105
86;Государственное бюджетное образовательное учреждение города Москвы средняя общеобразовательная школа с углубленным изучением французского языка № 1275;127473 г.Москва, ул.Достоевского, д.25, стр.1;Центральный административный округ;Тверской район;Государственное;Центральное окружное управление образования;Общеобразовательное учреждение;Средняя общеобразовательная школа с углубленным изучением отдельных предметов;"(495) 681-09-67; (495) 631-40-22; (495) 631-67-49; (495) 631-67-19; (495) 684-30-30";schuc1275.mskobr.ru;sch1275@mail.ru;37,606771;55,78369;86904106
87;Государственное бюджетное образовательное учреждение города Москвы средняя общеобразовательная школа с углубленным изучением английского языка № 1278;107031 г.Москва, ул.Петровка, д.23/10, стр.18,21;Центральный административный округ;Тверской район;Государственное;Центральное окружное управление образования;Общеобразовательное учреждение;Средняя общеобразовательная школа с углубленным изучением отдельных предметов;621-04-89;schuc1278.mskobr.ru;schl1278@yandex.ru;37,61426;55,765376;86904107
88;Государственное бюджетное образовательное учреждение города Москвы средняя общеобразовательная школа с углубленным изучением немецкого языка №1283;107045 г.Москва, ул.Садовая-Спасская, д.8;Центральный административный округ;Красносельский район;Государственное;Центральное окружное управление образования;Общеобразовательное учреждение;Средняя общеобразовательная школа с углубленным изучением отдельных предметов;"(495) 607-82-98; (495) 607-83-84";schuc1283.mskobr.ru;1283sch@mail.ru;37,640309;55,770713;86904108
89;Государственное бюджетное образовательное учреждение города Москвы средняя общеобразовательная школа с углубленным изучением английского языка № 1284;101000 г.Москва, Уланский пер., д.8;Центральный административный округ;Красносельский район;Государственное;Центральное окружное управление образования;Общеобразовательное учреждение;Средняя общеобразовательная школа с углубленным изучением отдельных предметов;623-84-53;schuc1284.mskobr.ru;gou_cou1284@mail.ru;37,638276;55,767855;86904109
90;Государственное бюджетное образовательное учреждение города Москвы средняя общеобразовательная школа с углубленным изучением английского языка № 1397 имени В.П.Чкалова;105064 г.Москва, Земляной вал, д.44 А,стр.1;Центральный административный округ;Таганский район;Государственное;Центральное окружное управление образования;Общеобразовательное учреждение;Средняя общеобразовательная школа с углубленным изучением отдельных предметов;"(495) 917-02-60; (495) 917-91-02";schuc1397.mskobr.ru;school1397@yandex.ru;37,655479;55,753869;86904113
91;Государственное бюджетное образовательное учреждение города Москвы средняя общеобразовательная школа с углубленным изучением английского и французского языков № 1950;123056 г.Москва, ул.Зоологическая, д.28, стр 1;Центральный административный округ;Пресненский район;Государственное;Центральное окружное управление образования;Общеобразовательное учреждение;Средняя общеобразовательная школа с углубленным изучением отдельных предметов;254-95-37;schuc1950.mskobr.ru;1950sch@couo.ru;37,584671;55,766486;86904124
92;Государственное бюджетное образовательное учреждение города Москвы средняя общеобразовательная школа с углубленным изучением экономики № 240;127490, город Москва, улица Мусоргского, дом 11 Г;Северо-Восточный административный округ;район Отрадное;Государственное;Северо-Восточное окружное управление образования;Общеобразовательное учреждение;Средняя общеобразовательная школа с углубленным изучением отдельных предметов;"(499) 203-39-09; (499) 203-39-66";sch240sv.mskobr.ru;sch240@yandex.ru;37,62329;55,86446;86907893
93;Государственное бюджетное образовательное учреждение города Москвы средняя общеобразовательная школа с углубленным изучением французского языка № 1095;129281, г. Москва, ул. Енисейская, д. 32, корпус 3;Северо-Восточный административный округ;Бабушкинский район;Государственное;Северо-Восточное окружное управление образования;Общеобразовательное учреждение;Средняя общеобразовательная школа с углубленным изучением отдельных предметов;"(495) 470-91-55; (495) 470-89-32";schi1095.svao.mskobr.ru/;sch1095@yandex.ru;37,670609;55,872439;86907895
94;Государственное бюджетное образовательное учреждение города Москвы средняя общеобразовательная школа с углубленным изучением английского языка № 1201;129626 г. Москва, ул. Павла Корчагина, д.13, строение 1.;Северо-Восточный административный округ;Алексеевский район;Государственное;Северо-Восточное окружное управление образования;Общеобразовательное учреждение;Средняя общеобразовательная школа с углубленным изучением отдельных предметов;"(495) 683-53-28; (495) 682-71-69; (495) 682-50-91; (495) 682-51-00";schu1201sv.mskobr.ru;Scl1201@yandex.ru;37,65989;55,818718;86907896
95;Государственное бюджетное образовательное учреждение города Москвы средняя общеобразовательная школа с углубленным изучением иностранного языка № 1236;127254, г. Москва, ул. Яблочкова, дом 10;Северо-Восточный административный округ;Бутырский район;Государственное;Северо-Восточное окружное управление образования;Общеобразовательное учреждение;Средняя общеобразовательная школа с углубленным изучением отдельных предметов;639-05-05;schu1236sv.mskobr.ru;sch1236@yandex.ru;37,582331;55,817525;86907897
96;Государственное бюджетное образовательное учреждение города Москвы средняя общеобразовательная школа с углубленным изучением испанского языка № 1237 имени Пабло Неруды;127221, город Москва, проезд Шокальского, дом 11, корпус 3;Северо-Восточный административный округ;район Южное Медведково;Государственное;Северо-Восточное окружное управление образования;Общеобразовательное учреждение;Средняя общеобразовательная школа с углубленным изучением отдельных предметов;"(495) 477-11-55; (495) 477-02-40; (495) 477-00-00; (495) 477-81-02";schu1237sv.mskobr.ru;sch1237@mail.ru;37,641534;55,874333;86907898
97;Государственное бюджетное образовательное учреждение города Москвы средняя общеобразовательная школа с углубленным изучением английского языка № 1370;"""127549 г.Москва, ул. Костромская, д. 14 """"Г"""", стр. 1, стр. 2""";Северо-Восточный административный округ;Алтуфьевский район;Государственное;Северо-Восточное окружное управление образования;Общеобразовательное учреждение;Средняя общеобразовательная школа с углубленным изучением отдельных предметов;901-21-22;schu1370.svao.mskobr.ru;School1370@yandex.ru;37,595697;55,884181;86907899
98;Государственное бюджетное образовательное учреждение города Москвы средняя общеобразовательная школа с углубленным изучением английского языка № 1374;129337 г. Москва, ул. Федоскинская, д. 4;Северо-Восточный административный округ;Ярославский район;Государственное;Северо-Восточное окружное управление образования;Общеобразовательное учреждение;Средняя общеобразовательная школа с углубленным изучением отдельных предметов;"(499) 183-01-56; (499) 183-05-05";schu1374.svao.mskobr.ru;sch754@yandex.ru;37,703759;55,868907;86907900
99;Государственное бюджетное образовательное учреждение города Москвы средняя общеобразовательная школа с углубленным изучением английского языка № 1378;127495, город Москва, Челобитьевское шоссе, дом 2;Северо-Восточный административный округ;район Северный;Государственное;Северо-Восточное окружное управление образования;Общеобразовательное учреждение;Средняя общеобразовательная школа с углубленным изучением отдельных предметов;(499) 761-06-10;schu1378.svao.mskobr.ru/;school1378@rambler.ru;37,548476;55,915076;86907901
100;Государственное бюджетное образовательное учреждение города Москвы средняя общеобразовательная школа с углубленным изучением английского языка № 1380;127282, г. Москва, улица Тихомирова, дом 10;Северо-Восточный административный округ;район Северное Медведково;Государственное;Северо-Восточное окружное управление образования;Общеобразовательное учреждение;Средняя общеобразовательная школа с углубленным изучением отдельных предметов;"(499) 478-18-73; (499) 478-18-02";schu1380.svao.mskobr.ru;school1380@mail.ru;37,651689;55,884891;86907902
101;Государственное бюджетное образовательное учреждение города Москвы средняя общеобразовательная школа с углубленным изучением английского языка № 1381;129346 г. Москва, Янтарный проезд, дом 2;Северо-Восточный административный округ;Лосиноостровский район;Государственное;Северо-Восточное окружное управление образования;Общеобразовательное учреждение;Средняя общеобразовательная школа с углубленным изучением отдельных предметов;(499) 184-59-60;schu1381.svao.mskobr.ru;sch1381@yandex.ru;37,691592;55,873086;86907903
102;Государственное бюджетное образовательное учреждение города Москвы средняя общеобразовательная школа с углубленным изучением английского языка № 1411;127566, г. Москва, Северный бульвар, д. 1 а;Северо-Восточный административный округ;район Отрадное;Государственное;Северо-Восточное окружное управление образования;Общеобразовательное учреждение;Средняя общеобразовательная школа с углубленным изучением отдельных предметов;404-43-11;schu1411sv.mskobr.ru;school1411@mail.ru;37,601356;55,866766;86907904
103;Государственное бюджетное образовательное учреждение города Москвы средняя общеобразовательная школа с углубленным изучением иностранных языков № 1412;127549 г. Москва, ул. Мурановская, д. 4 а;Северо-Восточный административный округ;район Бибирево;Государственное;Северо-Восточное окружное управление образования;Общеобразовательное учреждение;Средняя общеобразовательная школа с углубленным изучением отдельных предметов;407-05-30;http://schu1412sv.mskobr.ru/;sch1412-1@yandex.ru;37,601655;55,89096;86907905
104;Государственное бюджетное образовательное учреждение города Москвы средняя общеобразовательная школа с углубленным изучением английского языка № 1413;127543, город Москва, Белозерская улица, дом 15;Северо-Восточный административный округ;район Бибирево;Государственное;Северо-Восточное окружное управление образования;Общеобразовательное учреждение;Средняя общеобразовательная школа с углубленным изучением отдельных предметов;(499) 206-33-47;schu1413sv.mskobr.ru;sch1413@yandex.ru;37,617583;55,896974;86907906
105;Государственное бюджетное образовательное учреждение города Москвы средняя общеобразовательная школа с углубленным изучением английского языка № 1414;127018, г. Москва, ул. Советской Армии, д. 9;Северо-Восточный административный округ;район Марьина Роща;Государственное;Северо-Восточное окружное управление образования;Общеобразовательное учреждение;Средняя общеобразовательная школа с углубленным изучением отдельных предметов;689-02-98;schu1414sv.mskobr.ru;sch1414@yandex.ru;37,61588;55,789187;86907907
106;Государственное бюджетное образовательное учреждение города Москвы средняя общеобразовательная школа с углубленным изучением английского языка № 1415;129515, г. Москва, 1-я Останкинская улица, дом 29;Северо-Восточный административный округ;Останкинский район;Государственное;Северо-Восточное окружное управление образования;Общеобразовательное учреждение;Средняя общеобразовательная школа с углубленным изучением отдельных предметов;602-20-41;schu1415.svao.mskobr.ru;school1415@mail.ru;37,624875;55,824633;86907908
107;Государственное бюджетное образовательное учреждение города Москвы средняя общеобразовательная школа с углубленным изучением английского языка № 1416;127576 г. Москва, ул. Новгородская, д. 8;Северо-Восточный административный округ;район Лианозово;Государственное;Северо-Восточное окружное управление образования;Общеобразовательное учреждение;Средняя общеобразовательная школа с углубленным изучением отдельных предметов;(499) 209-42-29;schu1416sv.mskobr.ru;Sch1416@yandex.ru;37,581348;55,893443;86907909
108;Государственное бюджетное образовательное учреждение города Москвы средняя общеобразовательная школа с углубленным изучением английского и немецкого языков № 1955;129345, г. Москва, улица Тайнинская, дом 15, корпус 3;Северо-Восточный административный округ;Лосиноостровский район;Государственное;Северо-Восточное окружное управление образования;Общеобразовательное учреждение;Средняя общеобразовательная школа с углубленным изучением отдельных предметов;(499) 185-18-42;schu1955sv.mskobr.ru;school-1955@yandex.ru;37,683104;55,884922;86907910
109;Государственное бюджетное образовательное учреждение города Москвы средняя общеобразовательная школа с углубленным изучением отдельных предметов № 1073;115201 г. Москва, Старокаширское шоссе, д.2, корп.11;Южный административный округ;район Нагатино-Садовники;Государственное;Южное окружное управление образования;Общеобразовательное учреждение;Средняя общеобразовательная школа с углубленным изучением отдельных предметов;(499) 613-48-55;schuu1073.mskobr.ru;sch1073@sinergi.ru;37,62668;55,66;86911349
110;Государственное бюджетное образовательное учреждение города Москвы средняя общеобразовательная школа с углубленным изучением экологии № 446;107023, г. Москва, площадь Журавлева, д.7,стр.1;Восточный административный округ;район Соколиная Гора;Государственное;Восточное окружное управление образования;Общеобразовательное учреждение;Средняя общеобразовательная школа с углубленным изучением отдельных предметов;(499) 369-09-55;schvu446.mskobr.ru;sch446@bk.ru;37,706144;55,783574;86914872
111;"Государственное бюджетное образовательное учреждение города Москвы средняя общеобразовательная школа с углубленным изучением области знания ""Искусство"" № 635";111399, г.Москва, ул.Новогиреевская, д. 22 а;Восточный административный округ;район Перово;Государственное;Восточное окружное управление образования;Общеобразовательное учреждение;Средняя общеобразовательная школа с углубленным изучением отдельных предметов;(495) 672-85-81;sch635.mskobr.ru;ebk635@mail.ru;37,792849;55,757426;86914873
112;Государственное бюджетное образовательное учреждение города Москвы средняя общеобразовательная школа с углубленным изучением английского языка № 1200;111673, г.Москва, Суздальская ул, 24 Б;Восточный административный округ;район Новокосино;Государственное;Восточное окружное управление образования;Общеобразовательное учреждение;Средняя общеобразовательная школа с углубленным изучением отдельных предметов;"(495) 701-05-00; (495) 701-53-50; (495) 701-05-01; (495) 702-53-10; (495) 701-23-91; (495) 701-23-90; (495) 701-25-90";schvu1200.mskobr.ru;sch1200@mail.ru;37,85915;55,742173;86914874
113;Государственное бюджетное образовательное учреждение города Москвы средняя общеобразовательная школа с углубленным изучением английского языка № 1246;107143, г. Москва, Открытое шоссе, д. 29 А;Восточный административный округ;район Метрогородок;Государственное;Восточное окружное управление образования;Общеобразовательное учреждение;Средняя общеобразовательная школа с углубленным изучением отдельных предметов;167-80-23;schvu1246.mskobr.ru;sch1246@yandex.ru;37,761216;55,829164;86914875
114;Государственное бюджетное образовательное учреждение города Москвы средняя общеобразовательная школа с углубленным изучением информатики № 1254;107061, г.Москва, ул. Девятая Рота, д.14А;Восточный административный округ;район Преображенское;Государственное;Восточное окружное управление образования;Общеобразовательное учреждение;Средняя общеобразовательная школа с углубленным изучением отдельных предметов;"(495) 963-40-36; (495) 963-23-04; (495) 963-40-55";sch380.mskobr.ru;sch1254@mail.ru;37,707378;55,798155;86914876
115;Государственное бюджетное образовательное учреждение города Москвы средняя общеобразовательная школа с углубленным изучением английского языка № 1268;105215, г.Москва, ул. 11-ая Парковая, д.50;Восточный административный округ;район Северное Измайлово;Государственное;Восточное окружное управление образования;Общеобразовательное учреждение;Средняя общеобразовательная школа с углубленным изучением отдельных предметов;164-48-01;schvu1268.mskobr.ru;school1268@mail.ru;37,806253;55,80737;86914877
116;Государственное бюджетное образовательное учреждение города Москвы средняя общеобразовательная школа с углубленным изучением немецкого языка № 1269;111401, г. Москва, 3-я Владимирская ул., д.26А;Восточный административный округ;район Перово;Государственное;Восточное окружное управление образования;Общеобразовательное учреждение;Средняя общеобразовательная школа с углубленным изучением отдельных предметов;305-70-20;schvu1269.mskobr.ru;sch1269@yandex.ru;37,786249;55,755067;86914878
117;Государственное бюджетное образовательное учреждение города Москвы средняя общеобразовательная школа с углубленным изучением английского языка № 1282;107014, г. Москва, ул. Барболина, д.1;Восточный административный округ;район Сокольники;Государственное;Восточное окружное управление образования;Общеобразовательное учреждение;Средняя общеобразовательная школа с углубленным изучением отдельных предметов;"(499) 268-52-14; (499) 268-48-11; (499) 268-65-10; (499) 268-05-25; (499) 268-33-75";schvu1282.mskobr.ru/;sch1282@yandex.ru;37,684892;55,789128;86914879
118;Государственное бюджетное образовательное учреждение города Москвы средняя общеобразовательная школа с углубленным изучением немецкого языка № 1294;107258, Москва, Глебовская улица, дом 10;Восточный административный округ;район Богородское;Государственное;Восточное окружное управление образования;Общеобразовательное учреждение;Средняя общеобразовательная школа с углубленным изучением отдельных предметов;169-35-93;dsv222.mskobr.ru/;schl1294@mail.ru;37,715599;55,813225;86914880
119;Государственное бюджетное образовательное учреждение города Москвы средняя общеобразовательная школа с углубленным изучением английского языка № 1324;111396, Москва, Федеративный проспект, д.27;Восточный административный округ;район Новогиреево;Государственное;Восточное окружное управление образования;Общеобразовательное учреждение;Средняя общеобразовательная школа с углубленным изучением отдельных предметов;(495) 303-51-30;schvu1324.mskobr.ru;english1324@mail.ru;37,820326;55,755077;86914881
120;Государственное бюджетное образовательное учреждение города Москвы средняя общеобразовательная школа с углубленным изучением информатики № 1351;111673, г.Москва, ул. Суздальская, д. 22 Б;Восточный административный округ;район Новокосино;Государственное;Восточное окружное управление образования;Общеобразовательное учреждение;Средняя общеобразовательная школа с углубленным изучением отдельных предметов;701-03-60;schu1351.mskobr.ru;schooll1351@mail.ru;37,857361;55,741442;86914882
121;Государственное бюджетное образовательное учреждение города Москвы средняя общеобразовательная школа с углубленным изучением английского языка № 1352;107207, г. Москва, Щелковское шоссе, д. 77А;Восточный административный округ;район Гольяново;Государственное;Восточное окружное управление образования;Общеобразовательное учреждение;Средняя общеобразовательная школа с углубленным изучением отдельных предметов;(495) 466-59-01;schvu1352.mskobr.ru;school1352@mail.ru;37,804043;55,813322;86914883
122;Государственное бюджетное образовательное учреждение города Москвы средняя общеобразовательная школа с углубленным изучением математики № 1360;107564, г. Москва, ул. Краснобогатырская, д. 21А;Восточный административный округ;район Богородское;Государственное;Восточное окружное управление образования;Общеобразовательное учреждение;Средняя общеобразовательная школа с углубленным изучением отдельных предметов;964-41-10;schvu1360.mskobr.ru;sh1360@mail.ru;37,702033;55,812656;86914884
123;Государственное бюджетное образовательное учреждение города Москвы средняя общеобразовательная школа с углубленным изучением иностранных языков № 1373;105568, город Москва, улица Чечулина, д. 28;Восточный административный округ;район Ивановское;Государственное;Восточное окружное управление образования;Общеобразовательное учреждение;Средняя общеобразовательная школа с углубленным изучением отдельных предметов;308-66-70;sch1373.mskobr.ru;sch689@yandex.ru;37,836609;55,781127;86914885
124;Государственное бюджетное образовательное учреждение города Москвы средняя общеобразовательная школа с углубленным изучением английского языка № 1230;121248 г. Москва,  Кутузовский проспект, д.6;Западный административный округ;район Дорогомилово;Государственное;Западное окружное управление образования;Общеобразовательное учреждение;Средняя общеобразовательная школа с углубленным изучением отдельных предметов;(499) 243-45-54;schu1230.mskzapad.ru;school1230@mail.ru;37,52405;55,740267;86914904
125;Государственное бюджетное образовательное учреждение города Москвы средняя общеобразовательная школа с углубленным изучением математики, информатики, физики № 444;105043, город Москва, Нижняя Первомайская улица, дом 14;Восточный административный округ;район Измайлово;Государственное;Восточное окружное управление образования;Общеобразовательное учреждение;Средняя общеобразовательная школа с углубленным изучением отдельных предметов;(499) 367-47-18;schv444.mskobr.ru;sch444@yandex.ru;37,797131;55,791282;86914909
126;Государственное бюджетное образовательное учреждение города Москвы средняя общеобразовательная школа с углубленным изучением немецкого языка № 1277;127055 г.Москва, ул.Сущёвская, д.32;Центральный административный округ;Тверской район;Государственное;Центральное окружное управление образования;Общеобразовательное учреждение;Средняя общеобразовательная школа с углубленным изучением отдельных предметов;(499) 978-64-53;schuc1277.mskobr.ru;schule1277@yandex.ru;37,602017;55,783826;86914914
127;Государственное бюджетное образовательное учреждение города Москвы средняя общеобразовательная школа с углубленным изучением английского языка № 1353;124498, г. Москва, Зеленоград Березовая аллея  д.8А;Зеленоградский административный округ;район Матушкино;Государственное;Зеленоградское окружное управление образования;Общеобразовательное учреждение;Средняя общеобразовательная школа с углубленным изучением отдельных предметов;(499) 735-45-31;schzg1353.mskobr.ru/;s1353@zou.ru;37,202624;55,995094;86923486
128;"Государственное бюджетное образовательное учреждение города Москвы средняя общеобразовательная школа с углубленным изучением предметов области знания ""Искусство"" № 622";109147 г.Москва,ул. Марксистская, д.9, к.2;Центральный административный округ;Таганский район;Государственное;Центральное окружное управление образования;Общеобразовательное учреждение;Средняя общеобразовательная школа с углубленным изучением отдельных предметов;912-10-31;schuc622.mskobr.ru;sch-622@yandex.ru;37,668418;55,735614;86930403
129;Государственное бюджетное образовательное учреждение города Москвы средняя общеобразовательная школа с углубленным изучением английского языка № 1389;111402, г. Москва, ул. Кетчерская, д.8А;Восточный административный округ;район Вешняки;Государственное;Восточное окружное управление образования;Общеобразовательное учреждение;Средняя общеобразовательная школа с углубленным изучением отдельных предметов;"(495) 370-78-81; (495) 375-96-80";schu1389.mskobr.ru;school1389@mail.ru;37,825406;55,742801;86930408
130;"Государственное бюджетное образовательное учреждение города Москвы средняя общеобразовательная школа с углубленным изучением английского языка и музыки № 368 ""Лосиный остров"".";107065  Москва,  ул. Уссурийская, дом 12;Восточный административный округ;район Гольяново;Государственное;Восточное окружное управление образования;Общеобразовательное учреждение;Средняя общеобразовательная школа с углубленным изучением отдельных предметов;469-00-13;schv368.mskobr.ru;inf368@yandex.ru;37,819877;55,822132;86930447
131;Государственное бюджетное образовательное учреждение города Москвы средняя общеобразовательная школа с углубленным изучением немецкого языка № 1221;109147 г. Москва, Нижегородская ул., д.3 Б, стр.1;Центральный административный округ;Таганский район;Государственное;Центральное окружное управление образования;Общеобразовательное учреждение;Средняя общеобразовательная школа с углубленным изучением отдельных предметов;678-60-27;schu1221.cao.mskobr.ru;direktor1221@yandex.ru;37,678544;55,740409;86930455
132;Государственное бюджетное образовательное учреждение города Москвы средняя общеобразовательная школа с углубленным изучением немецкого языка № 1211;127540, г. Москва, улица Дубнинская, дом 8А;Северный административный округ;район Восточное Дегунино;Государственное;Северное окружное управление образования;Общеобразовательное учреждение;Средняя общеобразовательная школа с углубленным изучением отдельных предметов;(499) 904-93-82;: schs1211.mskobr.ru;school1211@gmail.com;37,570848;55,861177;86930535
133;Государственное бюджетное образовательное учреждение города Москвы средняя общеобразовательная школа с углубленным изучением английского языка № 1213;127238 г. Москва, ул. 3-й Нижнелихоборский проезд, д. 6 А;Северный административный округ;Тимирязевский район;Государственное;Северное окружное управление образования;Общеобразовательное учреждение;Средняя общеобразовательная школа с углубленным изучением отдельных предметов;"(499) 488-69-96; (499) 488-65-97; (499) 488-71-14";schs1213.mskobr.ru;sch1213@mail.ru;37,565444;55,844177;86930536
134;Государственное бюджетное образовательное учреждение города Москвы средняя общеобразовательная школа с углубленным изучением английского языка № 1223;125239 г. Москва, улица Михалковская, дом 13-а;Северный административный округ;район Коптево;Государственное;Северное окружное управление образования;Общеобразовательное учреждение;Средняя общеобразовательная школа с углубленным изучением отдельных предметов;(499) 154-63-31;;1223school@rambler.ru;37,527116;55,838618;86930537
135;Государственное бюджетное образовательное учреждение города Москвы средняя общеобразовательная школа с углубленным изучением английского языка № 1224;125635, г. Москва, улица Базовская, дом 20 А;Северный административный округ;район Западное Дегунино;Государственное;Северное окружное управление образования;Общеобразовательное учреждение;Средняя общеобразовательная школа с углубленным изучением отдельных предметов;(495) 905-23-45;schs1224.mskobr.ru;school1224@mail.ru;37,514378;55,876529;86930538
136;Государственное бюджетное образовательное учреждение города Москвы средняя общеобразовательная школа с углубленным изучением немецкого языка № 1249;125057, г. Москва, Чапаевский переулок, д. 6;Северный административный округ;район Сокол;Государственное;Северное окружное управление образования;Общеобразовательное учреждение;Средняя общеобразовательная школа с углубленным изучением отдельных предметов;"(499) 157-07-04; (499) 157-08-68; (499) 157-28-84";schs1249.mskobr.ru;shkola1249@yandex.ru;37,518202;55,801216;86930539
137;Государственное бюджетное образовательное учреждение города Москвы средняя общеобразовательная школа с углубленным изучением английского языка № 1250;125212, г. Москва, Ленинградское шоссе, дом 27;Северный административный округ;Войковский район;Государственное;Северное окружное управление образования;Общеобразовательное учреждение;Средняя общеобразовательная школа с углубленным изучением отдельных предметов;"(499) 150-86-75; (499) 150-86-68";schs1250.mskobr.ru;school1250@mail.ru;37,485066;55,829542;86930540
138;Государственное бюджетное образовательное учреждение города Москвы средняя общеобразовательная школа с углубленным изучением испанского языка № 1252 имени Сервантеса;125080 г. Москва, ул. Дубосековская, д. 3;Северный административный округ;район Сокол;Государственное;Северное окружное управление образования;Общеобразовательное учреждение;Средняя общеобразовательная школа с углубленным изучением отдельных предметов;(499) 158-69-89;schs1252.mskobr.ru;sc1252@yandex.ru;37,496441;55,810053;86930541
139;Государственное бюджетное образовательное учреждение города Москвы средняя общеобразовательная школа с углубленным изучением английского языка № 1287;125167, г. Москва, проезд Аэропорта, дом 10;Северный административный округ;Хорошёвский район;Государственное;Северное окружное управление образования;Общеобразовательное учреждение;Средняя общеобразовательная школа с углубленным изучением отдельных предметов;198-76-43;schs1287.mskobr.ru;school1287@mail.ru;37,520611;55,796507;86930542
140;Государственное бюджетное образовательное учреждение города Москвы средняя общеобразовательная школа с углубленным изучением английского языка № 1289;125167 г. Москва, ул. Планетная, дом 23;Северный административный округ;район Аэропорт;Государственное;Северное окружное управление образования;Общеобразовательное учреждение;Средняя общеобразовательная школа с углубленным изучением отдельных предметов;614-43-33;schu1289.sao.mskobr.ru;sch1289@mail.ru;37,546594;55,80117;86930543
141;Государственное бюджетное образовательное учреждение города Москвы средняя общеобразовательная школа с углубленным изучением иностранного языка № 1291;127411, г. Москва, улица Софьи Ковалевской , дом 18А;Северный административный округ;Дмитровский район;Государственное;Северное окружное управление образования;Общеобразовательное учреждение;Средняя общеобразовательная школа с углубленным изучением отдельных предметов;485-16-45;schs1291.mskobr.ru;school1291@mail.ru;37,537393;55,887324;86930544
142;Государственное бюджетное образовательное учреждение города Москвы средняя общеобразовательная школа с углубленным изучением английского языка № 1315;125565,г. Москва, Конаковский проезд, д.5;Северный административный округ;Головинский район;Государственное;Северное окружное управление образования;Общеобразовательное учреждение;Средняя общеобразовательная школа с углубленным изучением отдельных предметов;(499) 457-04-04;schu1315.sao.mskobr.ru;shkola-1315@mail.ru;37,481081;55,845994;86930546
143;Государственное бюджетное образовательное учреждение города Москвы средняя общеобразовательная школа с углублённым изучением английского языка № 1338;125414, г. Москва, улица Клинская, дом 20;Северный административный округ;район Ховрино;Государственное;Северное окружное управление образования;Общеобразовательное учреждение;Средняя общеобразовательная школа с углубленным изучением отдельных предметов;451-04-71;schs1338.mskobr.ru;schook1338i@rambler.ru;37,492172;55,869442;86930547
144;Государственное бюджетное образовательное учреждение города Москвы средняя общеобразовательная школа с углубленным изучением английского языка № 1383;127474, г. Москва, ул. Дубнинская, д. 7;Северный административный округ;Бескудниковский район;Государственное;Северное окружное управление образования;Общеобразовательное учреждение;Средняя общеобразовательная школа с углубленным изучением отдельных предметов;481-62-50;schs1383.mskobr.ru;sch1383@mail.ru;37,566444;55,857818;86930548
145;Государственное бюджетное образовательное учреждение города Москвы средняя общеобразовательная школа с углубленным изучением французского языка № 1251 имени генерала Шарля де Голля;125252, г. Москва, ул. Сальвадора Альенде, дом 9;Северный административный округ;район Сокол;Государственное;Северное окружное управление образования;Общеобразовательное учреждение;Средняя общеобразовательная школа с углубленным изучением отдельных предметов;(499) 198-04-81;schs1251.mskobr.ru;ecole1251@rambler.ru;37,506777;55,794194;86930640
146;Государственное бюджетное образовательное учреждение города Москвы средняя общеобразовательная школа с углубленным изучением экономики № 1301 имени Е.Т.Гайдара;105187,  Москва,  Измайловское шосе,  дом 60.;Восточный административный округ;район Соколиная Гора;Государственное;Восточное окружное управление образования;Общеобразовательное учреждение;Средняя общеобразовательная школа с углубленным изучением отдельных предметов;"(495) 365-56-44; (495) 365-56-66; (495) 365-37-26; (495) 918-32-95";schvu1301.mskobr.ru;economicschool@mail.ru;37,736037;55,78214;86930641
147;Государственное бюджетное образовательное учреждение города Москвы средняя общеобразовательная школа с углубленным изучением иностранного языка № 1232;121165 г.Москва, Кутузовский проспект, д.28;Западный административный округ;район Дорогомилово;Государственное;Западное окружное управление образования;Общеобразовательное учреждение;Средняя общеобразовательная школа с углубленным изучением отдельных предметов;(499) 249-21-25;schu1232.mskzapad.ru;sch1232.edu@mtu-net.ru;37,538792;55,743163;86930644
148;Государственное бюджетное образовательное учреждение города Москвы средняя общеобразовательная школа с углубленным изучением иностранного (английского) языка № 1245;117534 г. Москва, Кировоградская ул. д.42. к.2;Южный административный округ;район Чертаново Южное;Государственное;Южное окружное управление образования;Общеобразовательное учреждение;Средняя общеобразовательная школа с углубленным изучением отдельных предметов;(495) 387-22-22;schuu1245.mskobr.ru;sch1245@sinergi.ru;37,593737;55,599615;86930842
149;Государственное бюджетное образовательное учреждение города Москвы средняя общеобразовательная школа с углубленным изучением отдельных предметов № 1391;143381, г. Москва, п. Киевский, пос. Киевский, д. 7а;;;Государственное;Троицкое и новомосковское окружное управление образования;Общеобразовательное учреждение;Средняя общеобразовательная школа с углубленным изучением отдельных предметов;(495)846-38-01;sch1391tn.mskobr.ru;school@kievskiy.ru;37,051358;55,532933;86930969
150;Государственное бюджетное образовательное учреждение города Москвы средняя общеобразовательная школа с углубленным изучением отдельных предметов № 1392 имени Д.В. Рябинкина;142793, г.Москва, п.Десеновское, пос.Ватутинки-1;;;Государственное;Троицкое и новомосковское окружное управление образования;Общеобразовательное учреждение;Средняя общеобразовательная школа с углубленным изучением отдельных предметов;(495)841-59-19;sch1392tn.mskobr.ru;;37,342074;55,516084;86930991
151;Государственное бюджетное образовательное учреждение города Москвы средняя общеобразовательная школа с углубленным изучением отдельных предметов №879;117519, г. Москва, улица  Красного Маяка,  дом 3 Г;Южный административный округ;район Чертаново Центральное;Государственное;Южное окружное управление образования;Общеобразовательное учреждение;Средняя общеобразовательная школа с углубленным изучением отдельных предметов;"(495) 387-36-05; (495) 387-34-75; (495) 386-08-95; (495) 387-53-89; (495) 387-23-98";http://cou879.mskobr.ru;sch879@sinergi.ru;37,595871;55,609892;86931030
152;Государственное бюджетное образовательное учреждение города Москвы средняя общеобразовательная школа с углубленным изучением отдельных предметов №1466 имени Надежды Рушевой;115304 Москва, Ереванская, 20, к.2;Южный административный округ;район Царицыно;Государственное;Южное окружное управление образования;Общеобразовательное учреждение;Средняя общеобразовательная школа с углубленным изучением отдельных предметов;"(495) 321-02-92; (495) 321-96-44";cou1466.mskobr.ru;sch1466@sinergi.ru;37,674107;55,629023;86931034
153;Государственное бюджетное образовательное учреждение города Москвы средняя общеобразовательная школа №978;г. Москва, 1-ый Нагатинский пр,д.16.;Южный административный округ;район Нагатино-Садовники;Государственное;Южное окружное управление образования;Общеобразовательное учреждение;Средняя общеобразовательная школа с углубленным изучением отдельных предметов;(495) 466-63-22;schu978.mskobr.ru;sch978@sinergi.ru;37,646418;55,679437;86931060
154;Государственное бюджетное образовательное учреждение города Москвы средняя общеобразовательная школа c углубленным изучением английского языка № 1210;123098, г. Москва, ул. Гамалеи, д. 17, корп. 1;Северо-Западный административный округ;район Щукино;Государственное;Северо-Западное окружное управление образования;Общеобразовательное учреждение;Средняя общеобразовательная школа с углубленным изучением отдельных предметов;"(499) 196-53-47; (499) 196-64-18; (499) 196-53-70; (499) 196-43-89";schu1210.mskobr.ru/;sch1210@szouo.ru;37,457225;55,800571;86931094
155;Государственное бюджетное образовательное учреждение города Москвы средняя общеобразовательная школа с углубленным изучением немецкого языка № 1212;123060, г. Москва, ул. Маршала Рыбалко, д. 14;Северо-Западный административный округ;район Щукино;Государственное;Северо-Западное окружное управление образования;Общеобразовательное учреждение;Средняя общеобразовательная школа с углубленным изучением отдельных предметов;(499) 728-40-02;http://schusz1212.mskobr.ru/;sch1212@szouo.ru;37,488977;55,802124;86931096
156;Государственное бюджетное образовательное учреждение города Москвы средняя общеобразовательная школа с углублённым изучением английского языка № 1285;125362, г. Москва, ул. Вишневая, д. 20, корп. 1;Северо-Западный административный округ;район Покровское-Стрешнево;Государственное;Северо-Западное окружное управление образования;Общеобразовательное учреждение;Средняя общеобразовательная школа с углубленным изучением отдельных предметов;491-79-01;schusz1285.mskobr.ru;sch1285@szouo.ru;37,449169;55,831044;86931097
157;Государственное бюджетное образовательное учреждение города Москвы средняя общеобразовательная школа с углубленным изучением французского языка № 1286;125480, г. Москва, ул. Героев Панфиловцев, д. 15;Северо-Западный административный округ;район Северное Тушино;Государственное;Северо-Западное окружное управление образования;Общеобразовательное учреждение;Средняя общеобразовательная школа с углубленным изучением отдельных предметов;"(495) 496-36-25; (495) 495-74-01";schu1286.mskobr.ru;sch1286@szouo.ru;37,426928;55,857191;86931098
158;Государственное бюджетное образовательное учреждение города Москвы средняя общеобразовательная школа с углубленным изучением иностранных языков № 1295;123458, г. Москва, ул. Твардовского, д. 20;Северо-Западный административный округ;район Строгино;Государственное;Северо-Западное окружное управление образования;Общеобразовательное учреждение;Средняя общеобразовательная школа с углубленным изучением отдельных предметов;(495) 757-36-14;schu1295.mskobr.ru;sch1295@szouo.ru;37,400165;55,802097;86931099
159;Государственное бюджетное образовательное учреждение города Москвы средняя общеобразовательная школа с углубленным изучением иностранных языков № 1298;125466, г. Москва, ул. Юровская, д. 97;Северо-Западный административный округ;район Куркино;Государственное;Северо-Западное окружное управление образования;Общеобразовательное учреждение;Средняя общеобразовательная школа с углубленным изучением отдельных предметов;(499) 401-86-05;schusz1298.mskobr.ru;inbox@school1298.ru;37,396078;55,899173;86931100
160;Государственное бюджетное образовательное учреждение города Москвы средняя общеобразовательная школа с углубленным изучением иностранных языков № 1302;123181, г. Москва, ул. Исаковского, д. 29, корп. 1;Северо-Западный административный округ;район Строгино;Государственное;Северо-Западное окружное управление образования;Общеобразовательное учреждение;Средняя общеобразовательная школа с углубленным изучением отдельных предметов;(495) 942-98-10;schu1302.mskobr.ru;sch1302@szouo.ru;37,415528;55,807735;86931101
161;Государственное бюджетное образовательное учреждение города Москвы средняя общеобразовательная школа с углубленным изучением иностранных языков № 1387;125466, г. Москва, улица Соколово - Мещерская, дом 27;Северо-Западный административный округ;район Куркино;Государственное;Северо-Западное окружное управление образования;Общеобразовательное учреждение;Средняя общеобразовательная школа с углубленным изучением отдельных предметов;(499) 401-99-98;schu1387.mskobr.ru;sch1387@szouo.ru;37,381313;55,903304;86931102
162;Государственное бюджетное образовательное учреждение города Москвы средняя общеобразовательная школа с углубленным изучением иностранных языков № 1399;125480, г. Москва, ул. Вилиса Лациса, 33-2;Северо-Западный административный округ;район Северное Тушино;Государственное;Северо-Западное окружное управление образования;Общеобразовательное учреждение;Средняя общеобразовательная школа с углубленным изучением отдельных предметов;(495) 949-64-92;schu1399.mskobr.ru;sch1399@szouo.ru;37,408189;55,858176;86931103
163;Государственное бюджетное образовательное учреждение города Москвы средняя общеобразовательная школа с углублённым изучением иностранных языков № 1900;125222, г. Москва, улица Дубравная, дом 41, корпус 3;Северо-Западный административный округ;район Митино;Государственное;Северо-Западное окружное управление образования;Общеобразовательное учреждение;Средняя общеобразовательная школа с углубленным изучением отдельных предметов;(495) 794-10-56;sch1900.mskobr.ru;sch1900@szouo.ru;37,361244;55,841627;86931104
164;Государственное бюджетное образовательное учреждение города Москвы средняя общеобразовательная школа с углубленным изучением английского языка № 1944;125368, г. Москва, ул. Барышиха, д. 17, корп. 1;Северо-Западный административный округ;район Митино;Государственное;Северо-Западное окружное управление образования;Общеобразовательное учреждение;Средняя общеобразовательная школа с углубленным изучением отдельных предметов;(495) 754-08-11;schusz1944.mskobr.ru;sch1944@szouo.ru;37,349562;55,842323;86931105
165;Государственное бюджетное образовательное учреждение города Москвы средняя общеобразовательная школа с углубленным изучением иностранных языков № 1288 имени Героя Советского Союза Н.В. Троян;125007, г. Москва, Хорошевское шоссе, дом 3;Северный административный округ;Хорошёвский район;Государственное;Северное окружное управление образования;Общеобразовательное учреждение;Средняя общеобразовательная школа с углубленным изучением отдельных предметов;945-72-95;sch1288.mskobr.ru/;school1288@mail.ru;37,542167;55,773675;86931124
166;Государственное бюджетное образовательное учреждение города Москвы средняя общеобразовательная школа с углубленным изучением экологии № 390 имени генерала П.И. Батова;107258, г. Москва, б-р Рокоссовского маршала, д. 34/2;Восточный административный округ;район Богородское;Государственное;Восточное окружное управление образования;Общеобразовательное учреждение;Средняя общеобразовательная школа с углубленным изучением отдельных предметов;160-22-10;sch318.mskobr.ru;sch318@mail.ru;37,72353;55,814577;86931129
167;Государственное бюджетное образовательное учреждение города Москвы средняя общеобразовательная школа с углубленным изучением английского языка № 1362;105187, город Москва, улица Лечебная, дом 20;Восточный административный округ;район Соколиная Гора;Государственное;Восточное окружное управление образования;Общеобразовательное учреждение;Средняя общеобразовательная школа с углубленным изучением отдельных предметов;166-99-01;schvu1362.mskobr.ru;school1362@yandex.ru;37,740858;55,789789;86931185
168;Государственное бюджетное образовательное учреждение города Москвы средняя общеобразовательная школа с углубленным изучением иностранных языков № 1259;115054 г. Москва, 5-й Монетчиковский пер., д.7;Центральный административный округ;район Замоскворечье;Государственное;Центральное окружное управление образования;Общеобразовательное учреждение;Средняя общеобразовательная школа с углубленным изучением отдельных предметов;953-04-16;schuc1259.mskobr.ru;dc47@yandex.ru;37,639775;55,739686;86931232
169;Государственное бюджетное образовательное учреждение города Москвы средняя общеобразовательная школа с углубленным изучением английского языка № 1282;107014, г. Москва, ул. Барболина, д.1;Восточный административный округ;район Сокольники;Государственное;Восточное окружное управление образования;Общеобразовательное учреждение;Средняя общеобразовательная школа с углубленным изучением отдельных предметов;"(499) 268-52-14; (499) 268-48-11; (499) 268-65-10; (499) 268-05-25; (499) 268-33-75";schvu1282.mskobr.ru/;sch1282@yandex.ru;37,684742;55,789798;87028606
170;Государственное бюджетное образовательное учреждение города Москвы средняя общеобразовательная школа с углублённым изучением английского языка № 1338;125414, г. Москва, улица Клинская, дом 20;Северный административный округ;район Ховрино;Государственное;Северное окружное управление образования;Общеобразовательное учреждение;Средняя общеобразовательная школа с углубленным изучением отдельных предметов;451-04-71;schs1338.mskobr.ru;schook1338i@rambler.ru;37,494834;55,872012;87028626
171;Государственное бюджетное образовательное учреждение города Москвы средняя общеобразовательная школа с углубленным изучением французского языка № 1286;125480, г. Москва, ул. Героев Панфиловцев, д. 15;Северо-Западный административный округ;район Северное Тушино;Государственное;Северо-Западное окружное управление образования;Общеобразовательное учреждение;Средняя общеобразовательная школа с углубленным изучением отдельных предметов;"(495) 496-36-25; (495) 495-74-01";schu1286.mskobr.ru;sch1286@szouo.ru;37,423976;55,854912;87028669
172;Государственное бюджетное образовательное учреждение города Москвы средняя общеобразовательная школа с углубленным изучением французского языка № 1286;125480, г. Москва, ул. Героев Панфиловцев, д. 15;Северо-Западный административный округ;район Северное Тушино;Государственное;Северо-Западное окружное управление образования;Общеобразовательное учреждение;Средняя общеобразовательная школа с углубленным изучением отдельных предметов;"(495) 496-36-25; (495) 495-74-01";schu1286.mskobr.ru;sch1286@szouo.ru;37,426031;55,853252;87028670
173;Государственное бюджетное образовательное учреждение города Москвы средняя общеобразовательная школа с углубленным изучением французского языка № 1286;125480, г. Москва, ул. Героев Панфиловцев, д. 15;Северо-Западный административный округ;район Северное Тушино;Государственное;Северо-Западное окружное управление образования;Общеобразовательное учреждение;Средняя общеобразовательная школа с углубленным изучением отдельных предметов;"(495) 496-36-25; (495) 495-74-01";schu1286.mskobr.ru;sch1286@szouo.ru;37,423148;55,857177;87028671
174;Государственное бюджетное образовательное учреждение города Москвы средняя общеобразовательная школа с углубленным изучением французского языка № 1286;125480, г. Москва, ул. Героев Панфиловцев, д. 15;Северо-Западный административный округ;район Северное Тушино;Государственное;Северо-Западное окружное управление образования;Общеобразовательное учреждение;Средняя общеобразовательная школа с углубленным изучением отдельных предметов;"(495) 496-36-25; (495) 495-74-01";schu1286.mskobr.ru;sch1286@szouo.ru;37,426979;55,857048;87028672
175;Государственное бюджетное образовательное учреждение города Москвы средняя общеобразовательная школа с углубленным изучением иностранных языков № 1298;125466, г. Москва, ул. Юровская, д. 97;Северо-Западный административный округ;район Куркино;Государственное;Северо-Западное окружное управление образования;Общеобразовательное учреждение;Средняя общеобразовательная школа с углубленным изучением отдельных предметов;(499) 401-86-05;schusz1298.mskobr.ru;inbox@school1298.ru;37,394254;55,897392;87028673
176;Государственное бюджетное образовательное учреждение города Москвы средняя общеобразовательная школа с углубленным изучением иностранных языков № 1298;125466, г. Москва, ул. Юровская, д. 97;Северо-Западный административный округ;район Куркино;Государственное;Северо-Западное окружное управление образования;Общеобразовательное учреждение;Средняя общеобразовательная школа с углубленным изучением отдельных предметов;(499) 401-86-05;schusz1298.mskobr.ru;inbox@school1298.ru;37,382438;55,900115;87028674
177;Государственное бюджетное образовательное учреждение города Москвы средняя общеобразовательная школа с углубленным изучением иностранных языков № 1298;125466, г. Москва, ул. Юровская, д. 97;Северо-Западный административный округ;район Куркино;Государственное;Северо-Западное окружное управление образования;Общеобразовательное учреждение;Средняя общеобразовательная школа с углубленным изучением отдельных предметов;(499) 401-86-05;schusz1298.mskobr.ru;inbox@school1298.ru;37,38379;55,900872;87028675
178;Государственное бюджетное образовательное учреждение города Москвы средняя общеобразовательная школа с углубленным изучением предметов социального профиля № 1386;109125, г. Москва, Васильцовский переулок, д. 1;Юго-Восточный административный округ;Рязанский район;Государственное;Юго-Восточное окружное управление образования;Общеобразовательное учреждение;Средняя общеобразовательная школа с углубленным изучением отдельных предметов;(499) 796-22-60;schuvu1386.mskobr.ru;w1386@mail.ru;37,748759;55,716528;87028732
179;Государственное бюджетное образовательное учреждение города Москвы средняя общеобразовательная школа с углубленным изучением экономики № 240;127490, город Москва, улица Мусоргского, дом 11 Г;Северо-Восточный административный округ;район Отрадное;Государственное;Северо-Восточное окружное управление образования;Общеобразовательное учреждение;Средняя общеобразовательная школа с углубленным изучением отдельных предметов;"(499) 203-39-09; (499) 203-39-66";sch240sv.mskobr.ru;sch240@yandex.ru;37,622051;55,865538;87028752
180;Государственное бюджетное образовательное учреждение города Москвы средняя общеобразовательная школа с углубленным изучением музыки и хореографии № 1113;125009 г. Москва, Дегтярный пер., д.7.;Центральный административный округ;Тверской район;Государственное;Центральное окружное управление образования;Общеобразовательное учреждение;Средняя общеобразовательная школа с углубленным изучением отдельных предметов;(495) 699-57-22;schuc1113.mskobr.ru;1113sch@couo.ru;37,60315;55,769032;87028772
181;Государственное бюджетное образовательное учреждение города Москвы средняя общеобразовательная школа с углубленным изучением иностранных языков № 1242;117546, г. Москва, Востряковский проезд, д.3А;Южный административный округ;район Бирюлёво Западное;Государственное;Южное окружное управление образования;Общеобразовательное учреждение;Средняя общеобразовательная школа с углубленным изучением отдельных предметов;(495) 383-97-81;schuu1242.mskobr.ru;sch1242@sinergi.ru;37,643032;55,584799;87028879
182;Государственное бюджетное образовательное учреждение города Москвы средняя общеобразовательная школа с углубленным изучением иностранных языков № 1242;117546, г. Москва, Востряковский проезд, д.3А;Южный административный округ;район Бирюлёво Западное;Государственное;Южное окружное управление образования;Общеобразовательное учреждение;Средняя общеобразовательная школа с углубленным изучением отдельных предметов;(495) 383-97-81;schuu1242.mskobr.ru;sch1242@sinergi.ru;37,644895;55,585712;87028880
183;Государственное бюджетное образовательное учреждение города Москвы средняя общеобразовательная школа с углубленным изучением иностранных языков № 1242;117546, г. Москва, Востряковский проезд, д.3А;Южный административный округ;район Бирюлёво Западное;Государственное;Южное окружное управление образования;Общеобразовательное учреждение;Средняя общеобразовательная школа с углубленным изучением отдельных предметов;(495) 383-97-81;schuu1242.mskobr.ru;sch1242@sinergi.ru;37,641718;55,584671;87028881
184;Государственное бюджетное образовательное учреждение города Москвы средняя общеобразовательная школа с углубленным изучением иностранного (английского) языка № 1297;129110 г. Москва, Глинистый пер., д. 7, стр.1;Центральный административный округ;Мещанский район;Государственное;Центральное окружное управление образования;Общеобразовательное учреждение;Средняя общеобразовательная школа с углубленным изучением отдельных предметов;631-21-14;schuc1297.mskobr.ru;1297school@mail.ru;37,638644;55,783942;87028912
185;Государственное бюджетное образовательное учреждение города Москвы средняя общеобразовательная школа с углубленным изучением иностранного (английского) языка № 1297;129110 г. Москва, Глинистый пер., д. 7, стр.1;Центральный административный округ;Мещанский район;Государственное;Центральное окружное управление образования;Общеобразовательное учреждение;Средняя общеобразовательная школа с углубленным изучением отдельных предметов;631-21-14;schuc1297.mskobr.ru;1297school@mail.ru;37,640437;55,782602;87028913
186;Государственное бюджетное образовательное учреждение города Москвы средняя общеобразовательная школа с углубленным изучением иностранного (английского) языка № 1297;129110 г. Москва, Глинистый пер., д. 7, стр.1;Центральный административный округ;Мещанский район;Государственное;Центральное окружное управление образования;Общеобразовательное учреждение;Средняя общеобразовательная школа с углубленным изучением отдельных предметов;631-21-14;schuc1297.mskobr.ru;1297school@mail.ru;37,643111;55,781713;87028914
187;Государственное бюджетное образовательное учреждение города Москвы средняя общеобразовательная школа с углубленным изучением иностранного (английского) языка № 1297;129110 г. Москва, Глинистый пер., д. 7, стр.1;Центральный административный округ;Мещанский район;Государственное;Центральное окружное управление образования;Общеобразовательное учреждение;Средняя общеобразовательная школа с углубленным изучением отдельных предметов;631-21-14;schuc1297.mskobr.ru;1297school@mail.ru;37,637636;55,789427;87028915
188;Государственное бюджетное образовательное учреждение города Москвы средняя общеобразовательная школа с углубленным изучением иностранного (английского) языка № 1297;129110 г. Москва, Глинистый пер., д. 7, стр.1;Центральный административный округ;Мещанский район;Государственное;Центральное окружное управление образования;Общеобразовательное учреждение;Средняя общеобразовательная школа с углубленным изучением отдельных предметов;631-21-14;schuc1297.mskobr.ru;1297school@mail.ru;37,637244;55,787527;87028916
189;Государственное бюджетное образовательное учреждение города Москвы средняя общеобразовательная школа с углубленным изучением английского языка № 1227;109028 г. Москва, Б.Трёхсвятительский пер., д.4;Центральный административный округ;Басманный район;Государственное;Центральное окружное управление образования;Общеобразовательное учреждение;Средняя общеобразовательная школа с углубленным изучением отдельных предметов;"(495) 917-72-81; (495) 917-48-42";schuc1227.mskobr.ru;school1227@list.ru;37,646419;55,754821;87028938
190;Государственное бюджетное образовательное учреждение города Москвы средняя общеобразовательная школа с углубленным изучением иностранного (английского) языка № 1245;117534 г. Москва, Кировоградская ул. д.42. к.2;Южный административный округ;район Чертаново Южное;Государственное;Южное окружное управление образования;Общеобразовательное учреждение;Средняя общеобразовательная школа с углубленным изучением отдельных предметов;(495) 387-22-22;schuu1245.mskobr.ru;sch1245@sinergi.ru;37,59562;55,603706;87028996
191;Государственное бюджетное образовательное учреждение города Москвы средняя общеобразовательная школа с углубленным изучением иностранного (английского) языка № 1245;117534 г. Москва, Кировоградская ул. д.42. к.2;Южный административный округ;район Чертаново Южное;Государственное;Южное окружное управление образования;Общеобразовательное учреждение;Средняя общеобразовательная школа с углубленным изучением отдельных предметов;(495) 387-22-22;schuu1245.mskobr.ru;sch1245@sinergi.ru;37,595255;55,599288;87028997
192;Государственное бюджетное образовательное учреждение города Москвы средняя общеобразовательная школа с углубленным изучением иностранного (английского) языка № 1245;117534 г. Москва, Кировоградская ул. д.42. к.2;Южный административный округ;район Чертаново Южное;Государственное;Южное окружное управление образования;Общеобразовательное учреждение;Средняя общеобразовательная школа с углубленным изучением отдельных предметов;(495) 387-22-22;schuu1245.mskobr.ru;sch1245@sinergi.ru;37,593579;55,600914;87028998
193;Государственное бюджетное образовательное учреждение города Москвы средняя общеобразовательная школа с углубленным изучением иностранного (английского) языка № 1245;117534 г. Москва, Кировоградская ул. д.42. к.2;Южный административный округ;район Чертаново Южное;Государственное;Южное окружное управление образования;Общеобразовательное учреждение;Средняя общеобразовательная школа с углубленным изучением отдельных предметов;(495) 387-22-22;schuu1245.mskobr.ru;sch1245@sinergi.ru;37,592372;55,598325;87028999
194;Государственное бюджетное образовательное учреждение города Москвы средняя общеобразовательная школа с углубленным изучением отдельных предметов №879;117519, г. Москва, улица  Красного Маяка,  дом 3 Г;Южный административный округ;район Чертаново Центральное;Государственное;Южное окружное управление образования;Общеобразовательное учреждение;Средняя общеобразовательная школа с углубленным изучением отдельных предметов;"(495) 387-36-05; (495) 387-34-75; (495) 386-08-95; (495) 387-53-89; (495) 387-23-98";http://cou879.mskobr.ru;sch879@sinergi.ru;37,59752;55,608514;87029006
195;Государственное бюджетное образовательное учреждение города Москвы средняя общеобразовательная школа с углубленным изучением иностранных языков № 1302;123181, г. Москва, ул. Исаковского, д. 29, корп. 1;Северо-Западный административный округ;район Строгино;Государственное;Северо-Западное окружное управление образования;Общеобразовательное учреждение;Средняя общеобразовательная школа с углубленным изучением отдельных предметов;(495) 942-98-10;schu1302.mskobr.ru;sch1302@szouo.ru;37,42065;55,806444;87029010
196;Государственное бюджетное образовательное учреждение города Москвы средняя общеобразовательная школа с углубленным изучением иностранных языков № 1302;123181, г. Москва, ул. Исаковского, д. 29, корп. 1;Северо-Западный административный округ;район Строгино;Государственное;Северо-Западное окружное управление образования;Общеобразовательное учреждение;Средняя общеобразовательная школа с углубленным изучением отдельных предметов;(495) 942-98-10;schu1302.mskobr.ru;sch1302@szouo.ru;37,419311;55,806841;87029011
197;Государственное бюджетное образовательное учреждение города Москвы средняя общеобразовательная школа с углубленным изучением иностранных языков № 1399;125480, г. Москва, ул. Вилиса Лациса, 33-2;Северо-Западный административный округ;район Северное Тушино;Государственное;Северо-Западное окружное управление образования;Общеобразовательное учреждение;Средняя общеобразовательная школа с углубленным изучением отдельных предметов;(495) 949-64-92;schu1399.mskobr.ru;sch1399@szouo.ru;37,409943;55,858844;87029012
198;Государственное бюджетное образовательное учреждение города Москвы средняя общеобразовательная школа с углубленным изучением испанского языка № 110 имени Мигеля Эрнандеса;121069 г. Москва, Столовый пер., д.10/2, стр.1;Центральный административный округ;Пресненский район;Государственное;Центральное окружное управление образования;Общеобразовательное учреждение;Средняя общеобразовательная школа с углубленным изучением отдельных предметов;(495) 690-30-97;schuc110.mskobr.ru;sch110@bk.ru;37,596682;55,759253;87029053
199;Государственное бюджетное образовательное учреждение города Москвы средняя общеобразовательная школа с углубленным изучением математики и информатики № 7;119331, г. Москва, улица Крупской, дом 17;Юго-Западный административный округ;Ломоносовский район;Государственное;Юго-Западное окружное управление образования;Общеобразовательное учреждение;Средняя общеобразовательная школа с углубленным изучением отдельных предметов;138-38-09;http://schuzu7.mskobr.ru/;school_7@inbox.ru;37,525622;55,679422;87029068
200;Государственное бюджетное образовательное учреждение города Москвы средняя общеобразовательная школа с углубленным изучением математики и информатики № 7;119331, г. Москва, улица Крупской, дом 17;Юго-Западный административный округ;Ломоносовский район;Государственное;Юго-Западное окружное управление образования;Общеобразовательное учреждение;Средняя общеобразовательная школа с углубленным изучением отдельных предметов;138-38-09;http://schuzu7.mskobr.ru/;school_7@inbox.ru;37,516711;55,679545;87029069
201;Государственное бюджетное образовательное учреждение города Москвы средняя общеобразовательная школа с углубленным изучением математики и информатики № 7;119331, г. Москва, улица Крупской, дом 17;Юго-Западный административный округ;Ломоносовский район;Государственное;Юго-Западное окружное управление образования;Общеобразовательное учреждение;Средняя общеобразовательная школа с углубленным изучением отдельных предметов;138-38-09;http://schuzu7.mskobr.ru/;school_7@inbox.ru;37,523887;55,683312;87029070
202;Государственное бюджетное образовательное учреждение города Москвы средняя общеобразовательная школа с углубленным изучением английского языка № 1353;124498, г. Москва, Зеленоград Березовая аллея  д.8А;Зеленоградский административный округ;район Матушкино;Государственное;Зеленоградское окружное управление образования;Общеобразовательное учреждение;Средняя общеобразовательная школа с углубленным изучением отдельных предметов;(499) 735-45-31;schzg1353.mskobr.ru/;s1353@zou.ru;37,203517;55,994117;87029093
203;Государственное бюджетное образовательное учреждение города Москвы средняя общеобразовательная школа с углубленным изучением английского языка № 1353;124498, г. Москва, Зеленоград Березовая аллея  д.8А;Зеленоградский административный округ;район Матушкино;Государственное;Зеленоградское окружное управление образования;Общеобразовательное учреждение;Средняя общеобразовательная школа с углубленным изучением отдельных предметов;(499) 735-45-31;schzg1353.mskobr.ru/;s1353@zou.ru;37,198631;55,998396;87029094
204;Государственное бюджетное образовательное учреждение города Москвы средняя общеобразовательная школа с углубленным изучением иностранных языков № 1220;129075, г. Москва, Аргуновская ул., д. 12, корп. 2, стр. 1, 2, 3;Северо-Восточный административный округ;Останкинский район;Государственное;Северо-Восточное окружное управление образования;Общеобразовательное учреждение;Средняя общеобразовательная школа с углубленным изучением отдельных предметов;(495) 683-09-08;schu1220.svao.mskobr.ru;Sch1220@yandex.ru;37,621004;55,817674;87029129
205;Государственное бюджетное образовательное учреждение города Москвы средняя общеобразовательная школа с углубленным изучением иностранных языков № 1220;129075, г. Москва, Аргуновская ул., д. 12, корп. 2, стр. 1, 2, 3;Северо-Восточный административный округ;Останкинский район;Государственное;Северо-Восточное окружное управление образования;Общеобразовательное учреждение;Средняя общеобразовательная школа с углубленным изучением отдельных предметов;(495) 683-09-08;schu1220.svao.mskobr.ru;Sch1220@yandex.ru;37,621915;55,817784;87029130
206;Государственное бюджетное образовательное учреждение города Москвы средняя общеобразовательная школа с углубленным изучением английского языка № 1230;121248 г. Москва,  Кутузовский проспект, д.6;Западный административный округ;район Дорогомилово;Государственное;Западное окружное управление образования;Общеобразовательное учреждение;Средняя общеобразовательная школа с углубленным изучением отдельных предметов;(499) 243-45-54;schu1230.mskzapad.ru;school1230@mail.ru;37,562166;55,750551;87029195
207;Государственное бюджетное образовательное учреждение города Москвы средняя общеобразовательная школа с углубленным изучением отдельных предметов №1466 имени Надежды Рушевой;115304 Москва, Ереванская, 20, к.2;Южный административный округ;район Царицыно;Государственное;Южное окружное управление образования;Общеобразовательное учреждение;Средняя общеобразовательная школа с углубленным изучением отдельных предметов;"(495) 321-02-92; (495) 321-96-44";cou1466.mskobr.ru;sch1466@sinergi.ru;37,672988;55,627863;87029230
208;Государственное бюджетное образовательное учреждение города Москвы средняя общеобразовательная школа с углубленным изучением отдельных предметов №1466 имени Надежды Рушевой;115304 Москва, Ереванская, 20, к.2;Южный административный округ;район Царицыно;Государственное;Южное окружное управление образования;Общеобразовательное учреждение;Средняя общеобразовательная школа с углубленным изучением отдельных предметов;"(495) 321-02-92; (495) 321-96-44";cou1466.mskobr.ru;sch1466@sinergi.ru;37,676228;55,630872;87029231
209;Государственное бюджетное образовательное учреждение города Москвы средняя общеобразовательная школа с углубленным изучением отдельных предметов №1466 имени Надежды Рушевой;115304 Москва, Ереванская, 20, к.2;Южный административный округ;район Царицыно;Государственное;Южное окружное управление образования;Общеобразовательное учреждение;Средняя общеобразовательная школа с углубленным изучением отдельных предметов;"(495) 321-02-92; (495) 321-96-44";cou1466.mskobr.ru;sch1466@sinergi.ru;37,670252;55,626557;87029232
210;Государственное бюджетное образовательное учреждение города Москвы средняя общеобразовательная школа с углублённым изучением английского языка № 1285;125362, г. Москва, ул. Вишневая, д. 20, корп. 1;Северо-Западный административный округ;район Покровское-Стрешнево;Государственное;Северо-Западное окружное управление образования;Общеобразовательное учреждение;Средняя общеобразовательная школа с углубленным изучением отдельных предметов;491-79-01;schusz1285.mskobr.ru;sch1285@szouo.ru;37,448646;55,833823;87029248
211;Государственное бюджетное образовательное учреждение города Москвы средняя общеобразовательная школа с углублённым изучением английского языка № 1285;125362, г. Москва, ул. Вишневая, д. 20, корп. 1;Северо-Западный административный округ;район Покровское-Стрешнево;Государственное;Северо-Западное окружное управление образования;Общеобразовательное учреждение;Средняя общеобразовательная школа с углубленным изучением отдельных предметов;491-79-01;schusz1285.mskobr.ru;sch1285@szouo.ru;37,419019;55,834135;87029249
212;Государственное бюджетное образовательное учреждение города Москвы средняя общеобразовательная школа с углублённым изучением английского языка № 1285;125362, г. Москва, ул. Вишневая, д. 20, корп. 1;Северо-Западный административный округ;район Покровское-Стрешнево;Государственное;Северо-Западное окружное управление образования;Общеобразовательное учреждение;Средняя общеобразовательная школа с углубленным изучением отдельных предметов;491-79-01;schusz1285.mskobr.ru;sch1285@szouo.ru;37,419019;55,834135;87029250
213;Государственное бюджетное образовательное учреждение города Москвы средняя общеобразовательная школа с углублённым изучением английского языка № 1285;125362, г. Москва, ул. Вишневая, д. 20, корп. 1;Северо-Западный административный округ;район Покровское-Стрешнево;Государственное;Северо-Западное окружное управление образования;Общеобразовательное учреждение;Средняя общеобразовательная школа с углубленным изучением отдельных предметов;491-79-01;schusz1285.mskobr.ru;sch1285@szouo.ru;37,418273;55,833736;87029251
214;Государственное бюджетное образовательное учреждение города Москвы средняя общеобразовательная школа с углублённым изучением английского языка № 1285;125362, г. Москва, ул. Вишневая, д. 20, корп. 1;Северо-Западный административный округ;район Покровское-Стрешнево;Государственное;Северо-Западное окружное управление образования;Общеобразовательное учреждение;Средняя общеобразовательная школа с углубленным изучением отдельных предметов;491-79-01;schusz1285.mskobr.ru;sch1285@szouo.ru;37,420049;55,832764;87029252
215;Государственное бюджетное образовательное учреждение города Москвы средняя общеобразовательная школа с углубленным изучением иностранных языков № 1288 имени Героя Советского Союза Н.В. Троян;125007, г. Москва, Хорошевское шоссе, дом 3;Северный административный округ;Хорошёвский район;Государственное;Северное окружное управление образования;Общеобразовательное учреждение;Средняя общеобразовательная школа с углубленным изучением отдельных предметов;945-72-95;sch1288.mskobr.ru/;school1288@mail.ru;37,551513;55,776018;87029256
216;Государственное бюджетное образовательное учреждение города Москвы средняя общеобразовательная школа №978;г. Москва, 1-ый Нагатинский пр,д.16.;Южный административный округ;район Нагатино-Садовники;Государственное;Южное окружное управление образования;Общеобразовательное учреждение;Средняя общеобразовательная школа с углубленным изучением отдельных предметов;(495) 466-63-22;schu978.mskobr.ru;sch978@sinergi.ru;37,631563;55,67665;87029307
217;Государственное бюджетное образовательное учреждение города Москвы средняя общеобразовательная школа с углубленным изучением немецкого языка № 1212;123060, г. Москва, ул. Маршала Рыбалко, д. 14;Северо-Западный административный округ;район Щукино;Государственное;Северо-Западное окружное управление образования;Общеобразовательное учреждение;Средняя общеобразовательная школа с углубленным изучением отдельных предметов;(499) 728-40-02;http://schusz1212.mskobr.ru/;sch1212@szouo.ru;37,487135;55,799167;87029320
218;Государственное бюджетное образовательное учреждение города Москвы средняя общеобразовательная школа с углубленным изучением немецкого языка № 1212;123060, г. Москва, ул. Маршала Рыбалко, д. 14;Северо-Западный административный округ;район Щукино;Государственное;Северо-Западное окружное управление образования;Общеобразовательное учреждение;Средняя общеобразовательная школа с углубленным изучением отдельных предметов;(499) 728-40-02;http://schusz1212.mskobr.ru/;sch1212@szouo.ru;37,491162;55,799271;87029321
219;Государственное бюджетное образовательное учреждение города Москвы средняя общеобразовательная школа с углубленным изучением немецкого языка № 1212;123060, г. Москва, ул. Маршала Рыбалко, д. 14;Северо-Западный административный округ;район Щукино;Государственное;Северо-Западное окружное управление образования;Общеобразовательное учреждение;Средняя общеобразовательная школа с углубленным изучением отдельных предметов;(499) 728-40-02;http://schusz1212.mskobr.ru/;sch1212@szouo.ru;37,715126;55,879502;87029322
220;Государственное бюджетное образовательное учреждение города Москвы средняя общеобразовательная школа с углубленным изучением иностранных языков № 1295;123458, г. Москва, ул. Твардовского, д. 20;Северо-Западный административный округ;район Строгино;Государственное;Северо-Западное окружное управление образования;Общеобразовательное учреждение;Средняя общеобразовательная школа с углубленным изучением отдельных предметов;(495) 757-36-14;schu1295.mskobr.ru;sch1295@szouo.ru;37,409021;55,799202;87029323
221;Государственное бюджетное образовательное учреждение города Москвы средняя общеобразовательная школа с углубленным изучением экологии № 390 имени генерала П.И. Батова;107258, г. Москва, б-р Рокоссовского маршала, д. 34/2;Восточный административный округ;район Богородское;Государственное;Восточное окружное управление образования;Общеобразовательное учреждение;Средняя общеобразовательная школа с углубленным изучением отдельных предметов;160-22-10;sch318.mskobr.ru;sch318@mail.ru;37,715857;55,817681;87029326
222;Государственное бюджетное образовательное учреждение города Москвы средняя общеобразовательная школа с углубленным изучением английского языка № 1416;127576 г. Москва, ул. Новгородская, д. 8;Северо-Восточный административный округ;район Лианозово;Государственное;Северо-Восточное окружное управление образования;Общеобразовательное учреждение;Средняя общеобразовательная школа с углубленным изучением отдельных предметов;(499) 209-42-29;schu1416sv.mskobr.ru;Sch1416@yandex.ru;37,581233;55,895216;87029345
223;Государственное бюджетное образовательное учреждение города Москвы средняя общеобразовательная школа с углубленным изучением отдельных предметов № 1073;115201 г. Москва, Старокаширское шоссе, д.2, корп.11;Южный административный округ;район Нагатино-Садовники;Государственное;Южное окружное управление образования;Общеобразовательное учреждение;Средняя общеобразовательная школа с углубленным изучением отдельных предметов;(499) 613-48-55;schuu1073.mskobr.ru;sch1073@sinergi.ru;37,62668;55,66;87029368
224;Государственное бюджетное образовательное учреждение города Москвы средняя общеобразовательная школа с углубленным изучением информатики № 1254;107061, г.Москва, ул. Девятая Рота, д.14А;Восточный административный округ;район Преображенское;Государственное;Восточное окружное управление образования;Общеобразовательное учреждение;Средняя общеобразовательная школа с углубленным изучением отдельных предметов;"(495) 963-40-36; (495) 963-23-04; (495) 963-40-55";sch380.mskobr.ru;sch1254@mail.ru;37,713114;55,791956;87029379
225;Государственное бюджетное образовательное учреждение города Москвы средняя общеобразовательная школа с углубленным изучением английского языка № 1264;119313, г.Москва, Ленинский проспект, д. 93 а, 93 б, 91 А;Юго-Западный административный округ;Ломоносовский район;Государственное;Юго-Западное окружное управление образования;Общеобразовательное учреждение;Средняя общеобразовательная школа с углубленным изучением отдельных предметов;132-37-77;schuuz1264.mskobr.ru;infschool1264@mail.ru;37,528167;55,674182;87029423
226;Государственное бюджетное образовательное учреждение города Москвы средняя общеобразовательная школа с углубленным изучением английского языка № 1361;117393, г. Москва, улица Академика Пилюгина, дом 14А;Юго-Западный административный округ;Ломоносовский район;Государственное;Юго-Западное окружное управление образования;Общеобразовательное учреждение;Средняя общеобразовательная школа с углубленным изучением отдельных предметов;134-45-17;http://shuuz1361.mskobr.ru/;gou1361@mosuzedu.ru;37,534046;55,672118;87029424
227;Государственное бюджетное образовательное учреждение города Москвы средняя общеобразовательная школа с углубленным изучением английского языка № 1234;121069 г.Москва, ул. Большая Молчановка, д.26-28;Центральный административный округ;район Арбат;Государственное;Центральное окружное управление образования;Общеобразовательное учреждение;Средняя общеобразовательная школа с углубленным изучением отдельных предметов;691-64-41;schuc1234.mskobr.ru;sch1234@mail.ru;37,590048;55,753587;87029428
228;Государственное бюджетное образовательное учреждение города Москвы средняя общеобразовательная школа с углубленным изучением английского языка № 1278;107031 г.Москва, ул.Петровка, д.23/10, стр.18,21;Центральный административный округ;Тверской район;Государственное;Центральное окружное управление образования;Общеобразовательное учреждение;Средняя общеобразовательная школа с углубленным изучением отдельных предметов;621-04-89;schuc1278.mskobr.ru;schl1278@yandex.ru;37,614366;55,764679;87029429
229;Государственное бюджетное образовательное учреждение города Москвы средняя общеобразовательная школа с углубленным изучением английского языка № 1224;125635, г. Москва, улица Базовская, дом 20 А;Северный административный округ;район Западное Дегунино;Государственное;Северное окружное управление образования;Общеобразовательное учреждение;Средняя общеобразовательная школа с углубленным изучением отдельных предметов;(495) 905-23-45;schs1224.mskobr.ru;school1224@mail.ru;37,514062;55,878588;87029447
230;Государственное бюджетное образовательное учреждение города Москвы средняя общеобразовательная школа с углубленным изучением французского языка № 1251 имени генерала Шарля де Голля;125252, г. Москва, ул. Сальвадора Альенде, дом 9;Северный административный округ;район Сокол;Государственное;Северное окружное управление образования;Общеобразовательное учреждение;Средняя общеобразовательная школа с углубленным изучением отдельных предметов;(499) 198-04-81;schs1251.mskobr.ru;ecole1251@rambler.ru;37,50656;55,79367;87029449
231;Государственное бюджетное образовательное учреждение города Москвы средняя общеобразовательная школа с углубленным изучением экономики № 1301 имени Е.Т.Гайдара;105187,  Москва,  Измайловское шосе,  дом 60.;Восточный административный округ;район Соколиная Гора;Государственное;Восточное окружное управление образования;Общеобразовательное учреждение;Средняя общеобразовательная школа с углубленным изучением отдельных предметов;"(495) 365-56-44; (495) 365-56-66; (495) 365-37-26; (495) 918-32-95";schvu1301.mskobr.ru;economicschool@mail.ru;37,741665;55,778894;87029450
232;Государственное бюджетное образовательное учреждение города Москвы средняя общеобразовательная школа с углубленным изучением экономики № 1301 имени Е.Т.Гайдара;105187,  Москва,  Измайловское шосе,  дом 60.;Восточный административный округ;район Соколиная Гора;Государственное;Восточное окружное управление образования;Общеобразовательное учреждение;Средняя общеобразовательная школа с углубленным изучением отдельных предметов;"(495) 365-56-44; (495) 365-56-66; (495) 365-37-26; (495) 918-32-95";schvu1301.mskobr.ru;economicschool@mail.ru;37,733479;55,773096;87029451
233;Государственное бюджетное образовательное учреждение города Москвы средняя общеобразовательная школа с углубленным изучением экономики № 1301 имени Е.Т.Гайдара;105187,  Москва,  Измайловское шосе,  дом 60.;Восточный административный округ;район Соколиная Гора;Государственное;Восточное окружное управление образования;Общеобразовательное учреждение;Средняя общеобразовательная школа с углубленным изучением отдельных предметов;"(495) 365-56-44; (495) 365-56-66; (495) 365-37-26; (495) 918-32-95";schvu1301.mskobr.ru;economicschool@mail.ru;37,738329;55,780134;87029452
234;Государственное бюджетное образовательное учреждение города Москвы средняя общеобразовательная школа с углубленным изучением экономики № 1301 имени Е.Т.Гайдара;105187,  Москва,  Измайловское шосе,  дом 60.;Восточный административный округ;район Соколиная Гора;Государственное;Восточное окружное управление образования;Общеобразовательное учреждение;Средняя общеобразовательная школа с углубленным изучением отдельных предметов;"(495) 365-56-44; (495) 365-56-66; (495) 365-37-26; (495) 918-32-95";schvu1301.mskobr.ru;economicschool@mail.ru;37,72358;55,780613;87029453
235;Государственное бюджетное образовательное учреждение города Москвы средняя общеобразовательная школа с углубленным изучением английского языка № 1375;115533 г. Москва, Нагатинская наб., д.24;Южный административный округ;район Нагатино-Садовники;Государственное;Южное окружное управление образования;Общеобразовательное учреждение;Средняя общеобразовательная школа с углубленным изучением отдельных предметов;(499) 618-99-10;schuu1375.mskobr.ru;sch1375@sinergi.ru;37,661018;55,679802;87029483
236;Государственное бюджетное образовательное учреждение города Москвы средняя общеобразовательная школа с углубленным изучением английского языка № 1375;115533 г. Москва, Нагатинская наб., д.24;Южный административный округ;район Нагатино-Садовники;Государственное;Южное окружное управление образования;Общеобразовательное учреждение;Средняя общеобразовательная школа с углубленным изучением отдельных предметов;(499) 618-99-10;schuu1375.mskobr.ru;sch1375@sinergi.ru;37,656738;55,68133;87029484
237;Государственное бюджетное образовательное учреждение города Москвы средняя общеобразовательная школа с углубленным изучением английского языка № 1375;115533 г. Москва, Нагатинская наб., д.24;Южный административный округ;район Нагатино-Садовники;Государственное;Южное окружное управление образования;Общеобразовательное учреждение;Средняя общеобразовательная школа с углубленным изучением отдельных предметов;(499) 618-99-10;schuu1375.mskobr.ru;sch1375@sinergi.ru;37,654406;55,679151;87029485
238;Государственное бюджетное образовательное учреждение города Москвы средняя общеобразовательная школа с углубленным изучением биологии и химии № 1344;109472, г. Москва, ул. Чугунные ворота, дом 11;Юго-Восточный административный округ;район Выхино-Жулебино;Государственное;Юго-Восточное окружное управление образования;Общеобразовательное учреждение;Средняя общеобразовательная школа с углубленным изучением отдельных предметов;376-45-35;schuvu1344.mskobr.ru;mail@schuvu1344.ru;37,799882;55,695256;87029514
239;Государственное бюджетное образовательное учреждение города Москвы средняя общеобразовательная школа с углубленным изучением иностранных языков № 1387;125466, г. Москва, улица Соколово - Мещерская, дом 27;Северо-Западный административный округ;район Куркино;Государственное;Северо-Западное окружное управление образования;Общеобразовательное учреждение;Средняя общеобразовательная школа с углубленным изучением отдельных предметов;(499) 401-99-98;schu1387.mskobr.ru;sch1387@szouo.ru;37,382573;55,90429;87029600
240;Государственное бюджетное образовательное учреждение города Москвы средняя общеобразовательная школа с углубленным изучением иностранных языков № 1387;125466, г. Москва, улица Соколово - Мещерская, дом 27;Северо-Западный административный округ;район Куркино;Государственное;Северо-Западное окружное управление образования;Общеобразовательное учреждение;Средняя общеобразовательная школа с углубленным изучением отдельных предметов;(499) 401-99-98;schu1387.mskobr.ru;sch1387@szouo.ru;37,384486;55,903326;87029601
241;Государственное бюджетное образовательное учреждение города Москвы средняя общеобразовательная школа с углубленным изучением английского языка № 1944;125368, г. Москва, ул. Барышиха, д. 17, корп. 1;Северо-Западный административный округ;район Митино;Государственное;Северо-Западное окружное управление образования;Общеобразовательное учреждение;Средняя общеобразовательная школа с углубленным изучением отдельных предметов;(495) 754-08-11;schusz1944.mskobr.ru;sch1944@szouo.ru;37,341822;55,845315;87029602
242;Государственное бюджетное образовательное учреждение города Москвы средняя общеобразовательная школа с углубленным изучением английского языка № 1944;125368, г. Москва, ул. Барышиха, д. 17, корп. 1;Северо-Западный административный округ;район Митино;Государственное;Северо-Западное окружное управление образования;Общеобразовательное учреждение;Средняя общеобразовательная школа с углубленным изучением отдельных предметов;(495) 754-08-11;schusz1944.mskobr.ru;sch1944@szouo.ru;37,344413;55,845125;87029603
243;Государственное бюджетное образовательное учреждение города Москвы средняя общеобразовательная школа с углубленным изучением английского языка № 1944;125368, г. Москва, ул. Барышиха, д. 17, корп. 1;Северо-Западный административный округ;район Митино;Государственное;Северо-Западное окружное управление образования;Общеобразовательное учреждение;Средняя общеобразовательная школа с углубленным изучением отдельных предметов;(495) 754-08-11;schusz1944.mskobr.ru;sch1944@szouo.ru;37,355406;55,8371;87029604
244;Государственное бюджетное образовательное учреждение города Москвы средняя общеобразовательная школа с углубленным изучением иностранных языков № 1259;115054 г. Москва, 5-й Монетчиковский пер., д.7;Центральный административный округ;район Замоскворечье;Государственное;Центральное окружное управление образования;Общеобразовательное учреждение;Средняя общеобразовательная школа с углубленным изучением отдельных предметов;953-04-16;schuc1259.mskobr.ru;dc47@yandex.ru;37,634133;55,73171;87029630
245;Государственное бюджетное образовательное учреждение города Москвы средняя общеобразовательная школа с углубленным изучением иностранных языков № 1259;115054 г. Москва, 5-й Монетчиковский пер., д.7;Центральный административный округ;район Замоскворечье;Государственное;Центральное окружное управление образования;Общеобразовательное учреждение;Средняя общеобразовательная школа с углубленным изучением отдельных предметов;953-04-16;schuc1259.mskobr.ru;dc47@yandex.ru;37,634393;55,734853;87029631
246;Государственное бюджетное образовательное учреждение города Москвы средняя общеобразовательная школа с углубленным изучением математики, информатики, физики № 444;105043, город Москва, Нижняя Первомайская улица, дом 14;Восточный административный округ;район Измайлово;Государственное;Восточное окружное управление образования;Общеобразовательное учреждение;Средняя общеобразовательная школа с углубленным изучением отдельных предметов;(499) 367-47-18;schv444.mskobr.ru;sch444@yandex.ru;37,79633;55,790621;87029653
247;"Государственное бюджетное образовательное учреждение города Москвы средняя общеобразовательная школа с углубленным изучением английского языка и музыки № 368 ""Лосиный остров"".";107065  Москва,  ул. Уссурийская, дом 12;Восточный административный округ;район Гольяново;Государственное;Восточное окружное управление образования;Общеобразовательное учреждение;Средняя общеобразовательная школа с углубленным изучением отдельных предметов;469-00-13;schv368.mskobr.ru;inf368@yandex.ru;37,817842;55,822171;87029696
248;"Государственное бюджетное образовательное учреждение города Москвы средняя общеобразовательная школа с углубленным изучением английского языка и музыки № 368 ""Лосиный остров"".";107065  Москва,  ул. Уссурийская, дом 12;Восточный административный округ;район Гольяново;Государственное;Восточное окружное управление образования;Общеобразовательное учреждение;Средняя общеобразовательная школа с углубленным изучением отдельных предметов;469-00-13;schv368.mskobr.ru;inf368@yandex.ru;37,814986;55,819014;87029697
249;Государственное бюджетное образовательное учреждение города Москвы средняя общеобразовательная школа с углубленным изучением испанского языка № 1252 имени Сервантеса;125080 г. Москва, ул. Дубосековская, д. 3;Северный административный округ;район Сокол;Государственное;Северное окружное управление образования;Общеобразовательное учреждение;Средняя общеобразовательная школа с углубленным изучением отдельных предметов;(499) 158-69-89;schs1252.mskobr.ru;sc1252@yandex.ru;37,495731;55,80949;87029703
250;Государственное бюджетное образовательное учреждение города Москвы средняя общеобразовательная школа c углубленным изучением английского языка № 1210;123098, г. Москва, ул. Гамалеи, д. 17, корп. 1;Северо-Западный административный округ;район Щукино;Государственное;Северо-Западное окружное управление образования;Общеобразовательное учреждение;Средняя общеобразовательная школа с углубленным изучением отдельных предметов;"(499) 196-53-47; (499) 196-64-18; (499) 196-53-70; (499) 196-43-89";schu1210.mskobr.ru/;sch1210@szouo.ru;37,456997;55,80024;87029784
251;Государственное бюджетное образовательное учреждение города Москвы средняя общеобразовательная школа с углублённым изучением иностранных языков № 1900;125222, г. Москва, улица Дубравная, дом 41, корпус 3;Северо-Западный административный округ;район Митино;Государственное;Северо-Западное окружное управление образования;Общеобразовательное учреждение;Средняя общеобразовательная школа с углубленным изучением отдельных предметов;(495) 794-10-56;sch1900.mskobr.ru;sch1900@szouo.ru;37,358796;55,843711;87029785
252;Государственное бюджетное образовательное учреждение города Москвы средняя общеобразовательная школа с углублённым изучением иностранных языков № 1900;125222, г. Москва, улица Дубравная, дом 41, корпус 3;Северо-Западный административный округ;район Митино;Государственное;Северо-Западное окружное управление образования;Общеобразовательное учреждение;Средняя общеобразовательная школа с углубленным изучением отдельных предметов;(495) 794-10-56;sch1900.mskobr.ru;sch1900@szouo.ru;37,360479;55,843272;87029786
253;Государственное бюджетное образовательное учреждение города Москвы средняя общеобразовательная школа с углубленным изучением английского языка № 1204;105082 г. Москва, Рубцов пер., д.10/14., стр.1;Центральный административный округ;Басманный район;Государственное;Центральное окружное управление образования;Общеобразовательное учреждение;Средняя общеобразовательная школа с углубленным изучением отдельных предметов;(499) 261-60-85;;sch1204@mail.ru;37,691684;55,772871;87029843
254;"Государственное бюджетное образовательное учреждение города Москвы средняя общеобразовательная школа с углубленным изучением области знаний ""Искусство"" № 1372";117042, г. Москва, Чечёрский проезд, дом 80;Юго-Западный административный округ;район Южное Бутово;Государственное;Юго-Западное окружное управление образования;Общеобразовательное учреждение;Средняя общеобразовательная школа с углубленным изучением отдельных предметов;715-27-18;;sch1372@mosuzedu.ru;37,522889;55,533798;87029881
255;Государственное бюджетное образовательное учреждение города Москвы средняя общеобразовательная школа с углубленным изучением иностранного языка № 1215 имени Ромена Роллана;129110 г.Москва, Больничный пер., д.4;Центральный административный округ;Мещанский район;Государственное;Центральное окружное управление образования;Общеобразовательное учреждение;Средняя общеобразовательная школа с углубленным изучением отдельных предметов;(495) 681-08-50;schuc1215.mskobr.ru/;1215sch@couo.ru;37,631952;55,785155;87029892
256;Государственное бюджетное образовательное учреждение города Москвы средняя общеобразовательная школа с углубленным изучением иностранного языка № 1231 имени В.Д.Поленова;119002 г.Москва, Спасопесковский пер., д.6, стр.7;Центральный административный округ;район Арбат;Государственное;Центральное окружное управление образования;Общеобразовательное учреждение;Средняя общеобразовательная школа с углубленным изучением отдельных предметов;241-43-84;schuc1231.mskobr.ru;2277ds@mail.ru;37,589009;55,749843;87029893
257;"Автономная некоммерческая организация средняя общеобразовательная школа с углубленным изучением языков ""Международная общеобразовательная школа ""Интеграция XXI век""";123592, г. Москва,  ул. Маршала Катукова, д.16, к.3;Северо-Западный административный округ;район Строгино;Негосударственное;Негосударственное;Общеобразовательное учреждение;Средняя общеобразовательная школа с углубленным изучением отдельных предметов;(499) 194-72-90,(495) 750-31-02;nouintegracija21.mskobr.ru;Teacher_ostrov@mail.ru;37,489677;55,800892;87029905
258;"Автономная некоммерческая организация средняя общеобразовательная школа с углубленным изучением языков ""Международная общеобразовательная школа ""Интеграция XXI век""";123592, г. Москва,  ул. Маршала Катукова, д.16, к.3;Северо-Западный административный округ;район Строгино;Негосударственное;Негосударственное;Общеобразовательное учреждение;Средняя общеобразовательная школа с углубленным изучением отдельных предметов;(499) 194-72-90,(495) 750-31-02;nouintegracija21.mskobr.ru;Teacher_ostrov@mail.ru;37,489677;55,800892;87029906
259;Государственное бюджетное образовательное учреждение города Москвы средняя общеобразовательная школа с углубленным изучением иностранного (английского) языка № 1207;115582 г. Москва, ул. Домодедовская, д. 24, корп. 7;Южный административный округ;район Орехово-Борисово Южное;Государственное;Южное окружное управление образования;Общеобразовательное учреждение;Средняя общеобразовательная школа с углубленным изучением отдельных предметов;391-59-10;schu575.mskobr.ru;sch1207@sinergi.ru;37,710141;55,602865;87029908
260;Государственное бюджетное образовательное учреждение города Москвы средняя общеобразовательная школа с углубленным изучением иностранного (английского) языка № 1207;115582 г. Москва, ул. Домодедовская, д. 24, корп. 7;Южный административный округ;район Орехово-Борисово Южное;Государственное;Южное окружное управление образования;Общеобразовательное учреждение;Средняя общеобразовательная школа с углубленным изучением отдельных предметов;391-59-10;schu575.mskobr.ru;sch1207@sinergi.ru;37,711286;55,602219;87029909
261;Государственное бюджетное образовательное учреждение города Москвы средняя общеобразовательная школа с углубленным изучением иностранного (английского) языка № 1207;115582 г. Москва, ул. Домодедовская, д. 24, корп. 7;Южный административный округ;район Орехово-Борисово Южное;Государственное;Южное окружное управление образования;Общеобразовательное учреждение;Средняя общеобразовательная школа с углубленным изучением отдельных предметов;391-59-10;schu575.mskobr.ru;sch1207@sinergi.ru;37,704026;55,607342;87029910
262;Государственное бюджетное образовательное учреждение города Москвы средняя общеобразовательная школа с углубленным изучением иностранного (английского) языка № 1207;115582 г. Москва, ул. Домодедовская, д. 24, корп. 7;Южный административный округ;район Орехово-Борисово Южное;Государственное;Южное окружное управление образования;Общеобразовательное учреждение;Средняя общеобразовательная школа с углубленным изучением отдельных предметов;391-59-10;schu575.mskobr.ru;sch1207@sinergi.ru;37,709243;55,605632;87029911
263;Государственное бюджетное образовательное учреждение города Москвы средняя общеобразовательная школа с углубленным изучением иностранного (английского) языка № 1207;115582 г. Москва, ул. Домодедовская, д. 24, корп. 7;Южный административный округ;район Орехово-Борисово Южное;Государственное;Южное окружное управление образования;Общеобразовательное учреждение;Средняя общеобразовательная школа с углубленным изучением отдельных предметов;391-59-10;schu575.mskobr.ru;sch1207@sinergi.ru;37,705128;55,605515;87029912
264;Государственное бюджетное образовательное учреждение города Москвы средняя общеобразовательная школа с углубленным изучением иностранного (английского) языка № 1207;115582 г. Москва, ул. Домодедовская, д. 24, корп. 7;Южный административный округ;район Орехово-Борисово Южное;Государственное;Южное окружное управление образования;Общеобразовательное учреждение;Средняя общеобразовательная школа с углубленным изучением отдельных предметов;391-59-10;schu575.mskobr.ru;sch1207@sinergi.ru;37,707642;55,606768;87029913
265;Государственное бюджетное образовательное учреждение города Москвы средняя общеобразовательная школа с углубленным изучением отдельных предметов № 1367;109125, Москва, ул. Васильцовский стан, д 6.;Юго-Восточный административный округ;Рязанский район;Государственное;Юго-Восточное окружное управление образования;Общеобразовательное учреждение;Средняя общеобразовательная школа с углубленным изучением отдельных предметов;(499) 503-85-37;schuv488.mskobr.ru;1367@bk.ru;37,752156;55,714702;87029945
266;Государственное бюджетное образовательное учреждение города Москвы средняя общеобразовательная школа с углубленным изучением английского языка № 1206;117593, г. Москва, Литовский бульвар  дом 3, корпус 3;Юго-Западный административный округ;район Ясенево;Государственное;Юго-Западное окружное управление образования;Общеобразовательное учреждение;Средняя общеобразовательная школа с углубленным изучением отдельных предметов;426-64-22;;sch1206@mail.ru;37,531675;55,615174;87029952
267;Государственное бюджетное образовательное учреждение города Москвы средняя общеобразовательная школа с углубленным изучением английского языка № 1206;117593, г. Москва, Литовский бульвар  дом 3, корпус 3;Юго-Западный административный округ;район Ясенево;Государственное;Юго-Западное окружное управление образования;Общеобразовательное учреждение;Средняя общеобразовательная школа с углубленным изучением отдельных предметов;426-64-22;;sch1206@mail.ru;37,533391;55,615197;87029953
